id,Postal_Code,City,Country
42507633,64000,PAU,FR
54344402,64000,PAU,FR
16939319,44000,NANTES,FR
23044498,44470,TOUARE SUR LOIRE,FR
42532364,0,OTHER,FR
32627903,64000,PAU,FR
30560587,0,OTHER,FR
37445373,0,OTHER,FR
87750073,31780,CASTELGINEST,FR
36564577,92380,Garches,FR
38461934,38180,SEYSSINS,FR
55466210,95000,CERGY,FR
95916603,95800,CERGY LE HAUT,FR
31532262,95000,CERGY,FR
17051795,0,OTHER,FR
4195180,87000,LIMOGES,FR
76015864,95000,CERGY,FR
79830103,95150,TAVERNY,FR
80333696,31400,TOULOUSE,FR
14393066,64140,LONS,FR
97082410,0,OTHER,FR
52209274,91400,ORSAY,FR
26697955,78460,CHOISEL,FR
78417027,91250,ST GERMAIN LES CORBEIL,FR
22124254,64000,PAU,FR
8853328,0,OTHER,FR
38183552,36120,ARDENTES,FR
59661571,1100,OYONNAX,FR
33034454,95110,SANNOIS,FR
65599863,40510,SEIGNOSSE,FR
83844223,95140,GARGES LES GONESSE,FR
67723111,60100,Creil,FR
17273735,95500,GONESSE,FR
6268290,64000,PAU,FR
80733109,95340,PERSAN,FR
60242461,75015,PARIS,FR
61373340,38000,GRENOBLE,FR
93086872,0,OTHER,FR
22795658,93120,LA COURNEUVE,FR
5467422,64000,PAU,FR
2919623,0,OTHER,FR
45624987,44000,NANTES,FR
14355521,92400,COURBEVOIE,FR
39975570,33000,BORDEAUX,FR
45115031,93120,LA COURNEUVE,FR
73641084,95800,Cergy St Christophe,FR
2831798,92120,MONTROUGE,FR
72376603,93340,LE RAINCY,FR
52187655,78600,MAISON LAFITTE,FR
66056626,64000,PAU,FR
5246371,78700,CONFLANS STE HONORINE,FR
65501676,0,OTHER,FR
44619997,18700,AUBIGNY SUR NERE,FR
38064101,0,OTHER,FR
70568402,0,OTHER,FR
64631886,95000,CERGY,FR
63197728,95220,Herblay,FR
55122870,92400,COURBEVOIE,FR
82706067,0,OTHER,FR
75566817,91120,PALAISEAU,FR
98227765,44800,SAINT HERBLAIN,FR
14404810,76130,MONT SAINT AIGNAN,FR
5168483,95800,CERGY,FR
5023808,95800,CERGY LE HAUT,FR
42832865,95800,CERGY LE HAUT,FR
19195044,93700,DRANCY,FR
15708671,92400,COURBEVOIE,FR
57289943,0,OTHER,FR
24619134,94700,MAISON ALFORT,FR
39847452,78230,LE PECQ,FR
9662601,0,Casabanca,MA
78935486,95000,CERGY,FR
25455090,95000,CERGY,FR
94689217,94200,IVRY SUR SEINE,FR
54368635,95300,PONTOISE,FR
42197441,64000,PAU,FR
25850358,0,Oran,DZ
29529751,0,OTHER,FR
50793629,27180,LES BAUX STE CROIX,FR
74311907,77400,ST THIBAULT DES VIGNES,FR
74909953,13008,MARSEILLE,FR
43429922,0,Fes,MA
25163247,6000,NICE,FR
77654450,57970,YUTZ,FR
3663965,0,Choix,FR
54412625,0,MEKNS,MA
32354997,95800,CERGY,FR
80471462,95200,SARCELLES,FR
61391158,95000,CERGY,FR
63439177,95000,CERGY,FR
35809278,95270,VIARMES,FR
59601105,78000,VERSAILLES,FR
7491683,95000,CERGY,FR
27964140,0,OTHER,FR
10491229,93230,ROMAINVILLE,FR
45752487,0,75015,FR
64820029,75012,PARIS,FR
30064192,95180,MENUCOURT,FR
97265512,0,CHOIX,FR
69734164,0,OTHER,FR
13488535,78450,VILLEPREUX,FR
12494398,0,SAFI,MA
51312089,65350,LANSAC,FR
77642744,0,OTHER,FR
60745843,78300,POISSY,FR
59615005,92400,COURBEVOIE,FR
7699117,95540,MERY SUR OISE,FR
70470355,0,OTHER,FR
67593852,95000,CERGY,FR
21362031,40100,DAX,FR
38943793,95014,CERGY,FR
38107682,0,OTHER,FR
98552791,78370,PLAISIR,FR
7869314,95160,MONTMORENCY,FR
53221268,20226,SPELONCATO,FR
1891730,93220,GAGNY,FR
68817434,95000,CERGY,FR
37523479,0,TARRAGONE,ES
85495269,95180,MENUCOURT,FR
4224024,75011,Paris,FR
82634219,0,OTHER,FR
51517948,0,OTHER,FR
16891049,0,OTHER,FR
67811591,64121,MONTARDON,FR
20153829,59960,NEUVILLE EN FERRAIN,FR
24687973,61200,ARGENTAN,FR
90275118,60110,AMBLAINVILLE,FR
24753408,95160,Montmorency,FR
51634147,0,OTHER,FR
11931605,0,OTHER,FR
39338892,0,OTHER,FR
42024148,95000,CERGY,FR
2105718,75014,PARIS,FR
51954651,95000,CERGY,FR
35655796,60110,Mru,FR
3044927,59234,MONCHECOURT,FR
32862362,0,OTHER,FR
48124805,0,OTHER,FR
71257815,0,OTHER,FR
75774655,31200,TOULOUSE,FR
71298789,0,OTHER,FR
18579144,75011,PARIS 11EME ARRONDISSEME,FR
59943949,92600,ASNIERES SUR SEINE,FR
71308490,0,OTHER,FR
89030545,65200,BAGNERES DE BIGORRE,FR
61492834,40360,Donzaq,FR
76309116,95000,CERGY,FR
65487618,75015,PARIS,FR
95986497,95000,CERGY,FR
49976510,66160,LE BOULOU,FR
47454249,95390,ST PRIX,FR
81582139,95490,VAURAL,FR
14156561,0,OTHER,FR
1844980,0,OTHER,FR
81300125,95470,SAINT WITZ,FR
32648226,60560,ORRY LA VILLE,FR
76000061,78700,CONFLANS SAINTE HONORINE,FR
67917862,64110,GELOS,FR
85499250,93400,SAINT OUEN,FR
11249152,45600,ST FLORENT,FR
19630720,78955,CARRIERES SOUS POISSY,FR
9809247,0,OTHER,FR
9618000,0,OTHER,FR
23467748,64000,PAU,FR
90898443,92600,ASNIERES SUR SEINE,FR
73763477,75019,PARIS,FR
1597718,78600,MAISONS LAFFITTE,FR
40731675,0,OTHER,FR
1346073,92130,ISSY LES MOULINEAUX,FR
73149544,17410,ST MARTIN DE RE,FR
44592090,33110,LE BOUSCAT,FR
8822268,0,OTHER,FR
4074413,0,OTHER,FR
64167972,0,Prague 4,CZ
53942709,95801,CERGY,FR
40548493,95300,PONTOISE,FR
78383882,95310,ST OUEN L'AUMONE,FR
8419932,31280,MONS,FR
33299209,89600,VERGIGNY,FR
16140326,95370,MONTIGNY LES CORMEILLES,FR
74664482,0,OTHER,FR
37729367,78590,Noisy Le Roi,FR
6335547,78110,Le Vsinet,FR
65790707,95650,GENICOURT,FR
13776584,95680,MONTLIGNON,FR
20639018,0,OTHER,FR
74672373,75011,PARIS,FR
78105778,95800,Cergy Le Haut,FR
19872513,75016,PARIS,FR
21155046,75018,PARIS,FR
14294078,78150,LE CHESNAY,FR
52493082,64000,PAU,FR
57934051,0,OTHER,FR
80875814,0,OTHER,FR
99242403,0,OTHER,FR
62197232,95800,CERGY,FR
92342619,78530,BUC,FR
61541666,0,OTHER,FR
12040165,0,OTHER,FR
90376617,64110,MAZRES LEZONS,FR
34642378,59263,HOUPLIN ANCOISNE,FR
20901205,0,OTHER,FR
74309885,95000,CERGY,FR
60909,95000,CERGY PONTOISE,FR
14144481,95000,CERGY,FR
1396958,64000,PAU,FR
22130632,75006,PARIS,FR
92540441,0,OTHER,FR
10264911,94200,IVRY SUR SEINE,FR
14599334,93420,VILLEPINTE,FR
48788550,95000,CERGY,FR
50664543,0,OTHER,FR
5647229,92220,BAGNEUX,FR
91834797,95000,Cergy,FR
77039857,31100,TOULOUSE,FR
33407303,79160,COULONGES SUR L'AUTIZE,FR
30448264,0,OTHER,FR
84290372,64420,SOUMOULOU,FR
1573527,75012,PARIS,FR
10770957,95000,Cergy,FR
94918522,78460,CHEVREUSE,FR
15891795,95420,MAGNY EN VEXIN,FR
93224756,93360,NEUILLY PLAISANCE,FR
59280123,75019,PARIS,FR
54025358,95011,CERGY,FR
43834492,0,OTHER,FR
71019500,78500,SARTROUVILLE,FR
96417031,0,OTHER,FR
25709638,0,OTHER,FR
65982873,78420,CARRIRES SUR SEINE,FR
30925110,0,OTHER,FR
13026259,0,OTHER,FR
29321136,0,OTHER,FR
7609094,0,OTHER,FR
16201234,0,OTHER,FR
88808962,38000,GRENOBLE,FR
39126324,94350,VILLIERS SUR MARNE,FR
28466179,92330,SCEAUX,FR
58331148,0,OTHER,FR
24041494,95340,RONQUEROLLES,FR
35238351,95000,CERGY,FR
23460924,95000,NEUVILLE SUR OISE,FR
28770321,0,OTHER,FR
25519742,0,OTHER,FR
12989843,95160,MONTMORENCY,FR
91333934,95430,AUVERS SUR OISE,FR
85900384,95800,CERGY ST CHRISTOPHE,FR
88382314,0,OTHER,FR
65166186,0,OTHER,FR
815930,45110,CHATEAUNEUF SUR LOIRE,FR
72968188,95000,Cergy,FR
87261141,27400,HONDOUVILLE,FR
77433460,75002,PARIS,FR
5264921,75015,PARIS,FR
49656739,33700,MERIGNAC,FR
88667735,69003,LYON,FR
64735697,0,OTHER,FR
45329385,0,OTHER,FR
96477939,95300,PONTOISE,FR
39854118,0,OTHER,FR
67379830,14000,CAEN,FR
53055741,95014,CERGY,FR
5566701,0,Bruxelles,BE
39586046,0,OTHER,FR
22208427,95800,CERGY,FR
64989783,95000,CERGY,FR
39473505,64110,JURANCON,FR
44773552,0,OTHER,FR
20300975,78000,VERSAILLES,FR
35371005,0,OTHER,FR
57448796,95000,Cergy,FR
65686613,30340,Mons,FR
7751296,78280,GUYANCOURT,FR
30343847,64400,LEDEUIX,FR
36290698,0,OTHER,FR
7908365,0,OTHER,FR
7225729,92110,CLICHY,FR
79125139,0,OTHER,FR
47662436,91360,VILLEMOISSON SUR ORGE,FR
19191545,0,OTHER,FR
44650421,0,OTHER,FR
43987688,0,OTHER,FR
83678172,95801,CERGY,FR
3143098,95430,AUVERS SUR OISE,FR
71247793,64000,PAU,FR
80581848,64000,PAU,FR
1693994,51390,JOUY LES REIMS,FR
94056831,95550,BESSANCOURT,FR
52938478,0,OTHER,FR
12679173,0,OTHER,FR
28663080,33000,BORDEAUX,FR
6506153,95800,CERGY,FR
81521919,0,OTHER,FR
63897848,95620,PARMAIN,FR
63627538,0,OTHER,FR
57446777,78500,SARTROUVILLE,FR
88450706,78950,GAMBAIS,FR
68243825,64121,MONTARDON,FR
70293293,0,OTHER,FR
33290817,0,OTHER,FR
26704940,95000,CERGY,FR
43349179,0,OTHER,FR
54068927,0,OTHER,FR
72917481,95800,CERGY LE HAUT,FR
31159775,95880,ENGHIENS LES BAINS,FR
9258886,0,OTHER,SE
95169505,60300,AVILLY SAINT LEONARD,FR
84659188,92500,RUEIL MALMAISON,FR
84390059,64420,ARTIGUELOUTAN,FR
97319175,0,OTHER,FR
7859280,0,OTHER,FR
9386117,33440,AMBARES,FR
89317072,0,OTHER,FR
80156111,38000,GRENOBLE,FR
42997214,0,OTHER,FR
38627623,95230,SOISY SOUS MONTMORENCY,FR
33637589,95014,CERGY PONTOISE,FR
7260694,78500,SARTROUVILLE,FR
33642877,64000,PAU,FR
75146905,0,OTHER,FR
77668955,93220,GAGNY,FR
68136584,95220,HERBLAY,FR
51279704,18000,BOURGES,FR
1822894,78700,CONFLANS STE HONORINE,FR
99268852,92150,SURESNES,FR
21076334,95000,CERGY,FR
23133390,78170,LA CELLE ST CLOUD,FR
96202001,91230,MONTGERON,FR
98587671,78630,orgeval,FR
6583990,94000,CRETEIL,FR
41199180,78780,MAURECOURT,FR
33930668,0,OTHER,FR
22474319,75019,PARIS,FR
1731363,92300,LEVALLOIS PERRET,FR
92109025,78260,ACHERES,FR
75810195,94120,FONTENAY SOUS BOIS,FR
53246572,64000,PAU,FR
78847677,0,DEN HAAG,NL
87802285,95220,HERBLAY,FR
55637852,78260,ACHERES,FR
77901023,95800,CERGY SAINT CHRISTOPHE,FR
9553273,92120,MONTROUGE,FR
3442949,64000,PAU,FR
42255550,0,OTHER,FR
92835283,78570,CHANTELOUP LES VIGNES,FR
71660293,0,OTHER,FR
45133775,92250,LA GARENNE COLOMBES,FR
15159508,78600,Maisons Laffitte,FR
71158541,93250,VILLEMOMBLE,FR
97270414,95000,Cergy,FR
32593681,95270,ST MARTIN DU TERTRE,FR
66119661,95110,SANNOIS,FR
36380409,95490,VAUREAL,FR
21572997,0,OTHER,FR
35113709,28200,Marbou,FR
25973792,11000,CARCASSONNE,FR
64425512,95800,CERGY LE HAUT,FR
77202315,0,OTHER,FR
69119482,75018,PARIS,FR
29747446,0,ARUE,PF
15842875,75013,PARIS,FR
36368685,95370,MONTIGNY LES CORMEILLES,FR
18589857,78500,SARTROUVILLE,FR
6864378,95000,Cergy,FR
99050537,59380,ARMBOUTS CAPPEL,FR
99968304,95490,VAUREAL,FR
85196312,64140,Billre,FR
42563644,64140,Billre,FR
59003787,64170,SERRES ST MARIE,FR
30799499,95370,MONTIGNY LES CORMEILLES,FR
94265474,95000,Cergy,FR
11538612,78700,CONFLANS STE HONORINE,FR
16813966,94100,ST MAUR DES FOSSES,FR
37085825,64000,Pau,FR
17402454,95000,CERGY,FR
70504238,64000,Pau,FR
39796877,95390,SAINT PRIX,FR
96413479,95380,LOUVRES,FR
16982400,92700,COLOMBES,FR
70427393,0,OTHER,FR
18346748,95000,CERGY,FR
55727070,64110,Mazeres Lezons,FR
62321661,95000,NEUVILLE SUR OISE,FR
34968079,95380,LOUVRES,FR
28156986,64110,GELOS,FR
76312889,75014,PARIS 14EME ARRONDISSEMENT,FR
59904459,0,OTHER,FR
86899830,0,ARIANA,TN
78933677,93100,Montreuil,FR
61228507,78600,MAISONS LAFFITTE,FR
5557641,6670,LEVENS,FR
69089446,95000,CERGY,FR
15216361,75009,Paris,FR
6392142,92600,ASNIERES SUR SEINE,FR
62502229,75014,PARIS,FR
76951559,78570,ANDRESY,FR
9521577,91700,STE GENEVIEVE DES BOIS,FR
88639260,81100,CASTRES,FR
84819193,78150,Le chesnay,FR
51839070,64000,PAU,FR
2459792,0,OTHER,FR
39399249,78700,CONFLANS STE HONORINE,FR
26698119,93100,MONTREUIL,FR
87972506,60175,VILLENEUVE LES SABLONS,FR
34356239,0,OTHER,FR
49996135,0,OTHER,FR
36623898,6810,AURIBEAU SUR SIAGNE,FR
76177284,78114,MAGNY LES HAMEAUX,FR
17986476,64000,PAU,FR
52096109,95280,JOUY LE MOUTIER,FR
96401183,75013,PARIS 13EME ARRONDISSEMENT,FR
82772259,0,OTHER,FR
32929386,0,OTHER,FR
31441143,0,OTHER,FR
64715525,92600,Asnire,FR
43999860,0,appartement 313,FR
12681573,64000,PAU,FR
78494314,95220,HERBLAY,FR
93764206,24750,Boulazac,FR
77984214,75002,PARIS,FR
61196811,64320,IDRON,FR
90753952,75011,PARIS,FR
11653090,0,OTHER,FR
74220148,63160,CHAS,FR
37191640,94210,LA VARENNE,FR
56767703,0,95800,FR
88490170,75018,PARIS,FR
26335543,95000,CERGY,FR
25725085,95000,Cergy,FR
2221648,95150,TAVERNY,FR
22343308,95420,MAGNY EN VEXIN,FR
42256668,78100,SAINT GERMAIN EN LAYE,FR
35812728,0,OTHER,FR
43680518,0,OTHER,FR
58399899,0,Choix,FR
52702987,0,OTHER,FR
5723205,0,OTHER,FR
98945559,0,OTHER,FR
11145364,73100,AIX LES BAINS,FR
46143461,0,OTHER,FR
28408997,95160,MONTMORENCY,FR
56305642,0,OTHER,FR
69672089,0,OTHER,FR
11863063,0,OTHER,FR
92669649,0,OTHER,FR
70273165,95000,CERGY,FR
13089306,92420,VAUCRESSON,FR
27897934,78360,MONTESSON,FR
84886455,0,OTHER,FR
56266436,78670,VILLENNES SUR SEINE,FR
54935773,64160,MORLAAS,FR
70718387,92400,COURBEVOIE,FR
79393212,35680,MOULINS,FR
96472283,0,OTHER,FR
26059218,0,OTHER,FR
39651431,95380,Puiseux en France,FR
96166952,0,OTHER,FR
15188289,0,OTHER,FR
14308049,64000,PAU,FR
60081323,0,OTHER,FR
52217781,95800,CERGY,FR
58967205,22360,LANGUEUX,FR
18433953,95000,CERGY,FR
53799202,84320,ENTRAIGUES SUR LA SORGUES,FR
95776626,95000,CERGY,FR
54801082,78700,CONFLANS STE HONORINE,FR
35475246,76000,ROUEN,FR
38652590,0,OTHER,FR
30386702,0,OTHER,FR
75860888,31300,Toulouse,FR
90143320,92210,CLICHY LA GARENNE,FR
41090570,95230,SOISY SOUS MONTMORENCY,FR
34799957,78160,MARLY LE ROI,FR
63436295,64000,Pau,FR
89847276,0,OTHER,FR
53866459,78500,SARTROUVILLE,FR
61027117,64140,BILLERE,FR
24742396,64140,BILLERE,FR
2118082,0,OTHER,FR
22078095,0,OTHER,FR
13034139,0,OTHER,FR
43425944,75013,PARIS,FR
97053928,31670,LABEGE,FR
5118296,64000,PAU,FR
98693929,95310,SAINT OUEN L'AUMNE,FR
48402525,95130,FRANCONVILLE,FR
81908099,0,OTHER,FR
31979679,38330,SAINT ISMIER,FR
58868806,95000,CERGY,FR
72707947,95000,CERGY,FR
12784310,78420,CARRIERES SUR SEINE,FR
57940985,59492,HOYMILLE,FR
57912764,0,OTHER,FR
29579316,95300,PONTOISE,FR
99942662,0,OTHER,FR
24185624,95290,L'ISLE ADAM,FR
11106724,31140,SAINT ALBAN,FR
5147335,83600,FRJUS,FR
50515652,75,GARGES LES GONESSES,FR
23056351,0,OTHER,FR
46134052,95420,Magny En Vexin,FR
3232626,0,OTHER,FR
68988503,95110,SANNOIS,FR
19686411,95011,CERGY PONTOISE CEDEX,FR
19702731,95000,CERGY,FR
44783049,93110,ROSNY SOUS BOIS,FR
24584846,95000,CERGY,FR
40420329,0,OTHER,FR
21214678,78510,TRIEL SUR SEINE,FR
28177299,95540,MERY SUR OISE,FR
61729525,64000,PAU,FR
9201090,75015,PARIS,FR
58614232,94160,ST MANDE,FR
11361977,64000,PAU,FR
65199619,95220,HERBLAY,FR
50911710,31500,TOULOUSE,FR
7369730,2100,SAINT QUENTIN,FR
342051,95520,OSNY,FR
85778881,0,CERGY PONTOISE,FR
54645432,0,OTHER,FR
27509029,78130,CHAPET,FR
48259555,0,95240,FR
96593574,95220,HERBLAY,FR
88299465,0,OTHER,FR
5440203,95000,CERGY,FR
90085982,64800,BAUDREIX,FR
65276192,95630,MERIEL,FR
45906680,92190,MEUDON,FR
68583629,78360,montesson,FR
40362928,0,OTHER,FR
76922809,64000,PAU,FR
7161169,0,OTHER,FR
27975021,93500,PANTIN,FR
71106584,0,OTHER,FR
41764505,95800,CERGY,FR
32736869,0,"Martinez, Buenos Aires",AR
88208992,95800,CERGY,FR
21638775,91070,BONDOUFLE,FR
45538624,75006,PARIS,FR
19908607,75016,PARIS,FR
76579823,64000,PAU,FR
43637624,95690,LABBEVILLE,FR
41180769,75020,PARIS 20EME ARRONDISSEMENT,FR
17483038,75015,PARIS,FR
84069923,75020,PARIS,FR
77983927,93120,LA COURNEUVE,FR
8852696,75017,PARIS,FR
65282493,0,OTHER,FR
29921366,0,OTHER,FR
85721543,0,OTHER,FR
78831055,0,OTHER,FR
38615752,0,OTHER,FR
53406888,0,OTHER,FR
47109225,95000,CERGY,FR
11355816,31840,AUSSONNE,FR
51574255,29270,PLONEOUR LANVERN,FR
93318607,0,OTHER,FR
34264695,95000,CERGY PONTOISE,FR
65593090,95800,cergy,FR
88286359,31130,BALMA,FR
85145976,78700,CONFLANS SAINTE HONORINE,FR
1507655,64000,PAU,FR
47581497,95800,CERGY,FR
49189698,0,OTHER,FR
99283881,95000,NEUVILLE SUR OISE,FR
3494030,38080,L'ISLE D'ABEAU,FR
41937958,40130,CAPBRETON,FR
46823223,95000,CERGY,FR
33000751,64320,SENDETS,FR
10738243,34690,FABREGUES,FR
70820317,0,OTHER,FR
83949552,95420,MAGNY EN VEXIN,FR
43979674,0,OTHER,FR
26959650,0,OTHER,FR
72128469,0,OTHER,FR
11578952,0,OTHER,FR
26243482,95450,THEMERICOURT,FR
5446269,64320,BIZANOS,FR
53581958,0,OTHER,FR
35361568,97351,MATOURY,FR
75807525,76130,MONT SAINT AIGNAN,FR
44107247,0,OTHER,FR
84522431,95660,CHAMPAGNE SUR OISE,FR
21990517,0,OTHER,FR
87472152,62650,MANINGHEM AU MONT,FR
88278624,95014,CERGY,FR
58735423,27150,MORGNY,FR
21293628,95000,CERGY,FR
5371279,91170,VIRY CHATILLON,FR
7357595,77610,MARLES EN BRIE,FR
21023228,75017,PARIS,FR
73354968,78800,HOUILLES,FR
23146429,92270,BOIS COLOMBES,FR
93120120,95520,OSNY,FR
69098305,64000,PAU,FR
75863704,65200,VISKER,FR
47131653,0,OTHER,FR
83118726,0,OTHER,FR
64306260,10440,TORVILLIERS,FR
17070674,64000,PAU,FR
88722169,95000,CERGY,FR
79673011,0,OTHER,FR
49232044,0,LISBONNE,PT
73901039,83200,TOULON,FR
12681193,64160,SAINT JAMMES,FR
50959524,95610,ERAGNY,FR
50194703,0,OTHER,FR
79650369,0,OTHER,FR
52555494,94430,CHENNEVIERE S/MARNE,FR
64937772,64000,PAU,FR
86935822,65390,ANDREST,FR
69126132,64000,PAU,FR
78371942,95230,SOISY SOUS MONTMORENCY,FR
50115521,0,OTHER,FR
10276876,33127,Martignas sur Jalles,FR
72618128,95280,JOUY LE MOUTIER,FR
89786278,95000,CERGY PONTOISE,FR
6316920,0,OTHER,FR
70483325,78510,TRIEL SUR SEINE,FR
4655160,64110,ST FAUST,FR
10851625,8000,CHARLEVILLE MEZIEREZ,FR
62961185,78260,ACHRES,FR
20178191,33290,LE PIAN MDOC,FR
56147179,59493,VILLENEUVE D'ASCQ,FR
3858363,59130,LAMBERSART,FR
39918621,0,OTHER,FR
59813256,68100,MULHOUSE,FR
91111326,95120,ERMONT,FR
10078376,95000,CERGY,FR
36434730,0,OTHER,FR
28649625,64000,PAU,FR
14965651,0,OTHER,FR
85119280,92320,CHATILLON,FR
2814002,95800,CERGY ST CHRISTOPHE,FR
9262607,95000,Cergy,FR
88488717,0,OTHER,FR
95066771,93160,NOISY LE GRAND,FR
34717133,95000,Cergy,FR
1640886,0,OTHER,FR
40027646,0,OTHER,FR
53216396,0,OTHER,FR
45671245,0,OTHER,FR
90419759,92600,ASNIERES SUR SEINE,FR
83743219,95620,PARMAIN,FR
57473115,64000,PAU,FR
31300102,64000,PAU,FR
45973096,32300,MIRANDE,FR
12932707,92700,COLOMBES,FR
99437039,0,OTHER,FR
39581630,95230,SOISY SOUS MONTMORENCY,FR
80518863,95230,SOISY SOUS MONTMORENCY,FR
57983277,0,Province d'El Jadida,MA
46079911,93200,ST DENIS,FR
84484450,95000,CERGY PONTOISE,FR
73217852,0,OTHER,FR
92580530,95000,CERGY,FR
19591633,63830,DURTOL,FR
9045300,92300,LEVALLOIS PERRET,FR
65012365,0,OTHER,FR
22759568,95000,CERGY,FR
87394253,0,OTHER,FR
78844326,83210,SOLLIES PORT,FR
94616019,0,OTHER,FR
37674773,75017,PARIS,FR
67751773,92400,COURBEVOIE,FR
96198428,95330,DOMONT,FR
57614849,78700,CONFLANS SAINTE HONORINE,FR
73438712,95000,CERGY,FR
84832653,0,OTHER,FR
11917761,64000,PAU,FR
12645774,94120,FONTENAY SOUS BOIS,FR
43002674,0,CASABLANCA,MA
51988164,75002,PARIS,FR
60903084,75013,PARIS,FR
88398379,95240,CORMEILLES EN PARISIS,FR
68324739,94380,BONNEUIL SUR MARNE,FR
94261286,78955,CARRIERES SOUS POISSY,FR
66151286,95000,CERGY,FR
69079885,95014,Cergy,FR
3295402,95300,PONTOISE,FR
79500250,0,OTHER,FR
40332119,95110,SANNOIS,FR
49094603,0,OTHER,FR
56158286,0,KORBA,TN
20919180,92400,COURBEVOIE,FR
1867476,92400,COURBEVOIE,FR
7546181,59000,LILLE,FR
4710912,92400,COURBEVOIE,FR
11859301,75012,PARIS 12EME ARRONDISSEMENT,FR
74274972,0,OTHER,FR
11248284,78980,ST ILLIERS LA VILLE,FR
82461024,78980,SAINT ILLIERS LA VILLE,FR
13561459,75015,PARIS,FR
96256904,94160,SAINT MANDE,FR
77702418,95440,ECOUEN,FR
20968169,38000,GRENOBLE,FR
41869673,3150,Rongres,FR
48034607,91240,ST MICHEL SUR ORGE,FR
57181932,0,OTHER,FR
42305768,0,OTHER,FR
43217862,92120,MONTROUGE,FR
58618868,92600,ASNIERES SUR SEINE,FR
55935380,21160,COUCHEY,FR
51425203,75015,PARIS,FR
484713,64000,PAU,FR
68917242,0,OTHER,FR
26308016,78600,MAISONS LAFFITTE,FR
40341197,77100,MEAUX,FR
50635736,78670,VILLENNES SUR SEINE,FR
42297736,85000,LA ROCHE SUR YON,FR
95875931,95000,CERGY,FR
99091882,64000,PAU,FR
49377418,34500,BEZIERS,FR
14106969,78740,VAUX SUR SEINE,FR
78917852,95120,ERMONT,FR
8313433,0,OTHER,FR
80711801,33200,BORDEAUX,FR
2162200,33200,BORDEAUX,FR
42385685,95000,CERGY,FR
79611073,0,OTHER,FR
70473400,0,OTHER,FR
68863132,64000,PAU,FR
55899736,95350,SAINT BRICE SOUS FORET,FR
98394111,91280,SAINT PIERRE DU PERRAY,FR
8174665,95520,OSNY,FR
90348191,9270,MAZERES,FR
63970842,78140,VLIZY VILLACOUBLAY,FR
93857836,0,OTHER,FR
8937691,93190,LIVRY GARGAN,FR
45580310,75013,PARIS,FR
10630507,0,OTHER,FR
37479149,91310,MONTLHERY,FR
24770154,78980,MONDREVILLE,FR
25015264,62134,BOYAVAL,FR
54720604,63170,PERIGNAT LES SARLIEVE,FR
79984963,0,FS,MA
9249361,95800,CERGY,FR
75402618,92220,BAGNEUX,FR
96499482,0,OTHER,FR
71554915,75017,PARIS,FR
44165212,92400,COURBEVOIE,FR
3422112,97640,SADA (MAYOTTE),FR
3802794,95800,COURDIMANCHE,FR
61236718,93700,DRANCY,FR
88381939,95000,Cergy,FR
90774456,91300,MASSY,FR
94273260,95000,NEUVILLE SUR OISE,FR
98419102,95000,NEUVILLE SUR OISE,FR
20088103,27140,GISORS,FR
579242,93000,BOBIGNY,FR
12343074,95220,HERBLAY,FR
16897739,0,OTHER,FR
13081667,78380,BOUGIVAL,FR
40699879,92600,ASNIERES SUR SEINE,FR
51392526,78600,MAISONS LAFFITTE,FR
48967059,0,OTHER,FR
19906222,0,OTHER,FR
45283039,95300,PONTOISE,FR
9422403,0,OTHER,FR
14497552,95000,CERGY,FR
36938522,0,OTHER,FR
77820345,0,OTHER,FR
75405889,95000,CERGY,FR
67313000,0,75013,FR
50596535,95100,ARGENTEUIL,FR
79076844,75015,Paris,FR
58626777,95000,CERGY,FR
89509586,93420,VILLEPINTE,FR
75417335,95000,CERGY,FR
79868347,75012,Paris,FR
24877013,95580,ANDILLY,FR
5584311,64000,PAU,FR
46188478,78520,Limay,FR
40847791,0,OTHER,FR
58855340,94300,VINCENNES,FR
59029268,0,suryapet,IN
46674191,95320,ST LEU LA FORET,FR
92667371,78180,MONTIGNY LE BRETONNEUX,FR
6593767,75017,PARIS,FR
10436293,0,OTHER,FR
64550083,21800,QUETIGNY,FR
6200910,93320,LES PAVILLONS SOUS BOIS,FR
25835429,95530,LA FRETTE SUR SEINE,FR
58661977,92200,NEUILLY SUR SEINE,FR
51330385,95630,MERIEL,FR
88871674,95110,SANNOIS,FR
73737212,0,OTHER,FR
44921485,95690,LABBEVILLE,FR
3643,30133,LES ANGLES,FR
89407365,95470,FOSSES,FR
23746912,0,OTHER,FR
12341140,77230,MOUSSY LE VIEUX,FR
74319827,0,MANOUBAH,TN
46960804,0,OTHER,FR
11478211,75003,PARIS,FR
54018646,95320,SAINT LEU LA FORET,FR
82879637,78700,CONFLANS STE HONORINE,FR
19863495,0,OTHER,FR
77891525,83700,SAINT RAPHAEL,FR
65583470,64320,LEE,FR
70642803,0,OTHER,FR
19150273,75016,PARIS,FR
4003413,95000,CERGY,FR
66276579,95000,CERGY,FR
41427032,95000,CERGY,FR
71198412,95000,CERGY,FR
75927006,95120,ERMONT,FR
59755858,95500,GONESSE,FR
33367250,0,OTHER,FR
57986292,0,OTHER,FR
59403351,95800,COURDIMANCHE,FR
84456304,95300,PONTOISE,FR
51483948,0,OTHER,FR
35257831,0,OTHER,FR
73159528,0,OTHER,FR
88268906,95011,Cergy,FR
66692019,78320,LEVIS SAINT NOM,FR
49143101,95280,JOUY LE MOUTIER,FR
12234485,95000,CERGY,FR
50600176,78250,MEULAN,FR
68484209,95800,CERGY,FR
82373689,64160,MORLAAS,FR
1850725,84300,CAVAILLON,FR
49737162,92400,COURBEVOIE,FR
26829152,0,OTHER,FR
36355224,75001,PARIS,FR
59602956,75016,PARIS,FR
29068115,95000,CERGY,FR
36746865,60500,CHANTILLY,FR
24612738,75019,PARIS,FR
17316994,0,OTHER,FR
11817644,95180,MENUCOURT,FR
10597179,78860,ST NOM LA BRETECHE,FR
76712871,21200,BEAUNE,FR
5977115,75013,PARIS,FR
77399321,75010,PARIS,FR
1762435,29600,SAINT MARTIN DES CHAMPS,FR
18417835,0,OTHER,FR
84697633,69008,LYON,FR
46857966,95120,ERMONT,FR
33140563,95000,CERGY,FR
29377789,0,OTHER,FR
51487590,92500,RUEIL MALMAISON,FR
24665196,0,OTHER,FR
96906439,92100,BOULOGNE BILLANCOURT,FR
610045,92300,LEVALLOIS PERRET,FR
41011846,92160,Antony,FR
96103905,95000,CERGY,FR
23712695,13600,LA CIOTAT,FR
4618822,95460,EZANVILLE,FR
51363846,64000,PAU,FR
2237184,95530,LA FRETTE SUR SEINE,FR
79742249,0,OTHER,FR
15320632,0,OTHER,FR
97471954,75011,PARIS,FR
55505496,95000,CERGY,FR
63606368,92320,chatillon,FR
95344693,0,DUSSELDORF,DE
2138317,25000,BESANCON,FR
7945277,76200,DIEPPE,FR
539744,0,OTHER,FR
77072851,64000,PAU,FR
45184892,0,OTHER,FR
68583470,92200,neuilly sur seine,FR
36116223,91540,MENNECY,FR
90433418,78000,VERSAILLES,FR
28883269,31620,CEPET,FR
37020265,3200,VICHY,FR
91577362,75007,PARIS,FR
72966539,95000,CERGY,FR
13549984,95450,CONDECOURT,FR
82283663,95490,VAUREAL,FR
41612272,75020,PARIS 20EME ARRONDISSEMENT,FR
2087766,92410,VILLE D'AVRAY,FR
93149404,64230,LESCAR,FR
79280128,78600,Maisons Laffitte,FR
2460770,94450,LIMEIL BREVANNES,FR
90749007,95300,ENNERY,FR
22933056,75013,PARIS,FR
60067918,87920,CONDAT SUR VIENNE,FR
64221777,77400,THORIGNY,FR
80431960,0,OTHER,FR
62948467,0,OTHER,FR
16489114,95150,TAVERNY,FR
39933370,77220,TOURNAN EN BRIE,FR
14788948,18000,BOURGES,FR
67323138,78570,CHANTELOUP LES VIGNES,FR
74203546,95320,ST LEU LA FORET,FR
72057564,50500,SAINTENY,FR
8115431,47270,GRAYSSAS,FR
85344597,95014,CERGY PONTOISE,FR
2302178,0,OTHER,FR
95490685,92300,LEVALLOIS PERRET,FR
29882526,95801,CERGY ST CHRISTOPHE,FR
15441436,95130,FRANCONVILLE,FR
69256785,0,OTHER,FR
19811206,95000,Cergy,FR
80370858,64000,PAU,FR
61685461,0,OTHER,FR
88483801,0,OTHER,FR
73576583,0,OTHER,FR
54561829,53140,PR EN PAIL,FR
78387568,0,OTHER,FR
65324966,11000,CARCASSONNE,FR
6706587,64230,LESCAR,FR
44513251,0,OTHER,FR
81517311,0,OTHER,FR
82203018,95180,Menucourt,FR
6069639,75014,PARIS,FR
20405010,0,OTHER,FR
15573413,64000,PAU,FR
27828145,0,OTHER,FR
75776653,92300,Levallois Perret,FR
65086783,95230,SOISY SOUS MONTMORENCY,FR
24434390,0,OTHER,FR
40473113,72200,LA FLECHE,FR
91861799,95000,CERGY,FR
12508031,95490,VAUREAL,FR
42787017,78570,ANDRESY,FR
8173787,92250,LA GARENNE COLOMBES,FR
98548847,92270,BOIS COLOMBES,FR
14227866,75016,PARIS 16EME ARRONDISSEMENT,FR
39322442,64140,LONS,FR
87068047,95300,PONTOISE,FR
2849065,95000,CERGY,FR
28991419,75013,PARIS,FR
51540448,95000,CERGY,FR
61423477,0,OTHER,FR
82458623,0,OTHER,FR
54834865,95270,CHAUMONTEL,FR
67763930,64140,LONS,FR
76037352,95800,CERGY,FR
45310836,0,OTHER,FR
1320624,95300,PONTOISE,FR
25392884,64000,PAU,FR
70928363,78460,CHEVREUSE,FR
24945211,0,OTHER,FR
44465778,0,OTHER,FR
98692131,78110,LE VESINET,FR
46003008,95420,CLERY SUR VEXIN,FR
35193957,75116,PARIS,FR
82896551,78300,POISSY,FR
2031691,0,OTHER,FR
47834217,0,OTHER,FR
73202213,0,OTHER,FR
9778987,0,OTHER,FR
42775290,95000,CERGY,FR
87352484,6150,Cannes La Bocca,FR
42390556,95014,CERGY PONTOISE CEDEX,FR
58228452,93600,AULNAY SOUS BOIS,FR
77430570,0,OTHER,FR
18360054,0,OTHER,FR
94598723,78480,Verneuil sur Seine,FR
1007903,75014,PARIS 14EME ARRONDISSEMENT,FR
75551849,0,OTHER,FR
76425647,78000,VERSAILLES,FR
83553247,0,OTHER,FR
29928016,78700,CONFLANS SAINTE HONORINE,FR
26748444,94400,VITRY/SEINE,FR
89165209,95560,MONTSOULT,FR
99348115,77000,MELUN,FR
49281240,0,OTHER,FR
58240370,92230,GENNEVILLIERS,FR
51380475,64160,BUROS,FR
21725633,95800,COURDIMANCHE,FR
40966297,78520,SAINT MARTIN LA GARENNE,FR
98756507,93400,SAINT OUEN,FR
721864,95300,CERGY,FR
9552561,95000,CERGY,FR
23126520,95000,CERGY,FR
86476120,0,OTHER,FR
27055755,78500,SARTROUVILLE,FR
95404581,75014,PARIS 14EME ARRONDISSEMENT,FR
44818707,93360,Neuilly plaisance,FR
56008003,0,OTHER,FR
71751060,0,OTHER,FR
24006852,64420,ESPOEY,FR
82097731,78710,ROSNY SUR SEINE,FR
74420531,95550,BESSANCOURT,FR
45239620,54000,NANCY,FR
87219870,33600,PESSAC,FR
28971019,95000,CERGY,FR
79783530,95460,EZANVILLE,FR
77057346,93360,NEUILLY PLAISANCE,FR
55842767,0,monastir,TN
43315778,95000,CERGY,FR
52462999,64000,Pau,FR
28864083,47130,BRUCH,FR
31248639,67000,STRASBOURG,FR
52141327,95000,Cergy,FR
60093572,92400,Courbevoie,FR
24293326,0,chengdu,CN
93747017,75016,PARIS 16EME ARRONDISSEMENT,FR
56932500,92400,COURBEVOIE,FR
97383482,76620,LE HAVRE,FR
56919589,91940,GOMETZ LE CHATEL,FR
23862847,79400,NANTEUIL,FR
788198,94340,JOINVILLE LE PONT,FR
48556081,21121,FONTAINE LES DIJON,FR
82754773,95120,ERMONT,FR
32905506,12390,Rodez,FR
29251409,77290,MITRY MORY,FR
14408239,57100,THIONVILLE,FR
37795136,0,OTHER,FR
3047159,0,OTHER,FR
33438573,0,OTHER,FR
90111113,64000,PAU,FR
18605575,95000,CERGY,FR
83105633,0,OTHER,CA
49972380,95390,SAINT PRIX,FR
21665267,31290,VALLGUE,FR
70773117,64100,Bayonne,FR
58899034,78700,CONFLANS SAINTE HONORINE,FR
6531974,0,OTHER,FR
66222554,0,OTHER,FR
55190882,76690,Cailly,FR
92597018,95540,MERY SUR OISE,FR
10703368,24700,Montpon Mnsterol,FR
80244557,95130,FRANCONVILLE,FR
52974271,64000,Pau,FR
93107622,0,OTHER,FR
58850078,95310,SAINT OUEN L'AUMONE,FR
25015190,95000,CERGY,FR
3299578,75014,PARIS,FR
80059020,95410,GROSLAY,FR
83859601,95580,MARGENCY,FR
83975343,95801,CERGY,FR
19267428,95800,CERGY LE HAUT,FR
45606904,95000,CERGY,FR
4564084,0,ISTANBUL,TR
54505833,78450,VILLEPREUX,FR
56912357,75020,PARIS,FR
11349140,95000,CERGY,FR
88828769,64230,LESCAR,FR
83034755,0,OTHER,FR
90267027,31310,LATRAPE,FR
62409591,30000,NIMES,FR
69894643,0,OTHER,FR
95662919,92270,BOIS COLOMBES,FR
38948400,0,OTHER,FR
93288157,0,OTHER,FR
74128265,0,OTHER,FR
99637199,0,OTHER,FR
90147673,0,OTHER,FR
58673300,78700,CONFLANS STE HONORINE,FR
26316126,75016,PARIS,FR
79484207,95000,CERGY,FR
86344035,0,OTHER,FR
67635868,0,OTHER,FR
77628039,0,OTHER,FR
9893860,95000,Cergy,FR
16970470,95100,ARGENTEUIL,FR
59638275,0,OTHER,FR
73571269,95870,BEZONS,FR
86054350,75006,PARIS,FR
12964526,78290,CROISSY SUR SEINE,FR
13111011,78230,LE PECQ,FR
98383582,95000,CERGY PONTOISE,FR
57062563,78400,Chatou,FR
48654061,60230,CHAMBLY,FR
38002656,95000,CERGY,FR
44616945,0,OTHER,FR
75517931,64110,JURANCON,FR
94454772,64000,Pau,FR
38801149,78510,TRIEL SUR SEINE,FR
4700021,31200,TOULOUSE,FR
61040144,95800,CERGY,FR
21308625,0,OTHER,FR
76426616,78260,ACHERES,FR
61885474,0,OTHER,FR
94139280,0,OTHER,FR
85885175,0,OTHER,FR
84831632,0,OTHER,FR
79881756,95000,CERGY,FR
43121944,95000,Cergy,FR
51780922,64000,PAU,FR
85166203,95300,PONTOISE,FR
4499397,75017,PARIS,FR
89643612,46090,FLAUJAC POUJOLS,FR
47694887,0,OTHER,FR
61487640,13090,AIX EN PROVENCE,FR
93869203,95300,Pontoise,FR
36237897,64000,PAU,FR
5245179,95600,EAUBONNE,FR
78135352,91120,Palaiseau,FR
40560182,95290,L'ISLE ADAM,FR
69876882,75017,PARIS,FR
24460150,0,OTHER,FR
87212351,64000,PAU,FR
40097318,45210,NARGIS,FR
38921088,95320,ST LEU LA FORET,FR
412247,65000,TARBES,FR
14511589,95800,Cergy,FR
71180850,0,OTHER,FR
33403171,0,OTHER,FR
32089306,95000,CERGY,FR
78828285,0,OTHER,FR
60677343,64000,PAU,FR
11456298,75013,PARIS,FR
35099916,0,OTHER,FR
88201599,93260,LES LILAS,FR
73623487,0,OTHER,FR
72229209,75017,PARIS,FR
52467500,94400,VITRY SUR SEINE,FR
57509795,95000,CERGY,FR
53015803,50810,VIDOUVILLE,FR
68751391,64000,PAU,FR
44804478,54530,PAGNY SUR MOSELLE,FR
78070665,93120,LA COURNEUVE,FR
75697962,0,OTHER,FR
60659412,0,OTHER,FR
74598650,95000,CERGY,FR
92252784,31650,AUZIELLE,FR
93300459,0,ABIDJAN,CI
53899239,0,OTHER,FR
16138008,60240,LIERVILLE,FR
85177127,0,OTHER,FR
45394813,0,OTHER,FR
18914922,95490,VAUREAL,FR
26013499,95000,CERGY,FR
44797338,95340,BERNES SUR OISE,FR
99961231,60119,Monts,FR
21720872,0,OTHER,FR
90938204,0,OTHER,FR
33066324,94230,CACHAN,FR
27542452,95640,MARINES,FR
17974480,95210,ST GRATIEN,FR
63659917,60330,Le Plessis Belleville,FR
40559099,37600,FERRIERE SUR BEAULIEU,FR
54578241,0,OTHER,FR
86880837,0,OTHER,FR
73367802,21000,DIJON,FR
78122883,0,OTHER,FR
61872821,0,OTHER,FR
162387,0,OTHER,FR
18997435,76230,BOIS GUILLAUME,FR
46885006,78170,LA CELLE ST CLOUD,FR
4989287,0,OTHER,FR
50049656,94290,VILLENEUVE LE ROI,FR
56206017,40000,Mont de Marsan,FR
16258144,0,OTHER,FR
30536294,92000,NANTERRE,FR
99058799,95000,CERGY,FR
79465135,95000,CERGY,FR
33397776,78600,MAISONS LAFFITTE,FR
92820327,0,OTHER,FR
16550255,64000,Pau,FR
99688714,94120,FONTENAY SOUS BOIS,FR
16575663,0,OTHER,FR
52318093,0,OTHER,FR
58102804,0,OTHER,FR
23625623,59410,ANZIN,FR
60638574,95240,CORMEILLES EN PARISIS,FR
33177168,0,OTHER,FR
26038120,59240,DUNKERQUE,FR
21267923,95300,ENNERY,FR
1165939,0,OTHER,FR
90203689,0,OTHER,FR
16127417,0,OTHER,FR
98068893,0,OTHER,FR
7594044,78780,MAURECOURT,FR
55632228,38000,Grenoble,FR
18172281,93270,SEVRAN,FR
56193548,64140,LONS,FR
37570783,92150,SURESNES,FR
60821798,95000,CERGY PONTOISE,FR
93596084,31320,Aureville,FR
39137790,0,OTHER,FR
98289745,0,OTHER,FR
3948896,0,OTHER,FR
72344025,39100,DOLE,FR
1435271,78250,TESSANCOURT SUR AUBETTE,FR
75931105,95000,CERGY,FR
17973721,75006,PARIS,FR
5478634,56700,HENNEBONT,FR
78195113,95220,HERBLAY,FR
92781558,95000,CERGY,FR
38271125,64320,IDRON,FR
90626918,95000,CERGY,FR
49641987,95000,CERGY,FR
79860543,75017,PARIS,FR
76077283,95110,SANNOIS,FR
87285539,95800,GERGY ST CHRISTOPHE,FR
1197674,75002,PARIS 2EME ARRONDISSEMENT,FR
87755408,8800,GANVAT,FR
12918957,59000,LILLE,FR
94635725,91200,ATHIS MONS,FR
79288821,0,OTHER,FR
52076510,95000,Cergy,FR
16289803,0,OTHER,FR
17066329,78180,Montigny le Bretonneux,FR
54479049,60300,SENLIS,FR
60621515,95230,SOISY SOUS MONTMORENCY,FR
68221936,75116,PARIS,FR
12399566,37390,LA MEMBROLLE CHOISILLE,FR
53828925,0,OTHER,FR
91358090,95430,AUVERS SUR OISE,FR
92654883,75016,PARIS,FR
18602925,0,OTHER,FR
31687521,0,OTHER,FR
96769222,78570,ANDRESY,FR
88894278,95000,CERGY,FR
1123985,95620,PARMAIN,FR
92506768,94500,CHAMPIGNY S/ MARNE,FR
70291813,64000,PAU,FR
63581437,45000,ORLEANS,FR
1820736,95430,AUVERS SUR OISE,FR
53420132,0,OTHER,FR
71448293,69100,VILLEURBANNE,FR
16665038,95590,PRESLES,FR
70909909,64000,Pau,FR
81026481,62223,SAINTE CATHERINE DES ARRAS,FR
66280972,95800,CERGY ST CHRISTOPHE,FR
3412956,65150,TUZAGUET,FR
99266566,64000,PAU,FR
95349451,78440,PORCHEVILLE,FR
68551184,95000,Cergy,FR
12808005,64230,LESCAR,FR
35482369,95650,BOISSY L'AILLERIE,FR
89647291,92400,Courbevoie,FR
77111599,0,OTHER,FR
10662413,0,OTHER,FR
93616838,95300,PONTOISE,FR
58911260,0,OTHER,FR
72170831,0,OTHER,FR
84743589,75014,PARIS 14EME ARRONDISSEMENT,FR
55264195,92300,LEVALLOIS PERRER,FR
67289196,59247,FCHAIN,FR
10628605,95300,PONTOISE,FR
24081558,95280,JOUY LE MOUTIER,FR
9882635,95310,SAINT OUEN L'AUMONE,FR
89550780,0,OTHER,FR
27165404,95000,Cergy,FR
91750902,0,OTHER,FR
42148754,75014,PARIS,FR
50152356,45100,ORLEANS,FR
39658721,75016,Paris,FR
89106274,0,OTHER,FR
54617805,0,OTHER,FR
59203701,59112,ANNOEULLIN,FR
29583994,93100,MONTREUIL,FR
65545634,94190,VILLENEUVE ST GEORGES,FR
60315303,95000,CERGY,FR
18357482,95000,CERGY,FR
19702757,0,OTHER,FR
16332895,31700,CORNEBARRIEU,FR
49828500,92000,NANTERRE,FR
29172699,75007,PARIS,FR
81029940,73000,BASSENS,FR
47881934,89400,LAROCHE SAINT CYDROINE,FR
68469690,92390,VILLENEUVE LA  GARENNE,FR
3317296,0,OTHER,FR
12219764,0,95740,FR
90598780,33130,BEGLES,FR
68940052,40280,Bretagne de Marsan,FR
73637868,0,OTHER,FR
56388179,0,Fes,MA
59795964,75019,PARIS,FR
80920416,65370,Crechets,FR
87662995,78160,MARLY LE ROI,FR
11703370,0,OTHER,FR
42970912,31120,PORTET SUR GARONNE,FR
98613696,22440,PLOUFRAGAN,FR
8415940,95800,CERGY,FR
13058663,31200,TOULOUSE,FR
31178837,95210,ST GRATIEN,FR
5939693,68140,STOSSWIHR,FR
92519229,0,OTHER,FR
53884371,91790,BOISSY S/ST YON,FR
54553152,5000,GAP,FR
98135178,95100,ARGENTEUIL,FR
78353638,0,OTHER,FR
95797671,0,OTHER,FR
8004773,75017,PARIS 17EME ARRONDISSEMENT,FR
96814356,95000,NEUVILLE SUR OISE,FR
26995306,95000,CERGY,FR
43445339,95300,PONTOISE,FR
88083958,95100,ARGENTEUIL,FR
53200771,75008,PARIS 08EME ARRONDISSEMENT,FR
32625523,77176,SAVIGNY LE TEMPLE,FR
98740411,95000,CERGY,FR
35758886,75015,PARIS,FR
13945900,94100,SAINT MAUR DES FOSSES,FR
36301321,95000,CERGY,FR
481415,0,OTHER,FR
58490832,64000,PAU,FR
803272,95801,CERGY ST CHRISTOPHE,FR
48139081,95800,CERGY SAINT CHRISTOPHE,FR
1944718,95800,CERGY LE HAUT,FR
31072773,38000,Grenoble,FR
27321715,95490,VAUREAL,FR
809644,92380,Garches,FR
97588716,91940,LES ULIS,FR
57817397,95280,JOUY LE MOUTIER,FR
37999933,75019,PARIS,FR
78604296,95150,TAVERNY,FR
91494139,83130,LA GARDE,FR
24297174,94130,Nogent sur marne,FR
12221986,92250,LA GARENNE COLOMBES,FR
70217265,19100,BRIVE,FR
4381653,94340,JOINVILLE LE PONT,FR
27307877,95800,Cergy Le Haut,FR
59383578,60000,BEAUVAIS,FR
43679605,78600,MAISONS LAFFITTE,FR
51480989,6000,NICE,FR
65284045,75015,PARIS,FR
30312602,95014,CERGY PONTOISE,FR
55665101,95000,NEUVILLE SUR OISE,FR
78682738,95000,CERGY,FR
22140823,95390,SAINT PRIX,FR
6263391,77220,TOURNAN EN BRIE,FR
55128590,80000,AMIENS,FR
95554848,92370,CHAVILLE,FR
94866315,95000,CERGY,FR
23964316,75018,PARIS,FR
12184783,0,OTHER,FR
1461744,95390,SAINT PRIX,FR
99416967,0,OTHER,FR
56555020,0,OTHER,FR
15003380,0,Choix,FR
62251609,78500,SARTROUVILLE,FR
33261407,93200,SAINT DENIS,FR
93328872,93120,LA COURNEUVE,FR
51473087,0,Libreville,GA
12370549,64600,Anglet,FR
36135111,95340,BERNES SUR OISE,FR
56957934,75017,Paris,FR
87291810,93100,montreuil,FR
32301946,92400,COURBEVOIE,FR
9036342,95410,GROSLAY,FR
97212570,93250,VILLEMOMBLE,FR
47826991,95330,DOMONT,FR
15391835,95800,CERGY,FR
12584348,64000,PAU,FR
76305127,78700,Conflans Sainte Honorine,FR
50221400,95000,CERGY,FR
1042931,0,Tehran,IR
44258501,94270,LE KREMLIN BICETRE,FR
91966421,91310,LINAS,FR
79164151,92410,VILLE D AVRAY,FR
80631653,14730,GIBERVILLE,FR
7066662,95210,SAINT GRATIEN,FR
3267671,64230,POEY DE LESCAR,FR
97499565,95220,HERBLAY,FR
25939088,92500,RUEIL MALMAISON,FR
51286030,0,"Dhanbad,Jharkhand",IN
12994426,95800,Cergy,FR
99050459,0,Menzel Bouzelfa,TN
57234364,95000,CERGY,FR
94554953,78500,Sartrouville,FR
93607675,78300,POISSY,FR
53745748,95240,CORMEILLES EN PARISIS,FR
57558580,95000,CERGY,FR
5550859,78600,LE MESNIL LE ROI,FR
21690352,0,OTHER,FR
16752201,95014,CERGY,FR
63442987,95100,Argenteuil,FR
16341511,95000,CERGY,FR
30971415,95100,ARGENTEUIL,FR
83782934,94270,LE KREMELIN BICETRE,FR
74320387,95000,CERGY,FR
27525172,78130,LES MUREAUX,FR
3492092,78800,HOUILLES,FR
94074571,0,SALA AL JADIDA,MA
34725170,78100,SAINT GERMAIN EN LAYE,FR
82568517,95000,NEUVILLE SUR OISE,FR
5349990,0,RABAT,MA
96597778,95000,NEUVILLE SUR OISE,FR
39124816,0,OTHER,FR
15930737,0,OTHER,FR
91348934,0,OTHER,FR
82093396,95230,SOISY SOUS MONTMORENCY,FR
6483628,95110,SANNOIS,FR
59822690,92230,GENNEVILLIERS,FR
12502945,0,OTHER,FR
88190696,75017,PARIS,FR
84547436,0,ERRACHIDIA,MA
6323299,93270,SEVRAN,FR
50523546,95000,CERGY,FR
69604912,40180,SAUGNAC ET CAMBRAN,FR
30690064,95000,CERGY,FR
50565609,78570,ANDRESY,FR
41037558,0,OTHER,FR
89860525,80160,SAINT SAUFLIEU,FR
14587200,0,OTHER,FR
18902922,0,OTHER,FR
64579191,91070,BONDOUFLE,FR
78834820,95000,cergy,FR
28925859,95800,CERGY,FR
7276542,94100,ST MAUR DES FOSSES,FR
34004334,75007,PARIS,FR
75363317,0,OTHER,FR
71783671,0,OTHER,FR
95458512,0,OTHER,FR
73238723,92160,antony,FR
15356823,0,OTHER,FR
89635177,64000,PAU,FR
8617660,93600,AULNAY SOUS BOIS,FR
94097343,0,OTHER,FR
65063903,93600,AULNAY SOUS BOIS,FR
67216766,91410,DOURDAN,FR
4343360,95,CERGY,FR
81143855,0,OTHER,FR
63717991,95000,CERGY,FR
54377643,64000,PAU,FR
6110620,93170,BAGNOLET,FR
41936444,95240,CORMEILLES EN PARISIS,FR
42106016,92300,levallois perret,FR
11874156,75017,PARIS,FR
72213897,0,OTHER,FR
86357112,78570,Andrsy,FR
94133049,92700,COLOMBES,FR
66907119,0,OTHER,FR
72008971,64000,PAU,FR
73643459,95000,CERGY,FR
88907585,0,OTHER,FR
46428093,95800,CERGY,FR
68071282,95220,HERBLAY,FR
72909392,93210,LA PLAINE ST DENIS,FR
63651028,95000,NEUVILLE SUR OIE,FR
89845057,95011,CERGY ST CHRISTOPHE,FR
39354324,95000,CERGY,FR
71961095,78130,LES MUREAUX,FR
10908487,0,chandigarh,IN
11389249,64230,LESCAR,FR
64587657,0,OTHER,FR
97450218,95014,CERGY,FR
96118805,64140,BILLERE,FR
68440349,92000,NANTERRE,FR
6600289,92500,RUEIL MALMAISON,FR
53254599,0,OTHER,FR
51764202,95220,HERBLAY,FR
10666658,0,OTHER,FR
31667401,0,OTHER,FR
33322903,95014,CERGY Cedex,FR
85067705,64000,PAU,FR
56676228,78480,VERNEUIL SUR SEINE,FR
82974001,0,OTHER,FR
31966541,31870,LAGARDELLE SUR LEZE,FR
26461355,0,OTHER,FR
91116818,95000,CERGY,FR
50936303,95000,CERGY,FR
72967870,75015,PARIS,FR
95832977,92250,LA GARENNE COLOMBES,FR
79285512,64000,PAU,FR
7647794,92200,NEUILLY SUR SEINE,FR
64270902,70000,VESOUL,FR
18211764,69003,LYON 3EME ARRONDISSEMENT,FR
63529794,95170,DEUIL LA BARRE,FR
46148115,0,OTHER,FR
79007850,95000,CERGY,FR
79480235,31240,L'UNION,FR
47971983,95000,CERGY,FR
66058438,0,OTHER,FR
75972389,92190,MEUDON,FR
78606014,0,OTHER,FR
68931016,92100,BOULOGNE BILLANCOURT,FR
78594073,31120,PORTET SUR GARONNE,FR
59836796,95540,Mry Sur Oise,FR
22817992,34000,MONTPELLIER,FR
12710908,95130,LE PLESSIS BOUCHARD,FR
95191042,92190,MEUDON,FR
93870217,95600,EAUBONNE,FR
22540813,75016,PARIS,FR
3881299,95160,MONTMORENCY,FR
19680015,64000,Pau,FR
79200755,0,OTHER,FR
23583347,95320,Saint Leu la Fort,FR
54982972,95800,CERGY LE HAUT,FR
5610000,92240,MALAKOFF,FR
15368940,95330,DOMONT,FR
37544911,0,OTHER,FR
19007585,94000,CRETEIL,FR
45877262,0,OTHER,FR
59484005,95000,CERGY,FR
69130569,0,OTHER,FR
47002116,78280,guyancourt,FR
36231997,64000,PAU,FR
29120250,78480,VERNEUIL SUR SEINE,FR
74919042,0,OTHER,FR
10735771,33700,MERIGNAC,FR
76458068,64000,PAU,FR
75599040,83500,LA SEYNE SUR MER,FR
16412332,95000,CERGY,FR
72658726,95000,CERGY,FR
29226988,95000,CERGY,FR
30370216,95800,CERGY ST CHRISTOPHE,FR
79597673,0,OTHER,FR
10261475,65190,FRECHOU FRECHET,FR
93159698,64160,SAINT CASTIN,FR
7885697,0,OTHER,FR
69387135,95000,CERGY,FR
78165043,64290,LASSEUBE,FR
25836759,78570,Chanteloup les vignes,FR
49002167,29200,BREST,FR
94998116,94200,Ivry,FR
70616318,95490,VAUREAL,FR
52168624,0,OTHER,FR
19416324,0,OTHER,FR
34268484,95490,VAURAL,FR
13257793,95000,CERGY,FR
79639841,0,OTHER,FR
55756674,13470,CARNOUX,FR
82537378,0,ARIANA,TN
92025375,97200,FORT DE FRANCE,FR
38491855,0,OTHER,FR
48610804,64000,PAU,FR
94974098,75017,PARIS,FR
2290435,95000,CERGY,FR
5092640,92200,NEUILLY,FR
53525055,95000,CERGY,FR
79666786,75014,PARIS,FR
55052141,13100,AIX EN PROVENCE,FR
35435835,95280,JOUY LE MOUTIER,FR
39230323,95000,CERGY,FR
85369633,13100,AIX EN PROVENCE,FR
24418030,95520,OSNY,FR
24240433,95580,ANDILLY,FR
2138485,78360,Avignon,FR
14142772,95500,GONESSE,FR
12839713,0,OTHER,FR
87086451,95150,TAVERNY,FR
92970481,95000,NEUVILLE SUR OISE,FR
33148015,95150,TAVERNY,FR
31446758,0,OTHER,FR
64371106,95000,NEUVILLE SUR OISE,FR
32543027,0,OTHER,FR
89623902,95300,HEROUVILLE,FR
98045885,95610,ERAGNY,FR
78900328,95370,MONTIGNY LES CORMEILLES,FR
3399053,0,OTHER,FR
60259908,78360,MONTESSON,FR
15871838,0,OTHER,FR
84876924,78230,LE PECQ,FR
57456420,64160,OUILLON,FR
2761146,64140,LONS,FR
14949923,0,OTHER,FR
24209844,0,OTHER,FR
11386430,0,OTHER,FR
74949160,60440,boissy fresnoy,FR
34319627,0,OTHER,FR
83895270,0,OTHER,FR
59264459,13140,MIRAMAS,FR
65313615,95801,CERGY ST CHRISTOPHE,FR
28595533,95000,CERGY,FR
47116019,95400,VILLIERS LE BEL,FR
54756767,0,OTHER,FR
2583073,94260,FRESNES,FR
50077191,78800,HOUILLES,FR
51140651,0,OTHER,FR
9140888,92400,COURBEVOIE,FR
83456029,45100,ORLEANS,FR
39255075,92400,COURBEVOIE,FR
12386805,92400,COURBEVOIE,FR
67416498,95500,GONESSE,FR
44704550,0,OTHER,FR
44010946,95690,NESLES LA VALLEE,FR
88299700,64000,PAU,FR
72161279,75010,PARIS 10EME ARRONDISSEMENT,FR
90071260,92110,CLICHY,FR
17392183,95100,ARGENTEUIL,FR
52009856,95800,CERGY LE HAUT,FR
55234006,95880,ENGHIEN LES BAINS,FR
18162272,94140,ALFORTVILLE,FR
89969563,95100,ARGENTEUIL,FR
10981475,92400,COURBEVOIE,FR
82427932,47310,BRAX,FR
70002063,78955,CARRIERES S POISSY,FR
59645678,91600,SAVIGNY SUR ORGE,FR
50616752,93190,LIVRY GARGAN,FR
60318792,95120,Ermont,FR
58737656,77115,SIVRY COURTRY,FR
8135703,95000,CERGY,FR
61402943,0,OTHER,FR
79456386,77340,PONTAULT COMBAULT,FR
41435245,95000,CERGY,FR
34202470,0,OTHER,FR
47727248,0,DAKAR,SN
35731087,0,OTHER,FR
81523948,77174,VILLENEUVE LE COMTE,FR
15511756,95000,CERGY,FR
41683914,75017,PARIS 17EME ARRONDISSEMENT,FR
73079931,75017,PARIS,FR
37300960,78600,MAISONS LAFFITTE,FR
91287132,0,OTHER,FR
70815550,95800,CERGY ST CHRISTOPHE,FR
4964459,77420,CHAMPS SUR MARNE,FR
59882783,95400,VILLIERS LE BEL,FR
73176624,95800,Cergy,FR
29617699,75019,PARIS 19EME ARRONDISSEMENT,FR
92832405,0,OTHER,FR
32342105,40270,GRENADE SUR L ADOUR,FR
76219699,69006,Rhne Alpes,FR
66620436,77220,GRETZ ARMAINVILLIERS,FR
93111430,78480,VERNEUIL SUR SEINE,FR
24289190,28190,ST GERMAIN LE GAILLARD,FR
94876744,95300,PONTOISE,FR
41692390,95800,CERGY LE HAUT,FR
35315678,0,OTHER,FR
88241209,75005,PARIS,FR
97732771,47500,FUMEL,FR
15075560,75116,Paris,FR
61320728,64000,Pau,FR
58212893,95800,CERGY,FR
12543594,18300,BUE,FR
88597273,0,OTHER,FR
24891274,38000,GRENOBLE,FR
73457545,69003,Lyon,FR
60114052,0,OTHER,FR
3147584,28270,MONTIGNY SUR AVRE,FR
26228498,92400,COURBEVOIE,FR
59522702,95490,VAUREAL,FR
29983615,75001,PARIS,FR
45241210,95270,LUZARCHES,FR
27372221,64450,NAVAILLES ANGOS,FR
8679315,64000,Pau,FR
22825407,75020,PARIS,FR
60198464,78200,MANTES LA JOLIE,FR
78045054,64000,PAU,FR
63146187,0,OTHER,FR
40599173,0,OTHER,FR
75260337,95230,SOISY/MONTMORENCY,FR
2344168,37360,Sonzay,FR
35865377,93160,NOISY LE GRAND,FR
17237188,64000,PAU,FR
53430223,95800,CERGY,FR
83026845,95450,THMRICOURT,FR
3012447,0,OTHER,FR
3095333,0,OTHER,FR
14772064,64000,Pau,FR
29676454,0,OTHER,FR
31935241,31300,TOULOUSE,FR
62802807,0,OTHER,FR
97051814,95110,SANNOIS,FR
39736840,0,CHOIX,FR
28055349,92400,COURBEVOIE,FR
30281188,95280,JOUY LE MOUTIER,FR
97971204,17137,L HOUMEAU,FR
10758505,95000,CERGY,FR
51401184,75018,PARIS,FR
73963134,75018,PARIS,FR
31192955,0,OTHER,FR
19405485,0,OTHER,FR
3160239,95000,CERGY,FR
74858908,75009,PARIS 09EME ARRONDISSEMENT,FR
20204626,95130,FRANCONVILLE,FR
41021419,95000,CERGY,FR
99045105,95014,CERGY,FR
26818899,95014,CERGY,FR
71156484,0,OTHER,FR
87435375,0,OTHER,FR
35475917,78290,CROISSY SUR SEINE,FR
16952727,13780,CUGES LES PINS,FR
37659845,0,OTHER,FR
24106586,0,OTHER,FR
14969958,95300,PONTOISE,FR
68505782,92330,Sceaux,FR
44347573,0,OTHER,FR
61225339,78114,GRESSELY,FR
15638926,95280,JOUY LE MOUTIER,FR
3369337,78380,BOUGIVAL,FR
54567727,64230,DENGUIN,FR
5392786,95015,CERGY,FR
22916859,0,OTHER,FR
199398,78500,SARTROUVILLE,FR
65965337,0,OTHER,FR
87578050,0,OTHER,FR
60264801,75006,PARIS 06EME ARRONDISSEMENT,FR
43212414,75006,PARIS,FR
38130725,94140,ALFORTVILLE,FR
60080498,0,OTHER,FR
96788539,0,OTHER,FR
91391418,0,OTHER,FR
97450538,75015,PARIS,FR
66306425,78100,SAINT GERMAIN EN LAYE,FR
15458082,64000,PAU,FR
95464962,64600,Anglet,FR
43365586,95800,CERGY LE HAUT,FR
34910482,95420,BANTHELU,FR
44056086,64160,HIGURES SOUYE,FR
24586707,95360,MONTMAGNY,FR
70462220,66200,ALENYA,FR
38488363,65220,LAPEYRE,FR
20048060,0,OTHER,FR
52431908,0,OTHER,FR
53783039,92210,SAINT CLOUD,FR
46905198,94500,CHAMPIGNY,FR
31308589,95230,Soisy sous Montmorency,FR
41399386,75008,PARIS,FR
962179,0,OTHER,FR
43694275,30340,St julien les rosiers,FR
33650524,0,OTHER,FR
52538931,0,OTHER,FR
16151290,97421,LA RIVIERE  ILE DE LA REUNION,FR
74318043,45650,ST JEAN LE BLANC,FR
74162531,64000,PAU,FR
97158292,95000,CERGY,FR
6983536,95870,BEZONS,FR
63425040,95300,PONTOISE,FR
18071323,0,OTHER,FR
58335350,0,OTHER,FR
1101917,0,OTHER,FR
95833644,95280,JOUY LE MOUTIER,FR
18210318,95000,CERGY PONTOISE CEDEX,FR
68607022,0,OTHER,FR
53741800,33800,BORDEAUX,FR
50933998,33800,BORDEAUX,FR
12417689,75008,PARIS 08EME ARRONDISSEMENT,FR
81025430,93400,SAINT OUEN,FR
59017067,0,OTHER,FR
59026044,95000,CERGY,FR
93092488,44640,Rouans,FR
14809793,64110,Juranon,FR
99713701,78700,CONFLANS STE HONORINE,FR
35686985,78650,SAULX MARCHAIS,FR
55801245,0,OTHER,FR
8350766,95800,Courdimanche,FR
52297983,64000,PAU,FR
54225447,37000,Tours,FR
41598783,0,OTHER,FR
66927516,0,OTHER,FR
31272325,34350,VENDRES,FR
93915324,95830,FREMECOURT,FR
95751344,75012,PARIS,FR
54282014,95000,CERGY,FR
34398541,0,OTHER,FR
70951070,0,OTHER,FR
88549710,95250,BEAUCHAMP,FR
33529403,78260,ACHERES,FR
53800312,64121,MONTARDON,FR
44467502,33700,MERIGNAC,FR
30744126,95000,CERGY,FR
62266403,78360,Montesson,FR
93193728,64000,Pau,FR
24204021,0,ANTSIRANANA,MG
89422360,64110,GELOS,FR
32465748,93110,ROSNY SOUS BOIS,FR
33457339,0,OTHER,FR
12800106,64990,SAINT PIERRE D'IRUBE,FR
5931242,95000,cergy,FR
24401076,95000,CERGY,FR
56209178,29900,CONCARNEAU,FR
675880,95300,LIVILLIERS,FR
79381259,95000,CERGY,FR
89451767,95000,CERGY,FR
60889696,95000,PONTOISE,FR
68449273,78000,VERSAILLES,FR
28543490,95000,CERGY,FR
15761314,0,OTHER,FR
64085807,64140,Billre,FR
38255860,0,93220,FR
57340364,95014,CERGY Cedex,FR
13822667,95160,MONTMORENCY,FR
12617364,64000,PAU,FR
35500457,67400,ILLKIRCH GRAFFENSTADEN,FR
66784714,0,OTHER,FR
6760028,95240,CORMEILLES EN PARISIS,FR
73041095,94300,VINCENNES,FR
83473264,49270,CHAMPTOCEAUX,FR
84463400,28410,BU,FR
66218000,95810,ARRONVILLE,FR
25492932,83470,ST MAXIMIN LA STE BAUME,FR
89761191,94340,JOINVILLE LE PONT,FR
21292447,92150,Suresnes,FR
86286216,95011,CERGY,FR
39013813,0,OTHER,FR
89136061,78100,ST GERMAIN EN LAYE,FR
68152732,75014,PARIS,FR
89258582,95000,CERGY,FR
21150871,30700,SAINT SIFFRET,FR
58229224,95310,Saint Ouen L'aumone,FR
78626522,0,OTHER,FR
97807961,0,THALWIL,CH
67603395,78570,ANDRESY,FR
10653584,0,OTHER,FR
83367092,0,OTHER,FR
56641040,0,OTHER,FR
22731287,94370,SUCY EN BRIE,FR
62942030,95014,CERGY,FR
86712383,95000,CERGY,FR
52635518,0,OTHER,FR
42689933,78100,SAINT GERMAIN EN LAYE,FR
87071827,75017,PARIS 17EME ARRONDISSEME,FR
47352069,95110,SANNOIS,FR
66417675,95130,FRANCONVILLE,FR
79967958,75016,PARIS,FR
97528839,93350,LE BOURGET,FR
69026430,94100,Saint Maur des Fosss,FR
66234823,95270,VIARMES,FR
7677285,95800,CERGY,FR
73885760,78440,FONTENAY SAINT PRE,FR
98683747,64000,Pau,FR
58950270,95011,CERGY PONTOISE CEDEX,FR
2561297,91220,BRETIGNY SUR ORGE,FR
27223688,64320,ARESSY,FR
10687293,92340,BOURG LA REINE,FR
95222990,0,OTHER,FR
89811940,0,OTHER,FR
47533991,78360,MONTESSON,FR
78710350,0,OTHER,FR
82040566,0,35370,FR
26678497,64000,PAU,FR
7170012,0,OTHER,FR
13569275,64110,UZOS,FR
31689202,77000,LA ROCHETTE,FR
48909443,0,OTHER,FR
40707456,78580,Bazemont,FR
70463706,37550,SAINT AVERTIN,FR
35348651,95110,SANNOIS,FR
98442486,95000,Cergy,FR
53497098,0,OTHER,FR
59395545,0,OTHER,FR
15731028,64000,PAU,FR
70545091,0,OTHER,FR
31815470,78500,SARTROUVILLE,FR
32635676,29300,TREMEVEN,FR
5460891,95000,CERGY,FR
87290030,95260,BEAUMONT SUR OISE,FR
90318876,0,MONT DORE,NC
52521039,75014,PARIS,FR
46691096,0,OTHER,FR
63021821,95300,PONTOISE,FR
66836480,95610,ERAGNY SUR OISE,FR
48208852,0,OTHER,FR
23712167,78100,SAINT GERMAIN EN LAYE,FR
85452911,24650,chancelade,FR
89313814,95300,PONTOISE,FR
93030951,0,OTHER,FR
57415334,0,OTHER,FR
58187574,95800,CERGY LE HAUT,FR
62077442,78400,CHATOU,FR
38681606,0,OTHER,FR
49409784,0,OTHER,FR
70112041,44350,GUERANDE,FR
281658,0,OTHER,FR
84324719,33000,BORDEAUX,FR
91599375,95014,CERGY,FR
27779283,0,OTHER,FR
17815776,78640,VILLIERS SAINT FRDRIC,FR
1766326,69003,LYON,FR
78410444,95280,JOUY LE MOUTIER,FR
51025937,64000,PAU,FR
28421975,95000,CERGY,FR
81965850,87000,LIMOGES,FR
78222375,91190,GIF SUR YVETTE,FR
5701230,95430,AUVERS SUR OISE,FR
31319423,64000,PAU,FR
64411160,64000,Pau,FR
89851327,78440,ISSOU,FR
17542563,64000,PAU,FR
63208331,63400,CHAMALIERES,FR
41914086,0,OTHER,FR
52833760,64000,PAU,FR
14370470,95100,ARGENTEUIL,FR
26919202,75015,PARIS,FR
5752733,78440,ISSOU,FR
12131408,95000,CERGY,FR
96483825,95800,CERGY,FR
6600226,95014,CERGY CEDEX,FR
89104535,75018,PARIS 18EME ARRONDISSEMENT,FR
7097017,75015,Paris,FR
2784897,95014,CERGY CEDEX,FR
9145312,54130,DOMMARTEMONT,FR
68554527,75015,PARIS 15EME ARRONDISSEMENT,FR
53778755,0,OTHER,FR
43720264,0,OTHER,FR
7330402,0,OTHER,FR
98324374,91390,MORSANG S/ORGE,FR
49631244,95000,CERGY,FR
34402001,0,OTHER,FR
83871334,0,OTHER,FR
38315967,43000,Le Puy en Velay,FR
18740851,75008,PARIS,FR
34486889,0,OTHER,FR
24913471,0,OTHER,FR
68723049,75020,PARIS,FR
98155902,13090,AIX EN PROVENCE,FR
12620012,38000,GRENOBLE,FR
13563494,0,CHOIX,FR
2995474,0,OTHER,FR
52522145,95490,VAUREAL,FR
34945037,95340,PERSAN,FR
10249095,92700,COLOMBES,FR
72558044,94170,LE PERREUX SUR MARNE,FR
88996643,80470,BREILLY,FR
44434338,95000,CERGY,FR
61541191,95640,LE HEAULME,FR
66595866,95100,ARGENTEUIL,FR
6881883,92000,NANTERRE,FR
73429254,95610,ERAGNY SUR OISE,FR
98696391,95420,LA CHAPELLE EN VEXIN,FR
30564179,78310,MAUREPAS,FR
26961087,59000,Lille,FR
86524758,95000,CERGY,FR
46964971,64700,HENDAYE,FR
4804691,95000,CERGY,FR
72142237,95000,CERGY,FR
89296251,94400,VITRY SUR SEINE,FR
76546749,95290,L'ISLE ADAM,FR
55332473,75015,PARIS 15EME ARRONDISSEMENT,FR
65721423,0,OTHER,FR
48282494,0,OTHER,FR
28167294,95000,CERGY,FR
36283413,34200,SETE,FR
97695219,0,OTHER,FR
66827557,0,OTHER,FR
21556809,95000,CERGY,FR
12526372,93130,NOISY LE SEC,FR
39539213,95300,CERGY ST CHRISTOPHE,FR
19316226,93500,PANTIN,FR
15126882,0,OTHER,FR
49005970,95800,CERGY ST CHRISTOPHE,FR
41545262,95800,CERGY LE HAUT,FR
99353629,93100,MONTREUIL,FR
79655060,95350,SAINT BRICE SOUS FORET,FR
91781539,64360,MONEIN,FR
53579649,0,OTHER,FR
46299624,60260,LAMORLAYE,FR
35150393,17200,ROYAN,FR
60660637,0,OTHER,FR
17149518,0,OTHER,FR
6026794,92330,SCEAUX,FR
28888553,0,OTHER,FR
76592330,95000,Cergy,FR
20926759,59800,LILLE,FR
30836305,95800,CERGY ST CHRISTOPHE,FR
43120657,95000,CERGY,FR
90883087,95300,PONTOISE,FR
23783141,92190,MEUDON,FR
1460220,95400,Arnouville Les Gonesse,FR
24055522,95870,BEZONS,FR
63877325,95000,Cergy,FR
60902505,95000,CERGY,FR
41730787,94230,CACHAN,FR
39278886,0,OTHER,FR
50217364,0,Hanoi,VN
1772594,95000,CERGY,FR
31805903,92700,COLOMBES,FR
85084415,95014,CERGY,FR
28535856,95800,CERGY,FR
63750563,78700,CONFLANS STE HONORINE,FR
76668071,45140,INGRE,FR
15601836,64000,PAU,FR
48427144,94240,L'HAY LES ROSES,FR
72782883,0,OTHER,FR
78351451,64000,PAU,FR
22345718,95000,CERGY,FR
80540735,95160,MONTMORENCY,FR
32824382,78250,MEULAN,FR
82115363,3200,ABREST,FR
65465327,64000,PAU,FR
89291754,82000,Montauban,FR
95323044,71000,MACON,FR
5435302,75012,PARIS,FR
31924803,64150,PARDIES,FR
86648181,0,OTHER,FR
79118798,95000,CERGY,FR
71287950,92110,CLICHY,FR
27166500,95000,CERGY,FR
21478360,0,OTHER,FR
68287776,0,OTHER,FR
45612330,31170,TOURNEFEUILLE,FR
76403696,75008,PARIS,FR
441718,59113,Seclin,FR
61047011,77350,LE MEE SUR SEINE,FR
54405767,60430,HODENC L'EVEQUE,FR
99223333,95490,VAUREAL,FR
43317856,0,OTHER,FR
31159532,95800,CERGY,FR
64739475,92100,BOULOGNE BILLANCOURT,FR
20317395,0,OTHER,FR
17330212,0,OTHER,FR
22967695,95170,DEUIL LA BARRE,FR
50752228,78490,MERE,FR
9087781,44380,Pornichet,FR
89932400,95000,CERGY,FR
84378244,0,OTHER,FR
51234271,0,OTHER,FR
57133065,28630,NOGENT LE PHAYE,FR
53751140,92250,LA GARENNE COLOMBES,FR
12951668,2000,LAON,FR
8585984,92400,COURBEVOIE,FR
80174841,88000,EPINAL,FR
19106185,40990,ST VINCENT DE PAUL,FR
6895521,95800,Cergy,FR
55980324,78130,LES MUREAUX,FR
50525506,0,OTHER,FR
40021302,75015,PARIS,FR
13018737,95000,CERGY,FR
66445385,0,OTHER,FR
71695724,0,marrakech,MA
70060369,95000,CERGY,FR
77418232,0,OTHER,FR
61488111,95800,CERGY,FR
28977572,92600,ASNIERES,FR
24797574,95000,CERGY,FR
31073838,78210,SAINT CYR L'ECOLE,FR
14825169,0,OTHER,FR
91744999,75012,paris,FR
3942415,94800,VILLEJUIF,FR
43090926,0,OTHER,FR
42663112,0,OTHER,FR
55792077,95000,CERGY,FR
32867591,95000,CERGY VILLAGE,FR
74553107,0,OTHER,FR
79224154,95000,CERGY,FR
79701288,95280,JOUY LE MOUTIER,FR
56669571,95000,CERGY,FR
89057867,64140,Lons,FR
40399321,64000,PAU,FR
92070465,49000,ANGERS,FR
79873933,40390,Saint Barthlmy,FR
7341341,0,OTHER,FR
40584544,84330,LE BARROUX,FR
75183296,95320,SAINT LEU LA FORET,FR
1592654,95490,VAUREAL,FR
26929202,0,OTHER,FR
40463019,40330,BONNEGARDE,FR
74065747,95000,CERGY PONTOISE,FR
20851151,64000,PAU,FR
70919057,64300,ORTHEZ,FR
13378225,0,OTHER,FR
8577764,95000,CERGY,FR
26227586,0,OTHER,FR
49294966,78570,ANDRESY,FR
42127785,95000,CERGY,FR
54041532,64000,PAU,FR
65577396,89300,JOIGNY,FR
832780,49400,Saumur,FR
93874815,95640,MARINES,FR
27469170,95250,BEAUCHAMP,FR
93897382,64230,LESCAR,FR
55004011,64000,PAU,FR
9543217,33370,Artigues Prs Bordeaux,FR
45819258,0,OTHER,FR
83139091,64000,PAU,FR
59398996,95800,CERGY,FR
98807472,0,OTHER,FR
63565091,72250,PARIGNE L'EVEQUE,FR
45038191,64420,ARTIGUELOUTAN,FR
90924826,64000,PAU,FR
32091767,75017,PARIS,FR
92892669,0,OTHER,FR
73786725,0,OTHER,FR
12280268,31270,FROUZINS,FR
45243665,0,OTHER,FR
79010886,0,OTHER,FR
88417311,95000,CERGY,FR
69440590,97600,MAMOUDZOU,FR
98863320,78170,LA CELLE SAINT CLOUD,FR
51924988,64000,PAU,FR
85744225,0,OTHER,FR
5123224,95310,SAINT OUEN L'AUMNE,FR
12520179,0,OTHER,FR
69318510,95520,OSNY,FR
91958077,92330,SCEAUX,FR
39998731,38330,Saint Ismier,FR
9833609,34830,CLAPIERS,FR
98444986,95320,SAINT LEU LA FORET,FR
75385887,0,OTHER,FR
73098969,95000,CERGY,FR
7170457,78500,SARTROUVILLE,FR
50566953,95000,CERGY,FR
44061878,34070,Montpellier,FR
49942537,95200,SARCELLES VILLAGE,FR
37889723,78360,MONTESSON,FR
63013024,95000,CERGY,FR
66740336,53100,MAYENNE,FR
39392016,64000,PAU,FR
38748387,95290,L'ISLE ADAM,FR
46630845,78600,MAISONS LAFFITTE,FR
17854028,0,OTHER,FR
72554785,75001,PARIS,FR
66958416,0,OTHER,FR
94637875,0,OTHER,FR
83199323,0,OTHER,FR
58621888,78160,MARLY LE ROI,FR
87588649,95000,CERGY,FR
14644897,95000,Cergy,FR
18735556,78740,EVECQUEMONT,FR
40991106,94350,VILLIERS SUR MARNE,FR
5966521,95000,CERGY,FR
51321621,92000,NANTERRE,FR
5956003,95014,CERGY,FR
6394993,0,OTHER,FR
96787679,95000,CERGY,FR
85855459,0,OTHER,FR
44264244,78200,MANTES LA JOLIE,FR
58524977,95000,CERGY,FR
32497965,92230,GENNEVILLIERS,FR
5977929,75019,PARIS 19EME ARRONDISSEMENT,FR
14132044,93300,AUBERVILLIER,FR
89100069,0,OTHER,FR
40867363,33470,GUJAN MESTRAS,FR
69981489,33470,GUJAN MESTRAS,FR
55905693,95420,MAGNY EN VEXIN,FR
40527061,64140,LONS,FR
51672282,92400,Courbevoie,FR
83992050,93260,Les Lilas,FR
25641730,84240,GRAMBOIS,FR
6271339,92600,ASNIERES,FR
41995375,92400,COURBEVOIE,FR
65821736,93200,SAINT DENIS,FR
46562864,33130,BEGLES,FR
68943549,75018,PARIS,FR
63745111,92600,ASNIERES SUR SEINE,FR
108828,95000,Cergy,FR
83963406,78230,LE PECQ,FR
10693634,95000,CERGY,FR
80989836,69500,BRON,FR
15800129,34080,MONTPELLIER,FR
49766608,95300,CERGY PONTOISE,FR
81341888,94110,ARCUEIL,FR
79493961,95800,Cergy,FR
3958136,75012,PARIS,FR
36422412,95014,CERGY,FR
39064620,75017,PARIS,FR
69319361,75010,PARIS,FR
82153966,95310,SAINT OUEN L'AUMONE,FR
21538002,11000,RABAT SALE ZEMOUR ZAIR MAROC,FR
99238300,92400,COURBEVOIE,FR
45369943,0,OTHER,FR
52880430,75011,PARIS 11EME ARRONDISSEMENT,FR
35730913,95170,DEUIL LA BARRE,FR
58721390,95011,cergy,FR
42536273,93800,EPINAY SUR SEINE,FR
22864109,64000,PAU,FR
35164936,0,OTHER,FR
34871606,95280,JOUY LE MOUTIER,FR
42613939,95580,MARGENCY,FR
13230380,78360,Montesson,FR
20916235,0,OTHER,FR
60730930,95011,CERGY PONTOISE CEDEX,FR
6812842,95300,PONTOISE,FR
52529384,0,OTHER,FR
69701113,78000,VERSAILLES,FR
6503820,78700,CONFLANS SAINTE HONORINE,FR
80751086,0,LA TRINITE,MQ
96549092,64000,Pau,FR
75992578,0,KENITRA,MA
35176953,75014,PARIS,FR
94030851,95220,HERBLAY,FR
39866866,75020,PARIS,FR
11991926,95480,PIERRELAYE,FR
9936064,92400,COURBEVOIE,FR
50554456,78630,ORGEVAL,FR
28164689,75019,PARIS,FR
10186724,95000,CERGY,FR
52135455,0,OTHER,FR
77443694,66350,TOULOUGES,FR
39765361,64290,Gan,FR
97042225,64000,PAU,FR
36872480,95014,CERGY,FR
61372642,0,OTHER,FR
64992728,92400,COURBEVOIE,FR
84531647,0,NELLORE,IN
88685845,64000,PAU,FR
81727799,75016,PARIS,FR
3815154,95880,ENGHIEN LES BAINS,FR
6359050,64000,PAU,FR
13339207,92500,RUEIL MALMAISON,FR
4879641,64230,LESCAR,FR
71424563,92400,COURBEVOIE BECON,FR
87802677,95800,CERGY,FR
68329512,78700,CONFLANS SAINTE HONORINE,FR
70031777,0,EL JADIDA,MA
51043001,56400,PLUMERGAT,FR
85997781,17000,LA ROCHELLE,FR
84709221,0,OTHER,FR
32971504,0,OTHER,FR
15057198,95580,MARGENCY,FR
4496315,31000,TOULOUSE,FR
76184817,95360,MONTMAGNY,FR
61404867,0,OTHER,FR
11230226,94440,MAROLLES EN BRIE,FR
55306007,78480,VERNEUIL SUR SEINE,FR
3434885,92700,Colombes,FR
63895601,0,SAINT NICOLAS DE PORT,FR
68908113,0,OTHER,FR
94671727,30120,AVEZE,FR
307804,84120,PERTUIS,FR
74930296,15000,AURILLAC,FR
31913830,0,OTHER,FR
79486418,78500,SARTROUVILLE,FR
74603021,0,Gafsa,TN
85908962,95014,CERGY PONTOISE,FR
45262578,78130,LES MUREAUX,FR
95498686,78300,POISSY,FR
34257183,64000,PAU,FR
24080323,91800,BRUNOY,FR
76060162,0,OTHER,FR
19843026,59640,DUNKERQUE,FR
85630726,0,OTHER,FR
67973655,92260,FONTENAY AUX ROSES,FR
63795255,0,Choix,FR
3506465,0,OTHER,FR
64062627,0,Tunis,TN
90909866,59780,CAMPHIN EN PEVELE,FR
97989706,95300,PONTOISE,FR
94645284,92700,COLOMBES,FR
83525959,64160,BERNADETS,FR
43221885,64160,BERNADETS,FR
14683038,91080,COURCOURONNES,FR
28320271,80080,AMIENS,FR
38848561,0,OTHER,FR
50995585,86000,POITIERS,FR
52348231,94190,VILLENEUVE ST GEORGES,FR
40307365,0,OTHER,FR
25268243,0,OTHER,FR
33900840,95014,CERGY,FR
79203374,0,95000,FR
88993647,0,OTHER,FR
56658095,75019,PARIS,FR
35728983,95000,CERGY,FR
85845467,93150,LE BLANC MESNIL,FR
87942226,95300,PONTOISE,FR
90788602,95100,ARGENTEUIL,FR
16687140,64000,PAU,FR
83301362,64000,PAU,FR
2586695,52000,CHAUMONT,FR
94112099,75011,PARIS 11EME ARRONDISSEMENT,FR
27103163,33000,BORDEAUX,FR
5840807,29000,QUIMPER,FR
70339947,13008,MARSEILLE,FR
945159,31240,L UNION,FR
78852451,95000,CERGY,FR
8002779,78370,PLAISIR,FR
40247444,75017,PARIS,FR
52314733,0,OTHER,FR
9219932,95290,L'ISLE ADAM,FR
49951291,0,95220,FR
86960843,75009,PARIS,FR
7117486,38200,LUZINAY,FR
83591150,34290,ESPONDEILHAN,FR
22991999,72650,LA CHAPELLE ST AUBIN,FR
39156363,78230,LE PECQ,FR
25925881,78360,MONTESSON,FR
84262060,94130,NOGENT SUR MARNE,FR
19793783,0,OTHER,FR
99871263,0,OTHER,FR
19809802,93400,SAINT OUEN,FR
24465952,0,OTHER,FR
84492333,78400,CHATOU,FR
90915277,78600,MAISONS LAFFITTE,FR
59809305,78250,MEULAN,FR
61905629,0,OTHER,FR
7785252,13190,ALLAUCH,FR
76419328,95590,PRESLES,FR
84660794,64000,PAU,FR
47096617,31300,TOULOUSE,FR
6093159,0,OTHER,FR
58174726,75018,PARIS 18EME ARRONDISSEMENT,FR
18013030,95230,SOISY SOUS MONTMORENCY,FR
3830512,95310,ST OUEN L'AUMONE,FR
64985232,95000,CERGY,FR
84471117,75011,PARIS,FR
22074337,44100,NANTES,FR
22685816,78000,VERSAILLES,FR
68567715,0,OTHER,FR
91163293,95460,Ezanville,FR
60215516,13012,MARSEILLE,FR
2299523,0,OTHER,FR
27268208,95320,SAINT LEU LA FORET,FR
32385728,95000,CERGY,FR
17491990,35000,RENNES,FR
2195373,78700,CONFLANS STE HONORINE,FR
28150011,75008,PARIS 08EME ARRONDISSEMENT,FR
82583976,95000,CERGY,FR
19991044,95000,CERGY,FR
5639250,95420,MAGNY EN VEXIN,FR
87813490,95800,CERGY ST CHRISTOPHE,FR
10598404,0,OTHER,FR
41153091,0,OTHER,FR
67793695,64200,BIARRITZ,FR
93501971,0,OTHER,FR
53921404,95180,MENUCOURT,FR
89008792,0,OTHER,FR
13626058,0,OTHER,FR
46759275,0,OTHER,FR
85605952,64000,pau,FR
25949068,78300,POISSY,FR
14095937,78960,Voisins Le Bretonneux,FR
98422170,59125,TRITH SAINT LEGER,FR
70327762,95000,CERGY,FR
13050443,95300,PONTOISE,FR
14936523,78430,LOUVECIENNES,FR
71431960,78430,LOUVECIENNES,FR
29191822,78570,ANDRESY,FR
6276965,0,OTHER,FR
91559712,0,OTHER,FR
30319656,95600,EAUBONNE,FR
86141397,95000,CERGY,FR
86561582,92150,SURESNES,FR
47061990,95000,CERGY,FR
32256992,64160,SAINT CASTIN,FR
37301791,35720,SAINT PIERRE DE PLESGUEN,FR
26661324,44470,CARQUEFOU,FR
12642343,0,OTHER,FR
73499253,63120,LEMPTY,FR
79800348,95580,MARGENCY,FR
67544879,0,OTHER,FR
95598741,75015,PARIS,FR
87017731,0,OTHER,FR
25813886,92000,NANTERRE,FR
14890312,0,OTHER,FR
99595129,0,OTHER,FR
12096131,0,OTHER,FR
7021821,14340,LE PRE D'AUGE,FR
17456569,75015,PARIS 15EME ARRONDISSEMENT,FR
11744507,75018,PARIS,FR
70077069,64000,Pau,FR
48023404,95000,CERGY,FR
36781751,64230,MOMAS,FR
66989884,0,OTHER,FR
61491055,64000,PAU,FR
73265958,95100,ARGENTEUIL,FR
17236045,95800,CERGY,FR
98700167,77700,BAILLY ROMAINVILLIERS,FR
61577549,64121,MONTARDON,FR
23768955,59159,MARCOING,FR
93755084,95000,Cergy,FR
58469666,64000,Pau,FR
68725372,33190,FOSSES ET BALEYSSAC,FR
6552626,0,OTHER,FR
52701240,0,LUXEMBOURG,LU
20070481,95000,CERGY,FR
47900194,59251,Allennes les Marais,FR
67814414,44360,CORDEMAIS,FR
80436038,95000,CERGY,FR
67001224,56610,ARRADON,FR
33721753,0,OTHER,FR
56553670,95100,ARGENTEUIL,FR
9224799,95000,CERGY,FR
33777006,95800,CERGY ST CHRISTOPHE,FR
11419838,95000,Neuville Sur Oise,FR
40839380,64320,IDRON,FR
13691066,64320,IDRON,FR
10518300,0,OTHER,FR
77349582,0,OTHER,FR
30507011,95590,PRESLES,FR
26681029,95000,CERGY,FR
41509029,0,OTHER,FR
77215225,0,OTHER,FR
43058716,64000,PAU,FR
58549596,93330,NEUILLY SUR MARNE,FR
91810710,78500,SARTROUVILLE,FR
59407355,0,OTHER,FR
3797627,95000,CERGY,FR
45762157,0,OTHER,FR
93834540,95420,ST GERVAIS,FR
61070745,0,OTHER,FR
20416408,95000,CERGY,FR
71112008,10100,ROMILLY SUR SEINE,FR
42224625,93200,SAINT DENIS,FR
86352973,75012,PARIS,FR
20246118,0,Saint denis,RE
15669222,0,OTHER,FR
34917925,95300,PONTOISE,FR
93628299,78740,EVECQUEMONT,FR
95326349,54320,MAXEVILLE,FR
66596353,38690,BEVENAIS,FR
45817882,95630,MERIEL,FR
63575491,78600,MAISONS LAFFITTE,FR
26681367,95000,CERGY,FR
45521512,77600,Bussy Saint Georges,FR
81496906,95000,CERGY,FR
88862783,95490,VAUREAL,FR
50472816,78420,CARRIERES SUR SEINE,FR
77508183,6400,CANNES,FR
38840637,95490,VAUREAL,FR
3772969,78600,MAISONS LAFITTE,FR
43917072,31750,ESCALQUENS,FR
40209196,78700,CONFLANS SAINTE HONORINE,FR
38792774,95450,VIGNY,FR
66827669,0,OTHER,FR
52304680,0,OTHER,FR
50280376,64200,ARCANGUES,FR
28132727,75015,PARIS 15EME ARRONDISSEMENT,FR
10350252,95750,CHARS,FR
98463395,0,OTHER,FR
13905021,0,OTHER,FR
8970939,24510,Saint Laurent des Btons,FR
88230821,79100,THOUARS,FR
51548046,75005,PARIS,FR
9225849,92310,SEVRES,FR
20074725,0,Changhua,TW
76799788,83300,DRAGUIGNAN,FR
24894020,95000,CERGY,FR
68694930,95110,SANNOIS,FR
5048137,31000,Toulouse,FR
36165728,0,OTHER,FR
80287418,0,OTHER,FR
56336181,6270,Villeneuve Loubet,FR
40925073,95000,CERGY,FR
57188377,92700,COLOMBES,FR
72202539,0,OTHER,FR
23005935,64320,IDRON,FR
66078007,95660,CHAMPAGNE SUR OISE,FR
93531531,0,OTHER,FR
36057780,95000,CERGY,FR
30651347,95160,MONTMORENCY,FR
63180323,95000,CERGY,FR
47714698,31830,PLAISANCE DU TOUCH,FR
85971351,95000,Cergy,FR
32627313,97100,BASSE TERRE,FR
27898414,0,Choix,FR
72721087,64420,ANDOINS,FR
21392384,95100,ARGENTEUIL,FR
70357351,0,OTHER,FR
96703223,0,OTHER,FR
18709514,92200,NEUILLY SUR SEINE,FR
29574242,77550,MOISSY CRAMAYEL,FR
43888862,45370,CLERY SAINT ANDRE,FR
81859120,95420,MAGNY EN VEXIN,FR
46874395,0,OTHER,FR
75822201,95000,CERGY,FR
65892607,75006,PARIS,FR
40375278,38000,GRENOBLE,FR
51575386,92500,RUEIL MALMAISON,FR
14216442,95160,MONTMORENCY,FR
86545042,8190,ASFELD,FR
25028511,31700,BLAGNAC,FR
30760234,75006,PARIS,FR
33844365,0,Choix,FR
79765709,0,OTHER,FR
60961345,95000,CERGY,FR
16119612,0,OTHER,FR
63215130,78500,SARTROUVILLE,FR
4870781,0,OTHER,FR
60359200,92500,RUEIL MALMAISON,FR
88362459,0,OTHER,FR
80931722,95300,PONTOISE,FR
91313049,64000,PAU,FR
58064948,64110,GELOS,FR
84434747,25360,NAISEY LES GRANGES,FR
46532333,64200,BASSUSSARRY,FR
36869351,0,OTHER,FR
60951909,78700,CONFLANS STE HONORINE,FR
72940429,95430,AUVERS SUR OISE,FR
79583199,0,OTHER,FR
16777949,95420,MAGNY EN VXIN,FR
95509300,44000,NANTES,FR
54468261,95000,CERGY,FR
12583792,64140,BILLERE,FR
86907256,60800,CREPY EN VALOIS,FR
83040122,91190,GIF SUR YVETTE,FR
56109619,0,OTHER,FR
22228788,92400,COURBEVOIE,FR
81300350,95130,LE PLESSIS BOUCHARD,FR
8763763,95540,MERY SUR OISE,FR
86418980,92400,COURBEVOIE,FR
9550977,95000,CERGY,FR
91106517,0,OTHER,FR
24291765,92000,NANTERRE,FR
69902143,95300,PONTOISE,FR
10417056,0,OTHER,FR
49186481,95600,EAUBONNE,FR
37498094,95120,ERMONT,FR
88257613,78440,ISSOU,FR
61083546,64000,PAU,FR
2324106,94700,MAISONS ALFORT,FR
61670400,95540,MERY SUR OISE,FR
54768172,34090,MONTPELIER,FR
3144260,0,Noida,IN
76106574,0,OTHER,FR
80758213,78650,BEYNES,FR
42811029,95011,CERGY,FR
19814824,0,OTHER,FR
55405400,0,OTHER,FR
82670555,0,OTHER,FR
35884578,78400,CHATOU,FR
6043647,85330,NOIRMOUTIER,FR
26800233,92500,Rueil Malmaison,FR
73452298,64000,PAU,FR
8068633,0,OTHER,FR
86869852,64121,MONTARDON,FR
56073152,75018,PARIS,FR
61066059,95000,Cergy,FR
69725108,0,abidjan,CI
2538591,64000,PAU,FR
72766106,0,OTHER,FR
95977298,95014,CERGY,FR
84650963,95801,CERGY ST CHRISTOPHE,FR
58264602,60860,Saint Omer en Chausse,FR
91348777,95000,Cergy,FR
15454718,42300,VILLEREST,FR
21899257,77600,Bussy Saint Georges,FR
33621228,75008,PARIS,FR
84030426,41200,ROMORANTIN,FR
25126964,95500,GONESSE,FR
22035455,78230,LE PECQ,FR
75264534,75016,PARIS,FR
41253599,0,Choix,FR
71546120,75019,PARIS,FR
98653560,95000,CERGY,FR
30574835,0,OTHER,FR
93342004,95000,CERGY,FR
29718285,95800,CERGY,FR
2854946,0,OTHER,FR
11515020,95000,Cergy,FR
4899343,0,OTHER,FR
17184929,95300,PONTOISE,FR
14807409,17180,PERIGNY,FR
13219213,95550,BESSANCOURT,FR
83003274,0,OTHER,FR
99175150,95000,CERGY PREFECTURE,FR
11161617,95000,CERGY,FR
25975295,78420,CARRIERES SUR SEINE,FR
71483114,92140,CLAMART,FR
93866775,8090,WARNECOURT,FR
66372899,0,OTHER,FR
21952587,91470,ANGERVILLIERS,FR
33475391,93400,ST OUEN,FR
72908576,64000,PAU,FR
19348149,0,CERGY LE HAUT,TN
93672882,78711,MANTES LA VILLE,FR
77125116,95100,ARGENTEUIL,FR
76667428,77700,COUPVRAY,FR
36765487,95000,NEUVILLE SUR OISE,FR
60137000,95000,CERGY,FR
5885177,6000,NICE,FR
64846483,75008,PARIS,FR
95079356,0,OTHER,FR
96658999,92110,CLICHY,FR
54216674,28410,ST LUBIN DE LA HAYE,FR
34538138,78600,MAISONS LAFITTE,FR
36618481,0,OTHER,FR
20142237,33200,BORDEAUX,FR
3170583,17200,ROYAN,FR
10923578,0,OTHER,FR
98384871,0,OTHER,FR
60972493,91320,WISSOUS,FR
78250986,95000,CERGY,FR
84532516,95880,ENGHIEN LES BAINS,FR
15757803,0,OTHER,FR
55769380,95110,SANNOIS,FR
95152447,75013,PARIS 13EME ARRONDISSEMENT,FR
95812579,95000,CERGY,FR
84239897,28130,MAINTENON,FR
62831890,95610,ERAGNY SUR OISE,FR
9321493,64000,PAU,FR
88272155,92000,NANTERRE,FR
55573814,95000,Cergy,FR
17505817,78480,VERNEUIL SUR SEINE,FR
98035539,0,OTHER,FR
41383603,75116,PARIS,FR
68937416,0,OTHER,FR
18378716,64000,PAU,FR
48213548,56450,THEIX,FR
35419047,78000,VERSAILLES,FR
90711834,56450,THEIX,FR
99227180,64160,MORLAAS,FR
94564766,56450,THEIX,FR
97934301,0,OTHER,FR
8174018,95100,ARGENTEUIL,FR
59116016,30340,SERVAS,FR
51723065,95150,TAVERNY,FR
51425889,0,OTHER,FR
33361449,38240,MEYLAN,FR
86173856,75012,PARIS,FR
10098727,95430,AUVERS SUR OISE,FR
9546488,0,OTHER,CI
86947788,92000,NANTERRE,FR
49734100,95340,PERSAN,FR
78399291,0,OTHER,FR
82130701,95000,CERGY,FR
77721965,94500,CHAMPIGNY SUR MARNE,FR
28627838,95250,BEAUCHAMP,FR
68721155,92160,ANTONY,FR
3588046,95000,CERGY,FR
56504772,18000,Bourges,FR
86446608,0,OTHER,FR
64939583,75005,PARIS,FR
92339300,0,OTHER,FR
77642816,95160,MONTMORENCY,FR
3920716,91000,EVRY,FR
6230085,0,OTHER,FR
64016772,0,OTHER,FR
15037714,64000,PAU,FR
2430222,33130,BEGLES,FR
69957184,92320,CHATILLON,FR
27330315,92500,Rueil Malmaison,FR
19369416,92500,RUEIL MALMAISON,FR
97735348,95100,ARGENTEUIIL,FR
8857879,75011,PARIS,FR
6558889,95000,CERGY,FR
20088510,92800,PUTEAUX,FR
29974052,92250,La Garrenne Comombes,FR
35958405,92230,GENNEVILLIERS,FR
49119251,78440,GARGENVILLE,FR
41943236,80260,FRECHENCOURT,FR
5251174,95000,CERGY,FR
5359067,0,OTHER,FR
71187684,92600,ASNIERES S/ SEINE,FR
12565990,0,OTHER,FR
87720782,33240,SAINT ANDRE DE CUBZAC,FR
70402856,75009,PARIS,FR
33295779,93160,NOISY LE GRAND,FR
46133654,75016,PARIS,FR
66756694,6140,tourrettes sur loup,FR
44971647,92300,LEVALLOIS PERRET,FR
25442187,95130,FRANCONVILLE,FR
4825324,95120,CERGY ST CHRISTOPHE,FR
13153131,91300,MASSY,FR
27758347,95000,CERGY,FR
68354651,95000,CERGY,FR
3147895,95490,VAUREAL,FR
794852,95310,SAINT OUEN L'AUMONE,FR
61951073,45000,ORLEANS,FR
23211732,92800,PUTEAUX,FR
61546237,13240,SEPTEMES LES VALLONS,FR
21680249,95490,VAURAL,FR
78756203,95800,CERGY,FR
52730864,0,92170,FR
83909204,95130,FRANCONVILLE,FR
18956605,75012,PARIS,FR
16105376,78955,CARRIRES SOUS POISSY,FR
7036297,64000,PAU,FR
79708151,95014,CERGY CEDEX,FR
14357695,64320,IDRON,FR
31249952,95430,AUVERS SUR OISE,FR
19665201,0,OTHER,FR
33879012,0,OTHER,FR
74080221,0,95000,FR
74775729,95000,CERGY,FR
69070761,92700,COLOMBES,FR
74167390,77590,FONTAINE LE PORT,FR
35342439,0,OTHER,FR
25635079,93270,SEVRAN,FR
23776471,67117,QUATZENHEIM,FR
70677409,0,OTHER,FR
51201732,92000,Nanterre,FR
89458958,72000,LE MANS,FR
19863037,92400,COURBEVOIE,FR
15583352,75002,PARIS,FR
97715530,0,OTHER,FR
95684965,94130,NOGENT SUR MARNE,FR
22517311,0,OTHER,FR
98530199,95520,OSNY,FR
70808951,95000,CERGY,FR
29770620,64000,Pau,FR
81634746,0,OTHER,FR
51654300,0,OTHER,FR
14714608,95000,CERGY,FR
1850115,78800,HOUILLES,FR
25852440,92240,MALAKOFF,FR
24207779,31830,PLAISANCE DU TOUCH,FR
21464442,0,OTHER,FR
78223981,51370,ST BRICE COURCELLES,FR
92274140,78570,ANDRESY,FR
2078477,0,Tunis,TN
1652808,95160,MONTMORENCY,FR
52960979,64140,LONS,FR
80012665,78500,SARTROUVILLE,FR
40836916,31860,LABARTHE SUR LEZE,FR
19747376,0,OTHER,FR
94512948,64000,PAU,FR
78992713,94430,CHENNEVIERE S/MARNE,FR
48495568,0,OTHER,FR
53393425,95000,CERGY,FR
92131120,0,OTHER,FR
73825303,33700,MERIGNAC,FR
51996583,0,OTHER,FR
51410032,0,OTHER,FR
43074768,0,OTHER,FR
77129588,0,OTHER,FR
19395780,0,OTHER,FR
74441169,0,OTHER,FR
75248174,0,OTHER,FR
82439403,75016,PARIS,FR
89765555,75020,PARIS,FR
45875995,75020,PARIS,FR
88671042,95520,OSNY,FR
31362451,0,OTHER,FR
29072302,95280,JOUY LE MOUTIER,FR
33100066,95420,NUCOURT,FR
45517640,93300,AUBERVILLIERS,FR
58086789,13840,ROGNES,FR
95544662,75116,PARIS,FR
52999710,64121,MONTARDON,FR
61344901,95000,CERGY,FR
76245867,40180,SAUGNAC ET CAMBRAN,FR
36995246,75016,PARIS,FR
78596058,78000,VERSAILLES,FR
3789136,95000,CERGY,FR
11514324,92290,CHATENAY MALABRY,FR
70949107,0,OTHER,FR
83971906,95540,MERY SUR OISE,FR
98855749,95100,ARGENTEUIL,FR
64078919,64000,PAU,FR
51108955,95310,ST OUEN L AUMONE,FR
87816085,91700,VILLIERS SUR ORGE,FR
96342613,31620,BOULOC,FR
50526781,92400,COURBEVOIE,FR
22218983,91390,MORSANG SUR ORGE,FR
72845386,64000,PAU,FR
58764334,64000,PAU,FR
71050079,95000,CERGY,FR
89155776,37000,TOURS,FR
77098287,0,OTHER,FR
8291843,94270,LE KREMLIN BICETRE,FR
13973334,92600,ASNIERES,FR
67340435,95300,PONTOISE,FR
66895023,0,OTHER,FR
23636592,59990,SAULTAIN,FR
31150778,95300,PONTOISE,FR
34752873,75002,PARIS 02EME ARRONDISSEMENT,FR
98478618,64000,PAU,FR
38099454,95000,CERGY,FR
36381578,91600,SAVIGNY SUR ORGE,FR
72747085,78700,CONFLANS SAINTE HONORINE,FR
55857849,95450,THMRICOURT,FR
55238580,0,OTHER,FR
85490813,0,OTHER,FR
31989483,64000,PAU,FR
95920255,0,OTHER,FR
85339627,13012,MARSEILLE,FR
22945689,0,OTHER,FR
35381938,0,OTHER,FR
41930517,95000,CERGY VILLAGE,FR
41208507,95014,cergy pontoise cedex,FR
70504734,0,OTHER,FR
62257254,95630,MERIEL,FR
71590786,95000,CERGY,FR
32966184,95000,NEUVILLE SUR OISE,FR
11984538,31830,PLAISANCE DU TOUCH,FR
18721381,95240,CORMEILLES EN PARISIS,FR
47435377,77210,AVON,FR
2412530,63111,Dallet,FR
18228078,95420,HODENT,FR
10198353,0,OTHER,FR
53809482,0,OTHER,FR
72060122,0,OTHER,FR
62885098,95000,CERGY,FR
19894733,0,OTHER,FR
84981492,95000,CERGY,FR
7396645,95000,CERGY,FR
71748118,75014,PARIS,FR
77074676,65100,POUEYFERRE,FR
41888589,75012,Paris,FR
47895901,0,OTHER,FR
43696192,78300,POISSY,FR
39829755,95120,ERMONT,FR
54094329,92000,NANTERRE,FR
49569733,78800,VAURAL,FR
83098437,0,OTHER,FR
83736340,35260,Cancale,FR
81682239,92210,ST CLOUD,FR
73472470,0,OTHER,FR
57600920,92150,SURESNES,FR
14775903,95650,BOISSY L'AILLERIE,FR
99972841,60570,ANDEVILLE,FR
41554813,0,OTHER,FR
51413030,0,OTHER,FR
48689073,0,OTHER,FR
41258026,95800,CERGY,FR
25957871,92200,NEUILLY SUR SEINE,FR
86061815,95220,HERBLAY,FR
14330400,0,OTHER,FR
26049121,93340,LE RAINCY,FR
49378855,95000,CERGY,FR
44951224,0,OTHER,FR
52288101,78100,SAINT GERMAIN EN LAYE,FR
10159577,95800,CERGY,FR
99266674,59280,ARMENTIERES,FR
92641816,95800,COURDIMANCHE,FR
40839341,95290,L'Isle Adam,FR
62635224,95000,CERGY PONTOISE,FR
57238931,0,OTHER,FR
9064159,0,OTHER,FR
37808844,0,OTHER,FR
33235528,94300,VINCENNES,FR
66641880,64000,PAU,FR
75211692,75013,PARIS,FR
96024845,92170,VANVES,FR
90778239,64160,BERNADETS,FR
53603171,0,OTHER,FR
45993594,95310,SAINT OUEN L'AUMNE,FR
53273025,95000,CERGY,FR
6438654,92110,Clichy,FR
69585457,62800,LIEVIN,FR
33497283,94140,ALFORTVILLE,FR
47408217,95000,CERGY,FR
43967342,95000,NEUVILLE SUR OISE,FR
69641106,92800,PUTEAUX,FR
58887425,92700,COLOMBES,FR
95067508,95000,CERGY,FR
98017993,95000,Cergy,FR
48946913,95580,ANDILLY,FR
34225131,76113,HAUTOT SUR SEINE,FR
11030613,69530,BRIGNAIS,FR
56775499,30240,LE GRAU DU ROI,FR
16699342,0,OTHER,FR
29362777,95000,CERGY CEDEX,FR
52048164,78510,TRIEL SUR SEINE,FR
47162575,0,OTHER,FR
36338008,59690,VIEUX CONDI,FR
80669095,78570,ANDRSY,FR
16729553,78700,CONFLANS STE HONORINE,FR
92162595,93700,DRANCY,FR
21545184,95000,CERGY,FR
14917767,84420,PERTHUIS,FR
40114350,46400,Saint cr,FR
32812612,92500,RUEIL MALMAISON,FR
10800748,95240,CORMEILLES EN PARISIS,FR
90751080,75009,PARIS,FR
95157983,0,Choix,FR
97406623,95000,CERGY,FR
1962099,95130,FRANCONVILLE,FR
47696680,75010,PARIS,FR
95543327,94400,VITRY SUR SEINE,FR
19559099,91560,Crosne,FR
61738616,0,OTHER,FR
70016462,0,OTHER,DE
19019962,64000,PAU,FR
3838650,69100,VILLEURBANNE,FR
47355608,94110,ARCUEIL,FR
8177570,95000,CERGY,FR
48213587,68100,MULHOUSE,FR
26866948,75017,PARIS,FR
51869953,93500,PANTIN,FR
19410724,95160,MONTMORENCY,FR
73938272,64130,CHERAUTE,FR
38426934,0,OTHER,FR
89857007,91860,EPINAY SOUS SENART,FR
80398102,75014,PARIS 14EME ARRONDISSEMENT,FR
2979888,94490,ORMESSON SUR MARNE,FR
55880787,92400,COURBEVOIE,FR
12754399,95120,ERMONT,FR
97586901,95490,VAUREAL,FR
45765766,92200,NEUILLY,FR
67538777,37550,SAINT AVERTIN,FR
68190791,95320,ST LEU LA FORET,FR
46553003,95000,CERGY,FR
2398069,78700,CONFLANS STE HONORINE,FR
44298030,64000,PAU,FR
38159297,78700,Conflans Ste Honorine,FR
39125325,78650,Beynes,FR
67047730,0,OTHER,FR
60849523,0,OTHER,FR
42764187,95320,ST LEU LA FORET,FR
93561320,64000,PAU,FR
68506010,78570,ANDRESY,FR
95963747,95011,CERGY PONTOISE CEDEX,FR
81047074,92400,COURBEVOIE,FR
75795460,57270,RICHEMONT,FR
20537990,95000,NEUVILLE SUR OISE,FR
76718384,95014,Cergy Pontoise,FR
60225733,0,Almaty,KZ
95376161,95800,CERGY ST CHRISTOPHE,FR
63204955,92190,MEUDON,FR
32539048,94230,CACHAN,FR
36140276,73800,FRANCIN,FR
80746934,0,95800,FR
30589529,49650,BRAIN SUR ALLONES,FR
11402191,14000,CAEN,FR
95315867,78490,GROSROUVRE,FR
43094237,45000,ORLEANS,FR
88693398,64000,PAU,FR
23555146,64000,PAU,FR
88337981,45110,SIGLOY,FR
40923749,95000,NEUVILLE,FR
64945400,78260,ACHERES,FR
70152889,92000,NANTERRE,FR
94249682,92160,ANTONY,FR
97941395,95150,TAVERNY,FR
63857128,95210,SAINT GRATIEN,FR
99897912,0,OTHER,FR
9141787,74940,ANNECY LE VIEUX,FR
86067690,92370,CHAVILLE,FR
64688171,92000,NANTERRE,FR
90119795,0,OTHER,FR
1738890,0,OTHER,FR
16719598,78570,Andrsy,FR
22830694,31780,CASTELGINEST,FR
32917027,0,Nymburk,CZ
95206183,93240,STAINS,FR
94476261,95000,PONTOISE,FR
15145318,34400,LUNEL VIEL,FR
50082740,34400,LUNEL VIEL,FR
75774263,0,OTHER,FR
66184842,92320,CHATILLON,FR
88419835,0,OTHER,FR
48894674,69006,LYON,FR
78333836,95000,Cergy,FR
76355294,78400,CHATOU,FR
78940967,0,OTHER,FR
63506659,78000,VERSAILLES,FR
89647240,95300,PONTOISE,FR
91091466,51360,VAL DE VESLE,FR
67853175,0,TUNIS,TN
26497278,95800,CERGY ST CHRISTOPHE,FR
80049073,95000,CERGY,FR
31993130,95000,CERGY,FR
31002412,0,OTHER,FR
37013870,95800,COURDIMANCHE,FR
91502715,95490,VAUREAL,FR
32363138,75015,PARIS 15EME ARRONDISSEMENT,FR
95861658,95320,SAINT LEU LA FORET,FR
90188860,57155,MARLY,FR
61863150,95800,COURDIMANCHE,FR
85226161,95490,VAUREAL,FR
66838179,95750,CHARS,FR
61964622,95000,CERGY,FR
12095759,0,OTHER,FR
86035648,76700,GONFREVILLE L'ORCHER,FR
65456074,78600,MAISONS LAFFITTE,FR
31346459,78000,VERSAILLES,FR
75223196,0,OTHER,FR
45734847,78630,ORGEVAL,FR
61484930,75009,PARISPARIS 9EME ARRONDISSEMENT,FR
71090130,64420,ARTIGUELOUTAN,FR
9279079,0,OTHER,FR
77113233,95000,CERGY,FR
72449818,94490,ORMESSON SUR MARNE,FR
66671817,95000,CERGY PONTOISE,FR
17279043,13005,Marseille,FR
43886368,95450,SAGY,FR
33659547,0,OTHER,FR
83896922,95000,CERGY,FR
89032861,95000,CERGY,FR
31710303,95280,Jouy le Moutier,FR
26395190,92000,NANTERRE,FR
89190858,37300,JOU LS TOURS,FR
18060820,95800,CERGY ST CHRISTOPHE,FR
95690582,77173,CHEVRY COSSIGNY,FR
27133664,64000,PAU,FR
93241604,95270,LUZARCHES,FR
49082735,78370,PLAISIR,FR
18692353,78920,ECQUEVILLY,FR
23105887,33700,Mrignac,FR
57069333,0,OTHER,FR
79702422,0,Driouch,MA
81983496,0,OTHER,FR
12047361,0,OTHER,FR
87870021,92150,SURESNES,FR
52220490,95800,CERGY LE  HAUT,FR
53875909,95000,Cergy,FR
80241132,67100,STRASBOURG,FR
53557031,95000,CERGY,FR
22090141,0,ABIDJAN,CI
40425897,0,OTHER,FR
34596789,95000,CERGY,FR
98926318,0,OTHER,FR
68204699,95800,COURDIMANCHE,FR
40302994,93700,DRANCY,FR
93169093,95000,CERGY,FR
97328114,92340,BOURG LA REINE,FR
75879497,95000,CERGY,FR
64661958,91260,JUVISY,FR
20910792,95000,CERGY,FR
80535576,75020,PARIS,FR
64073440,0,jalandhar,IN
22256848,75004,PARIS,FR
79379718,92150,SURESNES,FR
79923969,92110,Clichy,FR
80916743,75018,PARIS,FR
93971842,0,OTHER,FR
55206226,92200,Neuilly sur Seine,FR
61178493,0,OTHER,FR
4728001,0,OTHER,FR
88561960,0,OTHER,FR
88415791,78510,TRIEL SUR SEINE,FR
54925618,78300,POISSY,FR
27718342,0,OTHER,FR
73532290,78420,CARRIERES SUR SEINE,FR
58960151,0,PAU,FR
61499569,0,OTHER,FR
30989142,42500,le Chambon Feugerolles,FR
52690950,75020,PARIS,FR
20228848,95240,CORMEILLES EN PARISIS,FR
39369183,95350,St brice,FR
84312263,0,Ben Arous,TN
68256335,95014,CERGY CEDEX,FR
82823240,75020,PARIS,FR
57237559,75014,PARIS,FR
72013295,95360,MONTMAGNY,FR
19564283,95300,PONTOISE,FR
86518973,0,TUNIS,TN
93940316,95190,GOUSSAINVILLE,FR
60352540,95000,cergy,FR
48044455,95000,CERGY,FR
73777180,94450,LIMEIL BREVANNES,FR
13156175,92400,COURBEVOIE,FR
40949200,95800,CERGY LE HAUT,FR
2485605,68350,BRUNSTATT,FR
36993302,29200,Brest,FR
60619165,95550,BESSANCOURT,FR
75955338,92500,RUEIL MALMAISON,FR
67253586,92700,COLOMBES,FR
49048513,94000,CRETEIL,FR
56948490,95000,CERGY,FR
42437869,57800,FREYMING MERLEBACH,FR
68656923,0,OTHER,FR
8482649,95000,CERGY,FR
49808482,0,OTHER,FR
13958187,38220,ST PIERRE DE MESAGE,FR
93556939,57200,SARREGUEMINES,FR
60425887,95800,COURDIMANCHE,FR
99193840,64121,MONTARDON,FR
92993943,93270,SEVRAN,FR
13397941,0,75014,FR
36697297,0,OTHER,FR
60191760,91180,SAINT GERMAIN LES ARPAJON,FR
32918293,94700,Maisons Alfort,FR
3734032,75011,PARIS,FR
37773135,78400,CHATOU,FR
36086736,95400,VILLIERS LE BEL,FR
41821130,0,OTHER,FR
65898691,0,OTHER,FR
73864285,0,OTHER,FR
41269283,93100,MONTREUIL,FR
42016297,0,ABIDJAN,CI
28983405,92763,ANTONY CEDEX,FR
74334667,95640,HARAVILLIERS,FR
45677200,64000,PAU,FR
91047564,0,OTHER,FR
25409093,0,OTHER,FR
15544783,92200,NEUILLY SUR SEINE,FR
3673680,78170,LA CELLE ST CLOUD,FR
40785876,0,OTHER,FR
8008664,0,OTHER,FR
18448059,92110,CLICHY,FR
73427010,95130,FRANCONVILLE,FR
21347873,95880,ENGHIEN LES BAINS,FR
28711495,93800,EPINAY SUR SEINE,FR
89177664,95800,Cergy,FR
98270449,94500,CHAMPIGNY,FR
61813274,95800,CERGY ST CHRISTOPHE,FR
43249127,93350,LE BOURGET,FR
56431399,95810,ARRONVILLE,FR
65007238,95460,EZANVILLE,FR
32962223,0,Lome,TG
23216270,13012,MARSEILLE,FR
54132075,75015,PARIS,FR
93270833,95100,ARGENTEUIL,FR
51778486,75011,PARIS,FR
11550315,94170,LE PERREUX SUR MARNE,FR
49242910,75013,PARIS,FR
82770329,64000,Pau,FR
68384294,95800,Cergy St Christophe,FR
10857587,0,Polokwane,ZA
1888449,95000,CERGY,FR
17971634,94400,VITRY SUR SEINE,FR
23383180,0,Taipei City,TW
2625690,0,OTHER,FR
33485433,95000,CERGY,FR
94066014,0,92600,FR
24027431,95000,CERGY,FR
53482161,0,Casablanca,MA
54744062,95000,NEUVILLE SUR OISE,FR
1565603,95801,CERGY,FR
78873944,65330,RECURT,FR
72620850,64000,PAU,FR
14341815,64000,PAU,FR
42109435,95000,CERGY,FR
25874961,75011,PARIS,FR
58462209,95390,ST PRIX,FR
94731566,95000,CERGY PONTOISE,FR
46983158,64140,BILLERE,FR
94204533,0,OTHER,FR
1093974,95150,TAVERNY,FR
74783352,64000,PAU,FR
89114959,0,OTHER,FR
27996360,31400,TOULOUSE,FR
34540116,65150,SAINT PAUL,FR
93794781,95000,CERGY,FR
40533719,57320,BOUZONVILLE,FR
23577576,64000,PAU,FR
28447529,0,OTHER,FR
59431858,75015,PARIS,FR
36266678,95610,ERAGNY SUR OISE,FR
17433230,64140,LONS,FR
21645313,95100,ARGENTEUIIL,FR
37022866,64000,PAU,FR
31391843,64000,PAU,FR
21073747,95000,Cergy,FR
6912443,78540,VERNOUILLET,FR
15413887,95100,ARGENTEUIL,FR
52738925,0,OTHER,FR
42659825,95011,CERGY PONTOISE,FR
53014511,13006,MARSEILLE,FR
63378875,0,OTHER,FR
22123071,95000,CERGY,FR
29052248,75015,PARIS,FR
79349053,32000,AUCH,FR
75071657,93220,GAGNY,FR
49091229,95000,Cergy,FR
12594285,0,OTHER,FR
88002399,0,OTHER,FR
98761642,95800,Cergy St Christophe,FR
5754848,95000,CERGY,FR
50336883,0,OTHER,FR
57553681,75006,PARIS,FR
57499254,95000,CERGY,FR
38853946,0,ARIANA,TN
36428564,95000,CERGY,FR
11766416,78700,CONFLANS SAINTE HONORINE,FR
36770709,75020,PARIS,FR
46960755,95000,CERGY,FR
31073217,95000,CERGY,FR
92917290,77400,LAGNY SUR MARNE,FR
30332692,64990,MOUGUERRE,FR
41460660,64100,Bayonne,FR
75127473,64000,PAU,FR
91766927,95000,CERGY,FR
32957445,78600,Maisons laffitte,FR
99947691,0,BANGKOK,TH
79533292,92500,RUEIL MALMAISON,FR
29755701,78570,ANDRESY,FR
94848359,93500,PANTIN,FR
68534784,78500,SARTROUVILLE,FR
11476720,95800,CERGY,FR
58110441,78170,LA CELLE SAINT CLOUD,FR
69106228,64230,LESCAR,FR
23256781,64000,PAU,FR
80443026,95000,CERGY,FR
49855009,95000,CERGY,FR
38206189,0,OTHER,FR
40590644,91190,GIF SUR YVETTE,FR
22542515,64420,ANDOINS,FR
92556424,0,OTHER,FR
46288566,75018,PARIS,FR
73914458,64160,ST LAURENT BRETAGNE,FR
86001209,84000,AVIGNON,FR
16931112,95000,CERGY,FR
75120623,95620,Parmain,FR
53861793,64000,PAU,FR
33411728,95370,MONTIGNY LES CORMEILLES,FR
73793575,91160,BALLAINVILLIERS,FR
78352597,75018,PARIS,FR
52146964,0,OTHER,FR
99829732,0,OTHER,FR
45746578,63300,THIERS,FR
94199584,64160,GABASTON,FR
17787298,0,OTHER,FR
44781438,64000,PAU,FR
96336319,95000,CERGY,FR
22070762,92330,SCEAUX,FR
8585540,60300,Borest,FR
9104754,16200,CHASSORS,FR
69920017,64000,PAU,FR
17626014,93200,SAINT DENIS,FR
24071004,95014,CERGY,FR
46112840,0,OTHER,FR
67867871,0,OTHER,FR
29011628,78420,CARRIERES/SEINE,FR
30779908,95310,SAINT OUEN L'AUMNE,FR
7408690,95000,CERGY,FR
95705442,95000,CERGY,FR
79444588,95310,SAINT OUEN L'AUMONE,FR
58971078,64160,Morlas,FR
4322840,6370,MOUANS SARTOUX,FR
83059274,95130,FRANCONVILLE,FR
20875214,31000,TOULOUSE,FR
17074426,75016,PARIS,FR
9848402,95000,CERGY,FR
5453315,78150,Le Chesnay,FR
95322452,0,OTHER,FR
8539201,0,MARRAKECH,MA
65560501,0,95450,FR
11310042,94300,VINCENNES,FR
52094654,38000,GRENOBLE,FR
79363024,92800,PUTEAUX,FR
75502279,0,OTHER,FR
89047943,64000,PAU,FR
86322081,64000,PAU,FR
56258157,64110,GELOS,FR
54446760,77380,COMBS LA VILLE,FR
91176989,0,OTHER,FR
31842320,95000,CERGY,FR
89547779,64000,Pau,FR
19775026,0,OTHER,FR
55832201,78955,CARRIERES SOUS POISSY,FR
64661646,64000,PAU,FR
68655354,95000,CERGY,FR
60424295,59650,VILLENEUVE D'ASCQ,FR
75300193,64440,LARUNS,FR
4694367,95800,CERGY LE HAUT,FR
93409898,78390,Bois d'arcy,FR
12636554,95690,NESLES LA VALLEE,FR
54565211,0,OTHER,FR
12832871,64000,Pau,FR
37734567,78600,MAISONS LAFFITTE,FR
56852849,64990,MOUGUERRE,FR
99227810,0,OTHER,FR
69221389,62320,ACHEVILLE,FR
9678134,80470,SAVEUSE,FR
51199892,78260,ACHERES,FR
89522036,78450,VILLEPREUX,FR
26326498,95740,FRPILLON,FR
10341939,0,OTHER,FR
7646361,95560,BAILLET EN FRANCE,FR
74165415,77500,Chelles,FR
87948563,0,OTHER,FR
84607032,0,OTHER,FR
58967960,95430,AUVERS SUR OISE,FR
3948095,64000,PAU,FR
80329159,31800,VILLENEUVE DE RIVIERE,FR
559601,64320,SENDETS,FR
59044860,95870,Bezons,FR
60853947,95230,SOISY SOUS MONTMORENCY,FR
20327687,13008,MARSEILLE,FR
27183716,95480,PIERRELAYE,FR
51537643,75019,PARIS,FR
44106235,0,Hanoi,VN
27626432,95520,OSNY,FR
64747133,0,OTHER,FR
58359467,78711,MANTES LA VILLE,FR
25569579,0,OTHER,FR
10484324,0,OTHER,FR
22484955,93330,NEUILLY SUR MARNE,FR
60018525,75004,PARIS,FR
8155323,78700,CONFLANS SAINTE HONORINE,FR
46273767,95000,CERGY,FR
22413350,78740,Vaux Sur Seine,FR
10537852,78230,LE PECQ,FR
21316043,0,OTHER,FR
89041157,92350,LE PLESSIS ROBINSON,FR
26702171,95310,Saint Ouen L'aumne,FR
78569979,0,OTHER,FR
12648580,95800,CERGY,FR
66600095,0,OTHER,FR
62093120,95110,SANNOIS,FR
65342405,0,OTHER,FR
19790883,78800,HOUILLES,FR
74154810,78230,LE PECQ,FR
78742985,56100,LORIENT,FR
59780296,95000,Cergy,FR
44990806,95801,CERGY,FR
69214954,95450,US,FR
19469155,78800,HOUILLES,FR
36154140,95610,ERAGNY,FR
25022052,95490,VAURAL,FR
20593614,78600,Maisons Laffitte,FR
64174196,92600,ASNIERES,FR
98671445,0,OTHER,FR
40459302,0,OTHER,FR
2481700,95160,MONTMORENCY,FR
15212316,0,OTHER,FR
24797389,0,OTHER,FR
79705712,95014,CERGY CEDEX,FR
32163088,95800,CERGY,FR
11218418,94300,VINCENNES,FR
97677358,0,OTHER,FR
72600265,16100,COGNAC,FR
32755289,0,OTHER,FR
18184211,95240,CORMEILLES EN PARISIS,FR
95481457,0,OTHER,FR
76989719,0,OTHER,FR
11309203,76800,ST ETIENNE DU ROUVRAY,FR
37537939,78110,LE VESINET,FR
16596674,29470,PLOUGASTEL,FR
46929255,95000,CERGY,FR
62652719,22430,ERQUY,FR
24387265,95880,ENGHIEN,FR
80644829,0,OTHER,FR
94482496,0,OTHER,FR
5926701,0,OTHER,FR
11317939,91120,PALAISEAU,FR
89097039,22300,LANNION,FR
96841385,0,OTHER,FR
84216287,95750,CHARS,FR
94513606,95000,CERGY,FR
50591631,59128,FLERS EN ESCREBIEUX,FR
31077937,95600,EAUBONNE,FR
86659150,78480,VERNEUIL SUR SEINE,FR
58689970,35000,RENNES,FR
48614624,0,OTHER,FR
48755466,0,OTHER,FR
37625665,31750,ESCALQUENS,FR
35335239,33710,BOURG,FR
1021754,95490,VAUREAL,FR
21204244,33770,Salles,FR
37920588,0,OTHER,FR
76247337,0,OTHER,FR
85248843,0,OTHER,FR
99355383,31320,VIEILLE TOULOUSE,FR
80277330,94260,FRESNES,FR
60823862,95610,ERAGNY SUR OISE,FR
96780601,95000,CERGY,FR
85464012,0,OTHER,FR
16280924,92800,PUTEAUX,FR
76376969,92300,LEVALLOIS PERRET,FR
91920060,0,OTHER,FR
31867673,0,OTHER,FR
43856418,0,OTHER,FR
16798970,95800,CERGY,FR
19504549,60200,COMPIEGNE,FR
26520313,60280,MARGNY LES COMPIEGNE,FR
75492133,75014,PARIS,FR
87768484,50220,SAINT QUENTIN SUR LE HOMME,FR
37300687,6340,LA TRINITE,FR
86697986,0,OTHER,FR
9725922,92250,LA GARENNE COLOMBES,FR
75389018,95490,VAUREAL,FR
10783648,64000,PAU,FR
18822238,44100,NANTES,FR
69908387,75015,Paris,FR
46291982,0,OTHER,FR
21355731,0,OTHER,FR
70380953,64000,PAU,FR
53519450,64000,PAU,FR
96503211,95160,MONTMORENCY,FR
98193963,95000,CERGY,FR
49229790,16600,TOUVRE,FR
13785276,0,OTHER,FR
1845517,0,OTHER,FR
46284638,95640,Haravilliers,FR
42930050,92210,ST CLOUD,FR
85211126,75004,PARIS,FR
77425430,95220,HERBLAY,FR
79946508,59553,CUINCY,FR
22207624,95110,SANNOIS,FR
87694906,64230,LESCAR,FR
81017099,30320,Poulx,FR
28709058,0,OTHER,FR
28072705,0,OTHER,FR
11312576,95300,PONTOISE,FR
70096178,95130,FRANCONVILLE,FR
57598249,94100,SAINT MAUR,FR
62151283,95000,CERGY,FR
46458455,64000,PAU,FR
85915309,64000,PAU,FR
35453452,94120,FONTENAY SOUS BOIS,FR
47351586,95000,CERGY,FR
10724258,59650,VILLENEUVE D'ASCQ,FR
11805402,0,OTHER,FR
40026481,95520,OSNY,FR
7828975,0,OTHER,FR
22539319,95000,CERGY,FR
6604574,64000,PAU,FR
69736336,75014,PARIS,FR
33796780,64000,PAU,FR
57327073,91600,SAVIGNY SUR ORGE,FR
94974564,75016,Paris,FR
34693802,8140,MAIRY,FR
30066199,64000,PAU,FR
78222485,0,OTHER,FR
38204697,95380,PUISEUX EN FRANCE,FR
74797722,95150,Taverny,FR
29067544,8000,CHARLEVILLE,FR
94224399,95014,CERGY,FR
99451056,0,75004,FR
48727936,0,OTHER,FR
63187040,95000,CERGY,FR
68785583,95320,SAINT LEU LA FORT,FR
66009744,31820,PIBRAC,FR
14770691,0,OTHER,FR
21038497,0,OTHER,FR
45485197,95000,CERGY,FR
68381896,22290,GOUDELIN,FR
80973520,59500,Douai,FR
16366842,0,OTHER,FR
32207291,95220,HERBLAY,FR
56809182,0,OTHER,FR
64243706,95110,SANNOIS,FR
8308612,31600,MURET,FR
38220444,64000,PAU,FR
57058764,95110,SANNOIS,FR
36324594,0,OTHER,FR
8450091,64000,PAU,FR
16020973,64000,PAU,FR
76726828,95360,MONTMAGNY,FR
42538198,0,OTHER,FR
72399994,95580,Margency,FR
14640310,64000,PAU,FR
52273822,95230,SOISY SOUS MONTMORENCY,FR
65917391,0,OTHER,FR
19221796,64000,PAU,FR
3506780,0,OTHER,FR
57140248,78160,MARLY LE ROI,FR
5536975,78600,LE MESNIL LE ROI,FR
69547234,78160,MARLY LE ROI,FR
6326185,0,OTHER,FR
25338323,95000,CERGY,FR
15244038,95320,ST LEU LA FORET,FR
51925053,78700,CONFLANS STE HONORINE,FR
50224143,74000,ANNECY,FR
68390083,0,OTHER,FR
56209453,0,OTHER,FR
80187297,64000,PAU,FR
21000001,92310,SVRES,FR
63413755,95000,CERGY,FR
87468874,59193,ERQUINGHEM LYS,FR
98040485,78680,EPONE,FR
65635684,95000,CERGY,FR
33195007,59600,MAUBEUGE,FR
91752564,35700,RENNES,FR
66390792,13140,MIRAMAS,FR
86672575,64230,LESCAR,FR
54225670,64140,BILERE,FR
51524550,64140,BILLERE,FR
71605742,95420,MAGNY EN VEXIN,FR
66624393,64000,PAU,FR
14091366,95430,AUVERS SUR OISE,FR
1001758,95520,OSNY,FR
29104431,0,OTHER,FR
88007379,64170,SERRES SAINTE MARIE,FR
69516523,95800,CERGY ST CHRISTOPHE,FR
71910939,78440,ISSOU,FR
26575471,77400,LAGNY SUR MARNE,FR
15032431,0,OTHER,FR
74708080,0,91250,FR
6311842,95600,EAUBONNE,FR
31610879,95000,CERGY,FR
84132343,75013,PARIS,FR
7033324,0,OTHER,FR
86122621,95000,CERGY,FR
20453160,69270,FONTAINES ST MARTIN,FR
88495908,75005,PARIS,FR
59220443,0,OTHER,FR
81254578,0,OTHER,FR
91071202,95800,CERGY LE HAUT,FR
71863845,14000,CAEN,FR
3489847,54400,LONGWY,FR
74767313,0,OTHER,FR
8173883,95320,St Leu la Fort,FR
5595001,95800,CERGY,FR
6392874,76610,ROUELLES,FR
18664614,95520,OSNY,FR
52589966,34160,SAUSSINES,FR
73447465,77150,LESIGNY,FR
55031329,59000,LILLE,FR
28745990,95000,NEUVILLE SUR OISE,FR
72161367,95000,Cergy,FR
83638599,95000,CERGY,FR
7327942,95000,Cergy Les Chateaux,FR
54442753,0,OTHER,FR
3251416,0,OTHER,FR
21441576,0,HangZhou,CN
22135081,95800,CERGY,FR
94965553,95280,JOUY LE MOUTIER,FR
71241883,95250,BEAUCHAMP,FR
54895377,78440,GARGENVILLE,FR
27311842,95000,CERGY,FR
55806694,75014,PARIS,FR
38878952,78500,Sartrouville,FR
70447079,12220,JAKARTA,FR
73591495,33000,BORDEAUX,FR
18493645,95000,CERGY,FR
54131592,95000,CERGY,FR
92415449,75015,PARIS,FR
73007142,64430,SAINT ETIENNE DE BAGORRY,FR
57461994,95000,CERGY PONTOISE,FR
58536419,78100,ST GERMAIN EN LAYE,FR
57715515,95000,CERGY,FR
26291863,75016,PARIS 16EME ARRONDISSEMENT,FR
79779623,95000,CERGY,FR
72219393,95000,CERGY,FR
20484239,78600,MAISONS LAFFITTE,FR
19666372,0,Lyss,CH
81694396,0,Shenhe Shenyang,CN
61454843,87350,PANAZOL,FR
24547852,0,OTHER,FR
656929,95000,CERGY,FR
98736837,93170,BAGNOLET,FR
98671029,67201,ECKBOLSHEIM,FR
82036021,78250,MEZY SUR SEINE,FR
60754594,0,OTHER,FR
34862294,95300,Pontoise,FR
5573919,95300,PONTOISE,FR
29168405,95300,Pontoise,FR
81088174,75013,PARIS,FR
91695042,95220,HERBLAY,FR
43391285,77100,MEAUX,FR
86532284,95300,CHOIX,FR
37061272,95014,CERGY CEDEX,FR
29950153,0,Beijing,CN
42310923,95000,CERGY,FR
77081341,64000,PAU,FR
93260957,95000,CERGY,FR
62305474,95000,CERGY,FR
98010450,95000,NEUVILLE,FR
79400015,95000,CERGY,FR
76126607,64000,PAU,FR
11126385,95000,CERGY,FR
31162980,95800,CERGY,FR
81323191,92290,CHATENAY MALABRY,FR
8525613,92150,SURESNES,FR
44380760,82140,St Antonin Noble Val,FR
4122838,0,OTHER,FR
26994313,0,OTHER,FR
36137149,75015,Paris,FR
64706259,0,OTHER,FR
45989426,75005,PARIS,FR
22792009,95000,BOISEMONT,FR
93702390,77160,VILLARS,FR
69912913,78240,CHAMBOURCY,FR
36931398,0,OTHER,FR
88066435,92100,BOULOGNE,FR
90668987,75015,PARIS,FR
44452870,75011,PARIS,FR
99615482,64160,MAUCOR,FR
54679669,64000,PAU,FR
10188687,95000,CERGY,FR
97522876,95000,NEUVILLE SUR OISE,FR
78947734,0,OTHER,FR
10068414,6800,CAGNES SUR MER,FR
87412146,95000,CERGY,FR
847343,94400,VITRY SUR SEINE,FR
34796856,95000,CERGY PONTOISE,FR
19552820,0,OTHER,FR
42085097,64140,LONS,FR
70229843,95360,MONTMAGNY,FR
99884253,0,OTHER,FR
95792978,92200,NEUILLY SUR SEINE,FR
92820780,78700,CONFLANS SAINTE HONORINE,FR
92617822,75116,PARIS,FR
5871043,0,OTHER,FR
9182541,0,OTHER,FR
43117597,95000,CERGY,FR
2793867,92700,COLOMBES,FR
9030334,31750,Escalquens,FR
96891742,95220,HERBLAY,FR
99568552,75009,PARIS,FR
51563344,95100,ARGENTEUIL,FR
51960413,78700,CONFLANS STE HONORINE,FR
74790564,95000,NEUVILLE SUR OISE,FR
61607955,0,OTHER,FR
80322682,95490,VAUREAL,FR
74598719,0,15 Avenue Farhat Hached 1001 Tunis,TN
27730259,0,OTHER,FR
74403022,87000,LIMOGES,FR
41926406,88460,LA BAFFE,FR
31761009,0,OTHER,FR
3449644,0,OTHER,FR
59828350,77115,SIVRY COURTRY,FR
76958183,95800,CERGY St Christophe,FR
89468429,95014,CERGY,FR
63538753,93300,AUBERVILLIERS,FR
65959835,92000,NANTERRE,FR
876011,64500,CIBOURE,FR
50610709,95140,GARGES LES GONESSE,FR
14610602,0,OTHER,FR
4007091,0,OTHER,FR
22787290,0,OTHER,FR
28957929,47400,GONTAUD DE NOGARET,FR
57324081,34000,MONTPELLIER,FR
51860468,95560,MONTSOULT,FR
31974549,64000,PAU,FR
36819987,95000,CERGY,FR
72706779,95000,CERGY,FR
45961730,0,OTHER,FR
84958177,0,OTHER,FR
90237539,95800,COURDIMANCHE,FR
96016213,95160,MONTMORENCY,FR
51575895,75015,PARIS,FR
29470233,64140,LONS,FR
71796640,92190,MEUDON,FR
77845558,64000,PAU,FR
53546453,95130,FRANCONVILLE,FR
37798672,64200,BASSUSSARRY,FR
61815168,0,OTHER,FR
42773747,95160,Montmorency,FR
66557864,0,OTHER,FR
23002463,0,OTHER,FR
1913447,0,Choix,FR
47188026,94200,IVRY SUR SEINE,FR
89352682,0,OTHER,FR
59331731,95000,CERGY,FR
4794507,45240,SENNELY,FR
59793249,95490,VAUREAL,FR
57728198,94400,VITRY SUR SEINE,FR
6800957,95300,PONTOISE,FR
31817623,92190,MEUDON,FR
25849672,0,OTHER,FR
56892633,92110,CLICHY,FR
3423812,93100,MONTREUIL,FR
83934961,0,OTHER,FR
11610551,31600,MURET,FR
34314733,64140,LONS,FR
26284412,0,OTHER,FR
59556897,78540,VERNOUILLET,FR
17967798,95000,CERGY,FR
70419235,95000,CERGY,FR
93502300,37927,TOURS CEDEX 9,FR
61231241,0,OTHER,FR
75246283,93000,BOBIGNY,FR
37673908,72110,BEAUFAY,FR
30504636,60200,Compiegne,FR
27267101,78000,VERSAILLES,FR
25353922,95310,ST OUEN L AUMONE,FR
54747473,0,OTHER,FR
32517699,95120,ERMONT,FR
23878473,78680,EPONE,FR
52524155,95800,CERGY LE HAUT,FR
61798627,0,OTHER,FR
93359772,0,OTHER,FR
82119020,91370,VERRIERES LE BUISSON,FR
33752436,33530,BASSENS,FR
15901739,94120,FONTENAY SOUS BOIS,FR
58607520,95280,Jouy le Moutier,FR
91767797,95100,ARGENTEUIL,FR
94548184,95000,CERGY,FR
79507735,0,OTHER,FR
77779352,0,OTHER,FR
10807849,0,OTHER,FR
47130172,0,OTHER,FR
99440024,6200,Nice,FR
35510856,95000,Cergy,FR
41080783,95300,PONTOISE,FR
6111374,31310,Montbrun bocage,FR
4129970,78955,CARRIERES SOUS POISSY,FR
13103349,78500,SARTROUVILLE,FR
55766469,95220,HERBLAY,FR
32234403,83600,FREJUS,FR
36276047,95310,ST OUEN L'AUMONE,FR
27789105,95220,HERBLAY,FR
98248745,95540,MERY SUR OISE,FR
39587354,59230,ST AMAND LES EAUX,FR
77692661,0,OTHER,FR
16619783,64000,Pau,FR
84685652,95420,MAGNY EN VEXIN,FR
59541979,64230,DENGUIN,FR
91095356,60570,ANDEVILLE,FR
30625525,0,OTHER,FR
12317404,95000,Cergy,FR
19526825,95880,ENGHIEN LES BAINS,FR
160730,91100,VILLAB,FR
13936643,0,OTHER,FR
59602106,95330,DOMONT,FR
72794371,95100,ARGENTEUIL,FR
75702758,0,Hong Kong,HK
6158735,95100,ARGENTEUIL,FR
13822468,95800,CERGY ST CHRISTOPHE,FR
4063764,64320,LEE,FR
70364744,95000,CERGY,FR
65097969,78500,SARTROUVILLE,FR
69859259,64000,PAU,FR
29013156,78500,SARTROUVILLE,FR
2312023,75011,PARIS,FR
81357656,0,"Changsha City, Hunan Province",CN
41803877,56500,Locmin,FR
43607984,0,OTHER,FR
83033569,94700,MAISONS ALFORT,FR
57588324,0,OTHER,FR
91023519,78500,Sartrouville,FR
60306803,0,OTHER,FR
22127218,0,OTHER,FR
92111508,95520,OSNY,FR
39491288,89000,SAINT GEORGES SUR BAULCHE,FR
9979555,92230,GENNEVILLIERS,FR
66804672,0,OTHER,FR
93294414,94120,FONTENAY SOUS BOIS,FR
6997095,0,OTHER,FR
89233045,64140,Billre,FR
4085202,78190,TRAPPES,FR
14075010,0,SAINT ANDRE,RE
79668464,78580,JUMEAUVILLE,FR
91715995,78000,VERSAILLES,FR
70409954,95550,BESSANCOURT,FR
19924543,78530,BUC,FR
61471356,92800,PUTEAUX,FR
11213614,95800,Cergy,FR
47239517,78720,LA CELLE LES BORDES,FR
19933841,75012,PARIS,FR
8193733,33710,SAINT TROJAN,FR
83468093,33160,SAINT MEDARD EN JALLES,FR
20864437,74230,THONES,FR
2093662,0,OTHER,FR
65289202,69600,OULLINS,FR
30101127,77670,SAINT MAMMES,FR
79606400,0,OTHER,FR
81391230,95450,US,FR
21300645,29140,ROSPORDEN,FR
99653351,92240,MALAKOFF,FR
42273976,95800,CERGY ST CHRISTOPHE,FR
50565498,33550,LE TOURNE,FR
51402158,95430,AUVERS SUR OISE,FR
52752742,92100,BOULOGNE BILLANCOURT,FR
4428913,0,OTHER,FR
59018112,59239,THUMERIES,FR
10140284,95300,PONTOISE,FR
80741315,95800,COURDIMANCHE,FR
52896520,92150,SURESNES,FR
79791465,0,OTHER,FR
51264377,81100,Castres,FR
79787959,95000,CERGY,FR
20233744,64000,PAU,FR
93490931,0,OTHER,FR
95779758,92500,RUEIL MALMAISON,FR
40774698,78200,BUCHELAY,FR
85022511,64000,PAU,FR
31330614,95000,CERGY,FR
40226769,95000,CERGY,FR
49551539,95000,CERGY,FR
1291497,0,OTHER,FR
49997609,68740,MUNCHHOUSE,FR
27076077,94700,MAISONS ALFORT,FR
3898006,64000,PAU,FR
59681984,75020,PARIS 20EME ARRONDISSEMENT,FR
56312720,95520,OSNY,FR
90407928,92270,BOIS COLOMBES,FR
1733618,75116,PARIS,FR
73502738,94700,MAISONS ALFORT,FR
60791932,95490,VAUREAL,FR
9632906,95800,CERGY LE HAUT,FR
9078648,91090,LISSES,FR
43859912,64000,Pau,FR
58399252,0,OTHER,FR
41985787,95300,PONTOISE,FR
8514114,95220,HERBLAY,FR
73093121,95130,FRANCONVILLE,FR
89808747,37390,NOTRE DAME D'OE,FR
72457309,77600,BUSSY SAINT GEORGES,FR
23306474,95000,CERGY,FR
99716007,0,OTHER,FR
12735732,31300,TOULOUSE,FR
91001572,0,OTHER,FR
67473260,91160,LONGJUMEAU,FR
13424772,95300,Pontoise,FR
3973491,95220,HERBLAY,FR
24242791,95000,CERGY,FR
5886948,0,OTHER,FR
33424275,95011,CERGY,FR
5515971,95800,Cergy St Christophe,FR
79652665,31300,TOULOUSE,FR
80897896,91300,MASSY,FR
48376721,95280,JOUY LE MOUTIER,FR
3551357,64000,PAU,FR
1955960,45160,OLIVET,FR
6878218,92300,LEVALLOIS PERRET,FR
41810087,64290,BOSDARROS,FR
54486359,83270,SAINT CYR SUR MER,FR
77931650,94000,CRETEIL,FR
19810044,91000,EVRY,FR
19773189,92600,ASNIERES,FR
89819962,95120,ERMONT,FR
96756431,75015,"PARIS, 15E ARRONDISSEMENT",FR
38190716,95014,CERGY CEDEX,FR
93250163,75015,PARIS,FR
88302071,78100,Saint Germain En Laye,FR
93326864,0,OTHER,FR
83299678,94550,CHEVILLY LARUE,FR
68237067,0,OTHER,FR
64081172,95300,PONTOISE,FR
84738517,60240,FRESNEAUX MONTCHEVREUIL,FR
44066346,95300,ENNERY,FR
31228341,95420,ST GERVAIS,FR
17024799,64100,Bayonne,FR
14716268,78420,CARRIERES SUR SEINE,FR
53971099,95560,BAILLET EN FRANCE,FR
51318867,0,OTHER,FR
9784953,95430,AUVERS SUR OISE,FR
93106259,95130,FRANCONVILLE,FR
61828690,64000,PAU,FR
70060593,66740,Saint Gnis Des Fontaines,FR
82631513,0,OTHER,FR
4891577,0,OTHER,FR
9168652,33000,Bordeaux,FR
13184263,95320,ST LEU LA FORET,FR
11034607,95000,Cergy,FR
50738129,95014,CERGY PONTOISE,FR
209339,64450,NAVAILLES ANGOS,FR
96472145,0,OTHER,FR
86445763,64000,PAU,FR
92903163,21200,BOUZE LES BEAUNE,FR
9581936,0,OTHER,FR
62277271,64110,GELOS,FR
20062905,95280,JOUY LE MOUTIER,FR
37906723,95000,Cergy,FR
5985895,0,OTHER,FR
79303643,0,OTHER,FR
60800123,64121,SERRES CASTET,FR
96724449,2400,BEZU SAINT GERMAIN,FR
72210557,0,OTHER,FR
88323962,64420,SOUMOULOU,FR
90625464,95000,BOISEMONT,FR
77490620,0,OTHER,FR
36744311,0,OTHER,FR
96677462,95000,CERGY,FR
95614163,95000,CERGY,FR
85359937,95000,CERGY,FR
99695587,0,OTHER,FR
13336310,75116,PARIS,FR
95062218,95280,Jouy le Moutier,FR
68706907,60560,Orry la ville,FR
11870680,95000,Cergy,FR
37117872,0,OTHER,FR
82823226,0,OTHER,FR
28978695,0,OTHER,FR
32957451,95000,CERGY,FR
854568,95300,Pontoise,FR
47494560,95000,CERGY,FR
38400054,92000,NANTERRE,FR
89722308,78600,MAISONS LAFFITTE,FR
74747834,64000,PAU,FR
86230027,95000,CERGY,FR
92881612,0,OTHER,FR
30514338,75014,PARIS,FR
84144076,0,OTHER,FR
22645240,60520,LA CHAPELLE EN SERVAL,FR
50052239,95640,MARINES,FR
10531985,31500,Toulouse,FR
77824921,75006,PARIS 06EME ARRONDISSEMENT,FR
11440717,78600,LE MESNIL LE ROI,FR
26181656,82600,VERDUN SUR GARONNE,FR
39642829,0,OTHER,FR
410417,78670,MEDAN,FR
70596878,75016,PARIS,FR
98573000,18400,SAINT CAPRAIS,FR
66738056,78520,LIMAY,FR
78245676,95000,CERGY VILLAGE,FR
90251513,92400,COURBEVOIE,FR
8864240,64000,PAU,FR
26520571,92500,RUEIL MALMAISON,FR
6096824,95160,MONTMORENCY,FR
19445036,47310,Moncaut,FR
12080018,0,OTHER,FR
33590017,92150,SURESNES,FR
69268989,78210,ST CYR L ECOLE,FR
21881858,31400,TOULOUSE,FR
42539386,94000,Creteil,FR
63131838,78700,CONFLANS STE HONORIN,FR
67557464,64000,PAU,FR
76306776,0,OTHER,FR
95708201,82140,CAZALS,FR
54051477,95520,OSNY,FR
47030150,95800,CERGY,FR
89606061,75019,PARIS,FR
2724895,64510,BORDES,FR
72468038,0,OTHER,FR
13270704,64230,POEY DE LESCAR,FR
27542859,0,OTHER,FR
47276295,0,OTHER,FR
74502384,75010,PARIS,FR
7054880,0,OTHER,FR
11541592,78490,MONTFORT L'AMAURY,FR
39338416,0,OTHER,FR
13746726,0,OTHER,FR
65659096,95014,CERGY CEDEX,FR
67279907,54180,HOUDEMONT,FR
78608735,92100,BOULOGNE BILLANCOURT,FR
15363548,94340,JOINVILLE LE PONT,FR
73074739,0,OTHER,FR
37842934,0,OTHER,FR
59478021,95000,CERGY,FR
6951392,95000,NEUVILLE SUR OISE,FR
66939595,78600,MESNIL LE ROI,FR
50480071,21110,ROUVRES EN PLAINE,FR
23312324,77680,ROISSY EN BRIE,FR
44016823,13190,ALLAUCH,FR
8111885,64230,Sauvagnon,FR
35420998,0,OTHER,FR
93646175,0,OTHER,FR
51701539,75015,PARIS,FR
98952015,95490,VAURAL,FR
45760441,89400,Bassou,FR
64583461,62149,CAMBRIN,FR
24855071,95290,L'ISLE ADAM,FR
1046778,64000,PAU,FR
28906550,35650,LE RHEU,FR
12110867,0,OTHER,FR
13681121,95640,SANTEUIL,FR
98139736,64000,PAU,FR
45849295,0,OTHER,FR
41240439,64000,PAU,FR
85300555,95310,SAINT OUEN L'AUMONE,FR
1793105,95130,FRANCONVILLE,FR
48202655,31450,FOURQUEVAUX,FR
40267297,95000,CERGY,FR
71755919,34200,Ste,FR
86724942,33110,LE BOUSCAT,FR
90688751,77173,CHEVRY COSSIGNY,FR
48953564,64000,PAU,FR
42343728,95100,ARGENTEUIL,FR
59724791,95000,CERGY,FR
2017407,75015,PARIS,FR
70083229,95000,CERGY,FR
34497058,85000,LA ROCHE SUR YON,FR
26786847,95280,JOUY LE MOUTIER,FR
19020526,64000,PAU,FR
98068300,78700,CONFLANS SAINTE HONORINE,FR
55142035,95330,Domont,FR
25027059,13015,MARSEILLLE,FR
96371070,0,OTHER,FR
24169577,59690,VIEUX CONDE,FR
12222719,75006,PARIS 06EME ARRONDISSEMENT,FR
73303299,64000,PAU,FR
11859756,6200,NICE,FR
99357454,0,OTHER,FR
8101658,95000,CERGY,FR
40448142,95120,ERMONT,FR
51449282,75020,PARIS,FR
27427846,75012,PARIS,FR
63798832,92400,Courbevoie,FR
13129202,0,OTHER,FR
19849174,0,OTHER,FR
664103,0,OTHER,FR
74867843,95000,CERGY,FR
86045587,78260,ACHERES,FR
99745317,13011,MARSEILLE,FR
78707310,95540,MERY SUR OISE,FR
53664537,0,OTHER,FR
41168822,31320,CASTANET TOLOSAN,FR
72265887,64000,PAU,FR
86360550,0,OTHER,FR
67836675,95610,ERAGNY SUR OISE,FR
37438404,78580,BAZEMONT,FR
63729404,60117,VEZ,FR
86198597,0,OTHER,FR
25738862,95170,DEUIL,FR
64780966,94510,LA QUEUE EN BRIE,FR
62651761,0,OTHER,FR
79997105,78480,VERNEUIL SUR SEINE,FR
26073837,95000,CERGY,FR
25277620,95150,TAVERNY,FR
36280443,64000,PAU,FR
25903839,0,OTHER,FR
71443035,64320,IDRON,FR
57709050,78230,LE PECQ,FR
40597893,78000,VERSAILLES,FR
93402212,92200,NEUILLY SUR SEINE,FR
42241246,75012,PARIS,FR
99651936,0,OTHER,FR
67695141,75015,Paris,FR
35554751,95260,BEAUMONT SUR OISE,FR
99854144,93200,ST DENIS,FR
10537925,95000,CERGY,FR
49617665,0,OTHER,IT
17211571,92110,CLICHY,FR
45770378,95000,CERGY,FR
1762724,95000,CERGY,FR
48790539,95000,NEUVILLE SUR OISE,FR
88161594,78220,VIROFLAY,FR
67955668,95000,CERGY,FR
91286412,27140,GISORS,FR
84428850,0,OTHER,FR
22978710,0,OTHER,FR
62465463,92000,NANTERRE,FR
60100474,64100,BAYONNE,FR
10368173,92700,COLOMBES,FR
37961580,83400,HYERES,FR
38084265,78121,CRESPIERES,FR
74511515,65100,LOURDES,FR
79354559,95800,CERGY,FR
34175493,92700,COLOMBES,FR
65725761,78700,CONFLANS STE HONORINE,FR
87729724,95800,CERGY SAINT CHRISTOPHE,FR
53331684,93800,EPINAY SUR SEINE,FR
35241866,0,Abidjan,CI
70838251,95000,Cergy,FR
60447066,60110,MERU,FR
94066314,95000,CERGY,FR
17109089,95000,CERGY,FR
85697523,91300,MASSY,FR
67440458,77400,POMPONNE,FR
14262060,69270,FONTAINES SAINT MARTIN,FR
53518680,95800,CERGY,FR
51706746,0,OTHER,FR
21883552,91160,LONGJUMEAU,FR
3572121,0,OTHER,FR
13607054,0,RADES,TN
39201127,75005,PARIS,FR
12519943,95014,CERGY PONTOISE CEDEX,FR
74360191,0,OTHER,FR
93694529,0,OTHER,FR
56067377,78210,SANT CYR L'ECOLE,FR
47080611,22700,ST QUAY PERROS,FR
2975815,94210,SAINT MAUR DES FOSSS,FR
88539298,60280,MARGNY LES COMPIEGNE,FR
85378093,95450,CONDECOURT,FR
46648615,92330,SCEAUX,FR
63865418,95000,CERGY,FR
9527299,64700,HENDAYE,FR
32220565,92150,SURESNES,FR
19952452,0,OTHER,FR
27577705,92160,ANTONY,FR
7967007,67120,ERNOLSHEIM BRUCHE,FR
87381660,95430,AUVERS SUR OISE,FR
21026825,13600,LA CIOTAT,FR
70796616,0,78430,FR
70692394,95000,CERGY,FR
70984989,78130,LES MUREAUX,FR
43683979,91200,ATHIS MONS,FR
34320659,0,La Marsa,TN
31467902,94300,VINCENNES,FR
69203182,95290,L'ISLE ADAM,FR
63052598,0,OTHER,FR
41680274,0,OTHER,FR
19662413,77133,FERICY,FR
13169964,64000,PAU,FR
88000970,95000,PORT CERGY,FR
36585762,64000,PAU,FR
1666590,95160,MONTMORENCY,FR
72620416,78240,CHAMBOURCY,FR
84728363,0,OTHER,FR
31656109,95560,MAFFLIERS,FR
94151641,95801,CERGY ST CHRISTOPHE,FR
21592126,75004,PARIS 4EME ARRONDISSEMENT,FR
82330372,92001,NANTERRE CEDEX,FR
22714792,64000,PAU,FR
51103854,75015,PARIS,FR
34378339,92500,RUEIL MALMAISON,FR
17197102,95000,CERGY,FR
44769165,95110,SANNOIS,FR
3058816,95280,JOUY LE MOUTIER,FR
80399516,0,OTHER,FR
21644019,95000,CERGY,FR
25076094,64320,BIZANOS,FR
73079183,6530,PEYMEINADE,FR
88467283,0,OTHER,FR
85058675,0,OTHER,FR
24211075,62660,BEUVRY,FR
22691735,95400,ARNOUVILLE,FR
65567531,78570,ANDRESY,FR
37892779,95110,SANNOIS,FR
45074955,93800,EPINAY SUR SEINE,FR
8404309,75017,PARIS,FR
75572540,0,OTHER,FR
16040465,95000,CERGY,FR
13356942,64121,MONTARDON,FR
69237340,0,OTHER,FR
35081581,95870,BEZONS,FR
39561576,77600,BUSSY ST GEORGES,FR
90205887,75012,PARIS,FR
57998510,95300,PONTOISE,FR
31376978,95250,BEAUCHAMP,FR
95521527,95000,CERGY,FR
3678940,59170,CROIX,FR
53812690,0,OTHER,FR
2282824,0,OTHER,FR
50292496,75017,PARIS,FR
59070860,77700,COUPVRAY,FR
21759999,93140,BONDY,FR
38223927,78130,LES MUREAUX,FR
15565781,64100,BAYONNE,FR
73751209,75012,PARIS,FR
51384506,75017,PARIS 17EME ARRONDISSEMENT,FR
65327997,64000,PAU,FR
59396752,38320,POISAT,FR
4547085,95000,CERGY,FR
57670464,0,OTHER,FR
48111273,92700,COLOMBES,FR
65891348,95000,CERGY,FR
42354147,0,OTHER,FR
78737494,64000,PAU,FR
25893749,69008,LYON,FR
81660716,75017,PARIS,FR
10070898,77600,BUSSY ST GEORGES,FR
48192956,95000,CERGY,FR
768828,64000,PAU,FR
45013051,94510,LA QUEUE EN BRIE,FR
63388981,29560,TREGARVAN,FR
56673706,64230,POEY DE LESCAR,FR
21891949,0,OTHER,FR
12920679,0,OTHER,FR
9102364,94130,NOGENT SUR MARNE,FR
65755316,95000,CERGY,FR
12718629,95000,CERGY,FR
48448104,75017,PARIS,FR
56871505,38000,GRENOBLE,FR
82682339,75006,PARIS,FR
71936514,95014,CERGY,FR
84146953,0,OTHER,FR
94839181,95490,VAUREAL,FR
26691209,0,Bangalore,IN
624456,78100,ST GERMAIN EN LAYE,FR
97962283,95000,CERGY,FR
74076239,64000,PAU,FR
30895528,0,OTHER,FR
97289530,33600,PESSAC,FR
49622039,0,OTHER,FR
66074772,95230,SOISY SOUS MONTMORENCY,FR
23683813,64230,LESCAR,FR
81931812,0,OTHER,FR
55711089,95271,CHAUMONTEL,FR
47974834,95000,CERGY,FR
60975329,64000,PAU,FR
21222292,95011,CERGY,FR
276785,95520,OSNY,FR
6191466,0,OTHER,FR
32145805,64260,ISESTE,FR
40534577,64320,Aressy,FR
67067921,64000,PAU,FR
10486396,0,OTHER,FR
24174772,72000,Le Mans,FR
63213175,95000,CERGY,FR
68173223,0,OTHER,FR
87515314,78860,SAINT NOM LA BRETECHE,FR
50942555,78,SARTROUVILLE,FR
64013884,95000,CERGY,FR
30622714,61400,MORTAGNE AU PERCHE,FR
34066845,78960,VOISINS LE BRETONNEUX,FR
37264511,95000,CERGY,FR
43543705,64420,ESPOEY,FR
99386265,92160,ANTONY,FR
84361673,64000,PAU,FR
48735728,74570,THORENS GLIERES,FR
63853631,62520,LE TOUQUET,FR
16430387,95300,PONTOISE,FR
9633021,78700,CONFLANS STE HONORINE,FR
23183279,95450,LONGUESSE,FR
31282755,0,OTHER,FR
76145669,95220,HERBLAY,FR
71876769,0,OTHER,FR
82700639,64000,PAU,FR
724139,95300,PONTOISE,FR
11363815,0,Saint Denis,RE
17649034,0,OTHER,FR
43114240,0,OTHER,FR
13197464,95800,COURDIMANCHE,FR
15293829,31520,RAMONVILLE SAINT AGNE,FR
97901121,78600,LE MESNIL LE ROI,FR
53253206,93140,BONDY,FR
15516025,0,OTHER,FR
67357900,78500,SARTROUVILLE,FR
6857111,0,OTHER,FR
35149689,95014,CERGY Cedex,FR
52320176,28380,ST REMY SUR AVRE,FR
82354495,95320,SAINT LEU LA FORT,FR
77633763,95800,COURDIMANCHE,FR
64638339,60530,LE MESNIL EN THELLE,FR
28584997,77176,NANDY,FR
8143084,0,OTHER,FR
68160038,78230,LE PECQ,FR
40833235,0,Takarazuka,JP
49008304,0,ABU DHABI,AE
50436445,0,OTHER,FR
72419540,78800,HOUILLES,FR
45785443,22360,LANGUEUX,FR
72141475,0,OTHER,FR
57607854,0,OTHER,FR
84158606,64000,PAU,FR
52505046,0,OTHER,FR
76422453,64000,PAU,FR
14846445,0,OTHER,FR
41258716,13200,ARLES,FR
78431735,95000,CERGY,FR
28135429,21000,DIJON,FR
67289010,0,OTHER,FR
76410637,0,OTHER,FR
83467051,95000,CERGY,FR
85416435,95310,ST OUEN L'AUMONE,FR
4195760,26500,BOURG LES VALENCE,FR
79529907,95000,CERGY,FR
97980613,0,WINTERTHUR,CH
40923955,64160,BERNADETS,FR
72414199,95000,CERGY,FR
95863880,0,escalier 1,FR
81740761,78130,LES MUREAUX,FR
61995436,95600,EAUBONNE,FR
13374067,64000,PAU,FR
92438627,93360,NEUILLY PLAISANCE,FR
24573470,95390,ST PRIX,FR
77793058,95490,VAUREAL,FR
64016513,95000,CERGY,FR
80291058,94350,VILLIERS SUR MARNE,FR
26582114,89400,CHICHERY,FR
44296309,0,OTHER,FR
28486083,94000,CRETEIL,FR
72865613,95000,Cergy,FR
68971669,0,OTHER,FR
1807641,94450,LIMEIL BREVANNES,FR
95619284,97411,SAINT PAUL,FR
89619916,94200,IVRY SUR SEINE,FR
93362062,0,OTHER,FR
12747566,0,OTHER,FR
94511920,31320,PECHABOU,FR
93947759,0,OTHER,FR
95493328,75017,PARIS 17EME ARRONDISSEMENT,FR
74146120,0,OTHER,FR
11560326,78600,MAISONS LAFFITTE,FR
35787227,95000,CERGY,FR
67770930,0,OTHER,FR
81829522,17250,Saint Porchaire,FR
44168246,0,OTHER,FR
26565610,95120,ERMONT,FR
49067038,64000,PAU,FR
40574237,95000,CERGY,FR
36697115,78400,CHATOU,FR
30749065,64170,AUDJOS,FR
12431880,0,OTHER,FR
85793606,75020,PARIS,FR
38224071,31200,TOULOUSE,FR
96714944,95440,ECOUEN,FR
35400913,95470,FOSSES,FR
48175119,92400,COURBEVOIE,FR
32796104,95800,CERGY,FR
3004567,40200,TARNOS,FR
22364542,33130,BEGLES,FR
43332527,0,OTHER,FR
14124329,77200,TORCY,FR
47403404,59270,Bailleul,FR
29943069,89210,Brienon,FR
62908295,89210,BRIENON SUR ARMANCON,FR
66030553,0,OTHER,FR
76829113,78000,VERSAILLES,FR
98164000,0,OTHER,FR
98707680,92500,RUEIL MALMAISON,FR
73477666,95000,Cergy,FR
93473941,0,OTHER,FR
15070075,0,OTHER,FR
83974524,95630,MERIEL,FR
31651107,64140,BILLERE,FR
49511691,0,OTHER,FR
43824958,78500,Sartrouville,FR
57542312,64000,PAU,FR
19004238,95490,VAUREAL,FR
73640508,95000,CERGY,FR
18367296,33140,VILLENAVE D'ORNON,FR
713628,95000,CERGY,FR
11040123,95280,JOUY LE MOUTIER,FR
39013993,95100,ARGENTEUIIL,FR
30089914,78600,MAISONS LAFFITTE,FR
66710153,0,OTHER,FR
69580557,75010,PARIS 10EME ARRONDISSEMENT,FR
4372582,95000,CERGY,FR
49982759,95000,CERGY,FR
28415388,38100,GRENOBLE,FR
92624482,93130,NOISY LE SEC,FR
15726604,29200,BREST,FR
56080092,64140,LONS,FR
8636249,78100,ST GERMAIN EN LAYE,FR
41351163,94510,LA QUEUE EN BRIE,FR
25436397,64000,PAU,FR
37054415,92500,RUEIL MALMAISON,FR
77590879,95200,SARCELLES,FR
12616340,75013,PARIS,FR
65934930,0,OTHER,FR
80537202,92370,CHAVILLE,FR
17645912,95000,CERGY,FR
20039552,0,OTHER,FR
64137113,63100,Puy de Dme,FR
24548762,0,OTHER,FR
68348221,0,OTHER,FR
80260755,92000,NANTERRE,FR
56256837,95300,PONTOISE,FR
43335918,91140,VILLEBON S/ YVETTE,FR
57228307,94700,MAISONS ALFORT,FR
70355452,95660,CHAMPAGNE SUR OISE,FR
53768208,78955,CARRIERES S/POISSY,FR
48888746,94200,YVRY SUR SEINE,FR
43836225,95800,CERGY LE HAUT,FR
42018559,92500,RUEIL MALMAISON,FR
52454456,75015,PARIS,FR
10042679,0,OTHER,FR
83704885,0,OTHER,FR
51775985,95800,COURDIMANCHE,FR
79925827,95000,Cergy,FR
91323681,93160,NOISY LE GRAND,FR
58655035,0,OTHER,FR
92555716,0,OTHER,FR
54244091,95000,CERGY,FR
7343929,64000,Pau,FR
14828829,94450,LIMEIL BRVANNES,FR
18910338,0,OTHER,FR
52124489,94440,SANTENY,FR
61565403,0,OTHER,FR
44267446,95110,SANNOIS,FR
15446621,95110,SANNOIS,FR
24362160,64000,Pau,FR
75188223,95800,CERGY ST CHRISTOPHE,FR
39043788,92700,COLOMBES,FR
37777621,95000,CERGY,FR
42916057,0,OTHER,FR
69061848,0,OTHER,FR
91300876,95520,OSNY,FR
95270829,95520,osny,FR
73425831,92120,MONTROUGE,FR
23938460,95000,CERGY,FR
39936009,95210,ST GRATIEN,FR
58140788,0,OTHER,FR
98871504,64000,PAU,FR
72251612,94000,CRETEIL,FR
34643040,94230,CACHAN,FR
68181059,91000,EVRY,FR
66122770,95310,SAINT OUEN L'AUMNE,FR
92341134,0,OTHER,FR
93127146,0,OTHER,FR
5362224,0,OTHER,FR
28378096,95210,SAINT GRATIEN,FR
36245914,91370,VERRIERES LE BUISSON,FR
5172056,78450,VILLEPREUX,FR
20179021,95000,CERGY,FR
87881130,91370,VERRIERES LE BUISSON,FR
32474740,95490,VAUREAL,FR
38949889,95880,ENGHIEN LES BAINS,FR
16261602,0,OTHER,FR
86114164,91940,LES ULIS,FR
12615667,94510,LA QUEUE EN BRIE,FR
95707374,93160,NOISY LE GRAND,FR
80618996,78110,LE VSINET,FR
18524141,95310,SAINT OUEN L'AUMNE,FR
96272095,75020,PARIS 20EME ARRONDISSEMENT,FR
8133073,94510,LA QUEUE EN BRIE,FR
96684263,95000,CERGY,FR
17950595,93100,MONTREUIL,FR
35137102,95800,CERGY,FR
37289388,13670,SAINT ANDIOL,FR
25880287,75019,Paris,FR
33981139,95310,ST OUEN L AUMONE,FR
23640894,95800,COURDIMANCHE,FR
9916773,93600,AULNAY SOUS BOIS,FR
78797331,95800,CERGY,FR
63575293,95310,SAINT OUEN L'AUMONE,FR
93298075,0,HO CHI MINH VILLE,VN
60736775,78570,CHANTELOUP LES VIGNES,FR
20366861,0,OTHER,FR
99685062,95490,VAUREAL,FR
7955975,95000,CERGY,FR
24272561,77600,BUSSY SAINT GEORGES,FR
80502585,95490,VAUREAL,FR
97811316,75019,PARIS,FR
49439501,64000,PAU,FR
35625641,13009,MARSEILLE,FR
12243290,64140,LONS,FR
7662964,95800,CERGY,FR
77993676,64000,Pau,FR
54039222,75116,Paris,FR
29030221,83470,ST MAXIMIN LA STE BAUME,FR
81677514,77400,LAGNY SUR MARNE,FR
87008251,75003,PARIS 03EME ARRONDISSEMENT,FR
75889825,13010,MARSEILLE,FR
91949972,95000,CERGY,FR
20210555,95000,CERGY,FR
48069081,0,OTHER,FR
54825052,64000,PAU,FR
16822099,92600,ASNIERES SUR SEINE,FR
7388714,0,75002,FR
71932427,95490,Vaureal,FR
94061345,94120,FONTENAY SOUS BOIS,FR
103909,92300,Levallois,FR
15982028,95000,Cergy,FR
3043919,78990,ELANCOURT,FR
84159554,0,OTHER,FR
91953389,95800,CERGY SAINT CHRISTOPHE,FR
29543989,95000,CERGY,FR
65908830,29200,BREST,FR
40545882,64000,PAU,FR
87566192,92260,FONTENAY AUX ROSES,FR
40430714,0,OTHER,FR
63222449,95100,ARGENTEUIIL,FR
96764186,31320,AUZEVILLE TOLOSANE,FR
83925480,73450,VALMEINIER,FR
62055167,0,OTHER,FR
31333015,75016,PARIS,FR
92862286,94170,LE PERREUX,FR
26187104,94120,FONTENAY SOUS BOIS,FR
74265771,77580,CRECY LA CHAPELLE,FR
62172294,78000,VERSAILLES,FR
25714484,78460,CHEVREUSE,FR
99628108,0,OTHER,FR
22145352,95660,CHAMPAGNE SUR OISE,FR
13179213,33200,BORDEAUX,FR
17830259,78124,MAREIL SUR MAULDRE,FR
54191692,0,OTHER,FR
71709974,71100,SEVREY,FR
64741824,75012,PARIS 12EME ARRONDISSEMENT,FR
95619429,95800,COURDIMANCHE,FR
70964006,45200,MONTARGIS,FR
65230502,95610,ERAGNY,FR
54798120,64160,BUROS,FR
20470769,78140,VELIZY,FR
15667089,0,OTHER,FR
10999893,80480,BACOUL/SELLE,FR
8432115,33200,Bordeaux,FR
72455973,13100,AIX EN PROVENCE,FR
27355305,0,OTHER,FR
15348331,64320,IDRON,FR
76171522,78590,NOISY LE ROI,FR
99809481,59700,Lille,FR
48093677,75018,PARIS,FR
41216126,64000,PAU,FR
50803408,0,Choix,FR
12955701,17137,NIEUL SUR MER,FR
18341266,95000,CERGY,FR
68752111,95000,CERGY,FR
18137076,95540,MERY SUR OISE,FR
94476325,95300,PONTOISE,FR
10241374,64000,PAU,FR
80539535,92100,BOULOGNE BILLANCOURT,FR
16450207,95000,CERGY VILLAGE,FR
29534065,64121,MONTARDON,FR
85111639,13170,Les Pennes Mirabeau,FR
11891604,92200,NEUILLY SUR SEINE,FR
54295600,95014,OTHER,FR
87692000,64500,CIBOURE,FR
67785742,64000,PAU,FR
79778983,64000,Pau,FR
62917395,31100,toulouse,FR
94774489,91310,MONTLHERY,FR
20706950,92250,LA GARENNE COLOMBES,FR
61016650,34670,BAILLARGUES,FR
3233281,91120,PALAISEAU,FR
51430606,78600,LE MESNIL LE ROI,FR
71654564,64000,PAU,FR
69220159,95000,NEUVILLE SUR OISE,FR
11280785,0,OTHER,FR
77403497,75020,PARIS,FR
7504537,92400,Courbevoie,FR
92671766,92600,ASNIERES SUR SEINE,FR
74280780,69003,LYON,FR
15481897,95450,ABLEIGES,FR
12975701,0,OTHER,FR
38670184,95000,CERGY,FR
43360789,94800,VILLEJUIF,FR
40486618,92250,LA GARENNE COLOMBES,FR
81931323,78500,SARTROUVILLE,FR
35967334,75019,Paris,FR
48668017,95490,VAURAL,FR
81951347,95800,Cergy,FR
45281359,0,MEKNES,MA
12069637,67000,STRASBOURG,FR
498071,0,Edinburgh,GB
50342140,95800,CERGY LE HAUT,FR
66689723,0,Choix,FR
74766368,93800,EPINAY SUR SEINE,FR
3359090,0,OTHER,FR
78785634,0,OTHER,FR
88211098,95430,AUVERS SUR OISE,FR
35373368,95100,ARGENTEUIL,FR
22129794,92300,LEVALLOIS,FR
36055280,93110,ROSNY SOUS BOIS,FR
37188171,95100,Argenteuil,FR
3042762,0,OTHER,FR
99524282,92400,COURBEVOIE,FR
12870689,54750,TIEUX,FR
20023567,64000,PAU,FR
24236485,64400,OLORON SAINTE MARIE,FR
21136178,0,OTHER,FR
25845802,0,OTHER,FR
61423877,33400,TALENCE,FR
92417855,64000,PAU,FR
9958221,75014,PARIS,FR
19209719,75010,PARIS,FR
59810995,95100,ARGENTEUIL,FR
70020682,92220,BAGNEUX,FR
67042962,92763,ANTONY CEDEX,FR
47858936,95800,CERGY ST C,FR
2963617,0,OTHER,FR
69643347,93350,Le Bourget,FR
13067101,95800,Cergy,FR
91848619,95000,CERGY,FR
63415465,0,OTHER,FR
45116630,76230,BOIS GUILLAUME,FR
87396673,76840,HENOUVILLE,FR
35783017,24450,SBATA BEN M'SIK SIDI OTHMANE MAROC,FR
6592370,0,OTHER,FR
30216240,92320,CHATILLON,FR
59865662,95150,TAVERNY,FR
4593527,78430,LOUVECIENNES,FR
33410578,78510,TRIEL SUR SEINE,FR
13458777,75005,PARIS,FR
44692707,31490,LEGUEVIN,FR
95714527,0,OTHER,FR
73805062,0,OTHER,FR
28352585,31300,TOULOUSE,FR
32999267,42160,ANDREZIEUX BOUTHEON,FR
62906668,0,OTHER,FR
64496966,64290,GAN,FR
66332419,0,OTHER,FR
43355200,0,OTHER,FR
28385188,0,OTHER,FR
58626237,0,OTHER,FR
5168421,95370,MONTIGNY LES CORMEILLES,FR
64491077,92130,ISSY LES MOULINEAUX,FR
71880631,0,OTHER,FR
70518752,33127,Saint jean d'illac,FR
17385102,0,nanjing,CN
14548659,0,Hangzhou,CN
77729983,95800,CERGY,FR
73002436,17580,LE BOIS PLAGE,FR
91852733,0,OTHER,FR
80059717,0,OTHER,FR
98788832,91140,VILLEBON SUR YVETTE,FR
67246423,78260,ACHERES,FR
23451953,95520,OSNY,FR
72971188,79260,LA CRECHE,FR
9635130,92500,RUEIL MALMAISON,FR
29740522,0,COTONOU,BJ
72736350,0,OTHER,FR
24617093,78550,HOUDAN,FR
57647062,95610,ERAGNY,FR
34594954,64000,PAU,FR
70538508,64000,PAU,FR
57138405,64000,PAU,FR
66222917,78380,BOUGIVAL,FR
38310805,95000,NEUVILLE SUR OISE,FR
56216341,0,RAIPUR RANI PANCHKULA,IN
82116386,64230,LESCAR,FR
24307962,95300,PONTOISE,FR
36353100,95000,CERGY,FR
10398162,77240,SEINE PORT,FR
76244124,0,OTHER,FR
61589853,95290,L'ISLE ADAM,FR
74811767,97410,SAINT PIERRE,FR
77558176,75017,PARIS,FR
63729250,64000,PAU,FR
33934217,95000,CERGY,FR
62501731,0,OTHER,FR
1945332,92250,LA GARENNE COLOMBES,FR
13513001,95000,cergy,FR
79594805,64000,PAU,FR
22068973,97410,SAINT PIERRE,FR
39925379,95660,CHAMPAGNE SUR OISE,FR
3382360,78510,TRIEL SUR SEINE,FR
657001,64000,PAU,FR
36910729,0,OTHER,FR
17663895,0,OTHER,FR
5349658,65150,ST LAURENT DE NESTE,FR
3545584,95300,PONTOISE,FR
1088935,0,OTHER,FR
57616360,75013,PARIS,FR
20553730,0,OTHER,FR
99091919,64420,Artigueloutan,FR
36870927,95000,CERGY,FR
493605,75012,PARIS,FR
94608104,0,OTHER,FR
96937041,95000,CERGY,FR
61384761,91330,YERRES,FR
46607463,95011,CERGY,FR
96188592,31400,TOULOUSE,FR
6871852,77870,VULAINES,FR
27783263,0,OTHER,FR
90792782,95000,CERGY,FR
39319836,6300,NICE,FR
47814203,0,OTHER,FR
69410910,64370,ARTHEZ DE BEARN,FR
43788967,0,OTHER,FR
32723049,64170,SERRES SAINTE MARIE,FR
29748153,31500,TOULOUSE,FR
25397284,0,OTHER,FR
86484187,95150,Taverny,FR
89229934,92170,VANVES,FR
51809494,95390,SAINT  PRIX,FR
12661729,31470,SAINT LYS,FR
27999452,64320,LEE,FR
58304062,75004,PARIS 04EME ARRONDISSEMENT,FR
71505683,0,OTHER,FR
88202402,95160,MONTMORENCY,FR
62488061,95300,PONTOISE,FR
69768499,64000,Pau,FR
39399740,92210,SAINT CLOUD,FR
13832700,95220,Herblay,FR
2670116,82500,BEAUMONT DE LOMAGNE,FR
23399881,95000,CERGY,FR
73224026,0,OTHER,FR
10891766,13320,BOUC BEL AIR,FR
70852227,95290,L'ISLE ADAM,FR
58526894,95000,CERGY,FR
36196529,0,OTHER,FR
24165639,0,OTHER,FR
59917842,75013,PARIS,FR
40806068,75003,PARIS,FR
90284993,40100,Dax,FR
92738113,30300,Jonquieres Saint Vincent,FR
52832836,0,OTHER,FR
27409008,0,OTHER,FR
91479882,64000,PAU,FR
83714345,80000,AMIENS,FR
36105408,95550,BESSANCOURT,FR
30405153,92330,SCEAUX,FR
62308012,95000,NEUVILLE SUR OISE,FR
4148082,95000,CERGY,FR
94579591,64320,IDRON,FR
55355077,0,OTHER,FR
13750663,38100,GRENOBLE,FR
85615810,0,OTHER,FR
78857791,78570,CHANTELOUP LES VIGNES,FR
70597602,0,OTHER,FR
25073329,89100,MAILLOT,FR
62981665,95450,Thmricourt,FR
64376603,95000,cergy,FR
36336781,21270,BINGES,FR
75217461,94400,VITRY SUR SEINE,FR
49277577,78230,LE PECQ,FR
38675027,77330,Ozoir la Ferrire,FR
61645009,13090,AIX EN PROVENCE,FR
97846729,92500,RUEIL MALMAISON,FR
84010731,95300,PONTOISE,FR
93576548,0,"Ban Chomcheng, Sisattanak district",LA
3706809,95240,CORMEILLES EN PARISIS,FR
73529116,64800,PARDIES PIETAT,FR
20033146,0,OTHER,FR
18135396,0,Catania,IT
39317023,14000,CAEN,FR
16638942,78170,LA CELLE SAINT CLOUD,FR
43289377,95800,CERGY ST CHRISTOPHE,FR
96376073,95000,CERGY,FR
64104859,0,OTHER,FR
88709214,64990,VILLEFRANQUE,FR
33813695,94350,VILLIERS SUR MARNE,FR
92350483,10100,ROMILLY SUR SEINE,FR
57067652,75012,PARIS 12EME ARRONDISSEMENT,FR
25123576,95800,COURDIMANCHE,FR
53150402,92400,COURBEVOIE,FR
99448510,14490,LE TRONQUAY,FR
81527906,95000,CERGY,FR
93997482,95000,CERGY,FR
98297354,0,OTHER,FR
73873430,95000,CERGY,FR
35228830,45770,SARAN,FR
94863674,0,OTHER,FR
11413989,12630,GAGES MONTROZIER,FR
73443216,0,OTHER,FR
79506313,95370,MONTIGNY LES CORMEILLES,FR
20901945,75020,PARIS,FR
28960020,93000,TREMBLAY EN FRANCE,FR
54383122,95520,OSNY,FR
50679565,95610,ERAGNY,FR
11419739,95740,FREPILLON,FR
85056430,95280,JOUY LE MOUTIER,FR
9634524,78800,HOUILLES,FR
50438298,95000,CERGY,FR
80443408,95014,CERGY CEDEX,FR
43465104,95014,CERGY CEDEX,FR
11218533,95000,NEUVILLE SUR OISE,FR
98644452,0,OTHER,FR
10126736,95000,NEUVILLE SUR OISE,FR
49720669,78800,Houilles,FR
67567005,93130,NOISY LE SEC,FR
4411297,0,BAIYIN,CN
17423812,13014,MARSEILLE,FR
20049317,0,OTHER,FR
89500178,95160,MONTMORENCY,FR
89487182,92110,CLICHY,FR
74665970,92370,CHAVILLE,FR
30805483,78420,Carrires Sur Seine,FR
13585955,75015,PARIS 15EME ARRONDISSEME,FR
78393232,0,OTHER,FR
12548457,64230,SAUVAGNON,FR
96873839,95000,CERGY,FR
92710403,95000,Cergy,FR
95424719,0,OTHER,FR
67019764,0,OTHER,FR
83213121,95000,CERGY,FR
94431060,64110,JURANCON,FR
48993165,0,OTHER,FR
72518517,0,OTHER,FR
89996587,0,OTHER,FR
28058680,95450,ABLEIGES,FR
28345807,60000,BEAUVAIS,FR
83797225,0,OTHER,FR
73739381,0,95000,FR
39147513,93000,BOBIGNY,FR
14257102,95640,HARAVILLIERS,FR
35815587,0,OTHER,FR
68286184,78200,BUCHELAY,FR
23768029,75018,PARIS,FR
63277137,75018,PARIS 18EME ARRONDISSEMENT,FR
49169179,92700,COLOMBES,FR
49094911,64000,PAU,FR
98408778,95420,NUCOURT,FR
15721166,93190,LIVRY GARGAN,FR
93922746,95000,CERGY,FR
24729009,0,OTHER,FR
84350857,64000,PAU,FR
86079959,92310,SEVRES,FR
4248699,95800,CERGY,FR
93092267,78711,MANTES LA VILLE,FR
99295176,95000,CERGY,FR
41508476,0,OTHER,FR
51256960,91080,COURCOURONNES,FR
43389969,95000,PONTOISE,FR
6844458,95000,CERGY,FR
52076194,92260,FONTENAY AUX ROSES,FR
70634273,95370,MONTIGNY LES CORMEILLES,FR
4065584,95000,CERGY,FR
99431462,0,OTHER,FR
52961925,75014,PARIS,FR
33461692,38580,PINSOT,FR
39277211,0,CHIGAGO IL,US
26990259,0,OTHER,FR
93923961,75012,Paris,FR
23460050,95180,MENUCOURT,FR
6714518,0,OTHER,FR
18668398,0,OTHER,FR
53239399,75012,PARIS,FR
88335500,95490,VAUREAL,FR
13268207,95100,ARGENTEUIL,FR
52764320,0,OTHER,FR
23835149,0,OTHER,FR
79900394,78610,LE PERRAY EN YVELINES,FR
11994732,78570,Andresy,FR
94114397,95490,VAUREAL,FR
6471203,0,OTHER,FR
21602847,75012,PARIS,FR
77061260,95800,CERGY,FR
81504678,78260,ACHERES,FR
71268461,75020,PARIS 20EME ARRONDISSEMENT,FR
76305388,78110,LE VSINET,FR
93726236,78700,CONFLANS STE HONORINE,FR
90501640,64000,PAU,FR
23775478,64140,LONS,FR
33386556,75013,PARIS 13EME ARRONDISSEMENT,FR
34903137,0,OTHER,FR
80422000,93160,NOISY LE GRAND,FR
54431499,0,OTHER,FR
77804964,95370,MONTIGNY LES CORMEILLES,FR
38578975,0,OTHER,FR
67219026,95000,CERGY,FR
69277278,57070,METZ,FR
7563395,0,OTHER,FR
50758287,95000,CERGY,FR
57201098,91130,RIS ORANGIS,FR
72629228,95000,CERGY,FR
55809429,95450,La Villeneuve St Martin,FR
17077175,92370,CHAVILLE,FR
68960564,95000,CERGY,FR
82258246,64000,PAU,FR
37997215,95014,CERGY,FR
37115176,0,OTHER,FR
9915108,92150,SURESNES,FR
84149091,95450,SERAINCOURT,FR
5086999,0,OTHER,FR
93409573,38000,Grenoble,FR
47979678,0,OTHER,FR
72859807,60180,NOGENT SUR OISE,FR
20451229,92200,NEUILLY SUR SEINE,FR
88349135,0,OTHER,FR
23344655,0,OTHER,FR
46939661,95170,DEUIL LA BARRE,FR
97791818,34000,MONTPELLIER,FR
89933102,92100,BOULOGNE BILLANCOURT,FR
76737401,64000,Pau,FR
66848246,95610,ERAGNY,FR
74180347,93330,NEUILLY SUR MARNE,FR
7412259,92300,LEVALLOIS PERRET,FR
48355459,0,OTHER,FR
1265014,78110,LE VESINET,FR
45293492,0," RK Puram, New Delhi",IN
85887423,95000,CERGY,FR
22516677,95000,CERGY,FR
95898894,64000,Pau,FR
64026493,0,OTHER,FR
9965418,95490,VAUREAL,FR
96464377,92340,Bourg la reine,FR
35709822,64110,JURANCON,FR
29071907,75020,Paris,FR
63074961,31170,Tournefeuille,FR
88729448,0,OTHER,FR
59600061,0,OTHER,FR
14176436,95000,CERGY,FR
91419785,95000,CERGY,FR
55417553,0,OTHER,FR
81392386,34110,MIREVAL,FR
87135808,95000,CERGY,FR
38481319,0,OTHER,FR
96635283,95490,VAUREAL,FR
53837783,92300,LEVALLOIS PERRET,FR
23252271,78260,ACHERES,FR
3766655,94260,FRESNES,FR
1371160,65690,BARBAZAN DEBAT,FR
75596782,94700,MAISONS ALFORT,FR
28512078,95000,CERGY,FR
43956427,64510,BOEIL BEZING,FR
36125525,0,OTHER,FR
81743741,0,OTHER,FR
58170545,33000,BORDEAUX,FR
5556557,0,OTHER,FR
73894241,64000,Pau,FR
1102921,78250,MEULAN,FR
2964598,78740,VAUX SUR SEINE,FR
91477240,78260,ACHERES,FR
78157140,95300,PONTOISE,FR
2023708,34400,SAINT CRISTAL,FR
47080593,0,OTHER,FR
6379484,67590,SCHWEIGHOUSE,FR
19858914,0,OTHER,FR
34158905,93100,MONTREUIL,FR
56484533,95800,CERGY LE HAUT,FR
36709127,95450,Le Perchay,FR
32459868,12100,CREISSELS,FR
34627664,31810,CLERMONT LE FORT,FR
79768919,0,OTHER,FR
78762207,74330,SILLINGY,FR
28332047,95100,ARGENTEUIL,FR
84927626,0,OTHER,FR
28414421,64000,PAU,FR
73372685,0,OTHER,FR
20686030,60230,CHAMBLY,FR
97432617,31840,SEILH,FR
11178913,95260,BEAUCHAMP,FR
49726618,64000,PAU,FR
76861795,91700,SAINTE GENEVIEVE DES BOIS,FR
73805569,95000,CERGY VILLAGE,FR
29843850,95520,OSNY,FR
58642200,75017,PARIS,FR
77642636,57570,CATTENOM,FR
22197038,64000,PAU,FR
15521974,78160,MARLY LE ROI,FR
70358618,92220,BAGNEUX,FR
36812742,95300,ENNERY,FR
32036504,95000,CERGY,FR
54552201,75019,Paris,FR
66886589,95820,BRUYERES S/Oise,FR
61623768,0,OTHER,FR
61257028,95000,CERGY,FR
97799268,0,OTHER,FR
75276465,95290,L'ISLE ADAM,FR
15551291,76240,LE MESNIL ESNARD,FR
43620342,38000,GRENOBLE,FR
75190444,95000,CERGY,FR
29095152,95000,Cergy,FR
88465446,78930,GUERVILLE,FR
3021190,75007,PARIS,FR
82528861,75019,PARIS,FR
29703206,0,OTHER,FR
60524408,0,OTHER,FR
56926498,24350,LA CHAPELLE GONAGUET,FR
17329112,78400,CHATOU,FR
56811553,95000,CERGY,FR
79176359,0,OTHER,FR
69349457,75015,PARIS 15EME ARRONDISSEMENT,FR
55283174,86340,NOUAILLE MAUPERTUIS,FR
50756036,0,OTHER,FR
74908489,95220,HERBLAY,FR
32808447,0,OTHER,FR
50119440,94270,LE KREMLIN BICETRE,FR
55799776,0,OTHER,FR
24220745,78112,FOURQUEUX,FR
62602566,64000,PAU,FR
76738101,95220,HERBLAY,FR
56671655,0,OTHER,FR
66195407,0,OTHER,FR
11036734,0,OTHER,FR
3595716,0,OTHER,FR
94083636,78530,BUC,FR
95884691,78100,ST GERMAIN EN LAYE,FR
77568187,0,BRUXELLES,BR
54038672,95000,CERGY,FR
43883337,11000,CARCASSONNE,FR
28547968,64000,Pau,FR
3604865,0,OTHER,FR
2467836,71000,MACON,FR
9151476,75016,PARIS,FR
453808,0,OTHER,FR
93707772,3100,MONTLUCON,FR
79429823,0,OTHER,FR
37386203,75004,PARIS,FR
30732067,0,OTHER,FR
47172961,0,OTHER,FR
15453754,0,OTHER,FR
56818994,0,OTHER,FR
91546494,64150,NOGUERES,FR
70805148,92110,CLICHY,FR
21114654,95270,SAINT MARTIN DU TERTRE,FR
11721231,95800,CERGY,FR
64844949,60230,CHAMBLY,FR
4671641,64320,BIZANOS,FR
22686365,95660,CHAMPAGNE SUR OISE,FR
85844512,86000,POITIERS,FR
23859594,0,OTHER,FR
74537369,78340,LES CLAYES SOUS BOIS,FR
31948120,0,OTHER,FR
81746697,0,OTHER,FR
54657075,0,OTHER,FR
78786159,45800,SAINT JEAN DE BRAYE,FR
23178787,38080,L'Isle D'Abeau,FR
84350137,77181,COURTRY,FR
80589376,78420,CARRIERES SUR SEINE,FR
36567532,31500,Toulouse,FR
73586542,0,OTHER,FR
89072375,0,OTHER,FR
60531362,78270,LOMMOYE,FR
19796947,92600,ASNIRES SUR SEINE,FR
65963028,95420,BANTHELU,FR
79630166,77174,VILLENEUVE LE COMTE,FR
63057229,95000,NEUVILLE SUR OISE,FR
34712998,0,OTHER,FR
88142238,77580,GUERARD,FR
5640556,92800,PUTEAUXFrance,FR
79981406,44600,St Nazaire,FR
65573193,0,OTHER,FR
12618771,75017,PARIS,FR
15767239,95000,CERGY,FR
33407714,95000,CERGY,FR
97852754,92400,COURBEVOIE,FR
68392885,64000,PAU,FR
31040357,28700,LEVINVILLE,FR
15708374,0,Oran,DZ
26282080,94490,ORMESSON SUR MARNE,FR
79928148,97139,LES ABYMES,FR
19744286,0,OTHER,FR
52105556,95420,MAGNY EN VEXIN,FR
85986791,0,OTHER,FR
25630034,95000,CERGY,FR
83205042,95540,MERY SUR OISE,FR
82391024,78200,MAGNANVILLE,FR
25646623,64230,LESCAR,FR
93501612,0,OTHER,FR
81043183,0,OTHER,FR
30275305,0,OTHER,FR
53016365,0,OTHER,FR
26458579,7200,Aubenas,FR
91263428,33000,BORDEAUX,FR
66969907,75013,PARIS,FR
81416781,95320,SAINT LEU LA FORET,FR
36449160,95290,L'ISLE ADAM,FR
54603723,95150,TAVERNY,FR
5518145,75016,PARIS,FR
9256892,20620,BIGUGLIA,FR
17361786,78590,NOISY LE ROI,FR
44826356,20620,BIGUGLIA,FR
70244832,31100,TOULOUSE,FR
35305134,75020,PARIS,FR
1611752,31170,TOURNEFEUILLE,FR
57267307,75008,PARIS,FR
72390123,59254,GHYVELDE,FR
341005,92130,ISSY LES MOULINEAUX,FR
12787054,78200,MANTES LA JOLIE,FR
70365448,95250,BEAUCHAMP,FR
5068239,75009,PARIS,FR
3106936,64160,GABASTON,FR
4094423,0,OTHER,FR
32694933,33370,TRESSES,FR
22554323,95000,CERGY,FR
99216575,92270,BOIS COLOMBES,FR
72277417,0,OTHER,FR
42922386,0,OTHER,FR
45443569,0,OTHER,FR
59464641,13830,LA BEDOULE,FR
60673349,92150,SURESNES,FR
93332533,64000,PAU,FR
87729361,64520,BIDACHE,FR
14600817,75017,PARIS,FR
96903982,0,SFAX,TN
46951313,95520,OSNY,FR
46989974,30000,NIMES,FR
49067930,32350,LE BROUILH MONBERT,FR
70370961,38000,GRENOBLE,FR
38925858,0,OTHER,FR
7109646,78380,BOUGIVAL,FR
85754670,92300,LEVALLOIS PERRET,FR
75866711,95000,CERGY,FR
85953205,95000,CERGY,FR
61587213,83100,TOULON,FR
81539899,95100,ARGENTEUIL,FR
77011592,92600,Asnieres sur Seine,FR
24495679,95000,Cergy,FR
86327795,95800,CERGY,FR
38417087,78310,COIGNIERES,FR
53570489,0,OTHER,FR
87459261,38660,LE TOUVET,FR
28753557,64290,AUBERTIN,FR
97596034,94000,CRETEIL,FR
13738116,95300,PONTOISE,FR
52829627,95014,CERGY CEDEX,FR
52232940,95000,CERGY,FR
98735995,95000,CERGY,FR
34185813,0,OTHER,FR
12413476,0,ABIDJAN,CI
40881422,75019,PARIS,FR
97122508,75014,PARIS,FR
47936256,0,OTHER,FR
93247506,0,KEBILI,TN
23857708,94230,CACHAN,FR
14265768,78420,CARRIERES SUR SEINE,FR
91777668,78380,BOUGIVAL,FR
17234806,95800,CERGY,FR
84373063,33260,La Teste,FR
71982712,0,OTHER,FR
96193164,64000,PAU,FR
79499767,95800,COURDIMANCHE,FR
86095674,95300,PONTOISE,FR
88653764,0,OTHER,FR
56318652,95000,CERGY,FR
66655451,35150,JANZE,FR
84646833,60290,CAUFFRY,FR
81106014,0,OTHER,FR
57190610,95320,SAINT LEU LA FORT,FR
8882118,75014,PARIS,FR
37633661,0,Ariana,TN
25847907,92260,FONTENAY AUX ROSES,FR
30381647,0,OTHER,FR
74197125,92000,NANTERRE,FR
57060675,0,rades,TN
74411464,95000,CERGY,FR
46162160,64320,ARESSY,FR
39962301,0,Choix,FR
13336812,95000,CERGY,FR
31089796,0,OTHER,FR
59364788,93130,NOISY LE SEC,FR
87871395,54180,HEILLECOURT,FR
46190437,95000,CERGY,FR
18307218,95000,Cergy,FR
32173363,0,OTHER,FR
30967353,95000,CERGY,FR
20439,0,OTHER,FR
67644379,95000,CERGY,FR
3188011,92340,BOURG LA REINE,FR
45960276,0,OTHER,FR
53522611,95000,CERGY,FR
73204756,95800,CERGY,FR
3995446,0,OTHER,FR
72423469,0,OTHER,FR
27070851,95000,CERGY,FR
9889142,92130,ISSY LES MOULINEAUX,FR
54114712,40280,SAINT PIERRE DU MONT,FR
13400390,0,OTHER,FR
78702048,95140,GARGES LES GONESSE,FR
70928725,93800,EPINAY SUR SEINE,FR
61711745,94470,BOISSY ST LEGER,FR
89866600,78600,MAISONS LAFFITTE,FR
24583902,75016,PARIS 16EME ARRONDISSEMENT,FR
64567459,94270,LE KREMLIN BICTRE,FR
86610600,95750,CHARS,FR
97942096,95000,CERGY,FR
71533971,95000,PONTOISE,FR
94098416,77210,AVON,FR
33209807,92140,CLAMART,FR
37194520,95000,CERGY,FR
45355563,92230,GENNEVILLIERS,FR
51142455,93500,PANTIN,FR
5106200,76230,BOIS GUILLAUME,FR
30563500,94880,NOISEAU,FR
90289928,0,OTHER,FR
28366527,95120,ERMONT,FR
10467121,64000,PAU,FR
86116112,95130,FRANCONVILLE,FR
56298143,0,OTHER,FR
59506662,69009,LYON,FR
12615727,59130,LAMBERSART,FR
38169444,64000,PAU,FR
54310769,0,OTHER,FR
61186056,0,OTHER,FR
81305587,0,OTHER,FR
64704511,92380,GARCHES,FR
35737047,64160,MORLAAS,FR
84496359,11000,Carcassonne,FR
87597515,92270,Bois Colombes,FR
35762723,95600,EAUBONNE,FR
45340189,91300,MASSY,FR
7873905,95610,ERAGNY SUR OISE,FR
29828901,91320,WISSOUS,FR
37920713,60200,Compigne,FR
95657254,16300,CRITEUIL LA MAGDELEINE,FR
45975387,72230,ARNAGE,FR
85813491,0,OTHER,FR
17724409,92110,CLICHY,FR
12405633,0,MONT DORE,NC
65383169,95000,OTHER,FR
68161872,95840,VILLIERS ADAM,FR
45376001,0,buenos aires,AR
18786834,75017,PARIS,FR
8294210,57000,METZ,FR
76523776,64160,MAUCOR,FR
43812539,64160,MAUCOR,FR
1571283,74380,NANGY,FR
14462566,95300,PONTOISE,FR
58539582,95000,CERGY,FR
83368993,0,OTHER,FR
69395803,0,OTHER,FR
66730439,92400,COURBEVOIE,FR
51569833,95300,ENNERY,FR
33012817,95000,CERGY,FR
32114781,0,OTHER,FR
43017331,38700,LA TRONCHE,FR
54571111,92700,COLOMBES,FR
60320948,95000,CERGY,FR
49063818,95000,CERGY,FR
74208114,95300,PONTOISE,FR
33704820,60530,ERCUIS,FR
16874160,0,OTHER,FR
1972320,94100,ST MAUR DES FOSSES,FR
63038707,95000,Cergy,FR
75115231,95000,CERGY,FR
41012817,64000,PAU,FR
97117841,57200,SARREGUEMINES,FR
90919690,95620,PARMAIN,FR
48287908,95000,CERGY,FR
2695562,0,OTHER,FR
93749695,0,OTHER,FR
78628991,0,OTHER,FR
31492113,64000,PAU,FR
75084976,91270,VIGNEUX SUR SEINE,FR
67800871,95100,ARGENTEUIL,FR
89139502,75116,PARIS,FR
81981982,95170,DEUIL LA BARRE,FR
55882051,93270,SEVRAN,FR
75648621,95000,NEUVILLE SUR OISE,FR
39845169,95300,PONTOISE,FR
48073504,94300,VINCENNES,FR
5132850,0,OTHER,FR
51226797,92160,ANTONY,FR
39167348,95000,Cergy,FR
68775539,78400,CHATOU,FR
77454968,0,Choix,FR
50891235,0,OTHER,FR
84400011,95011,cergy,FR
98241660,95180,MENUCOURT,FR
44721072,59139,WATTIGNIES,FR
20183502,92390,VILLENEUVE LA GARENNE,FR
19518310,0,OTHER,FR
34598568,0,OTHER,FR
14377953,95000,CERGY,FR
28421875,94500,CHAMPIGNY SUR MARNE,FR
43277103,79220,GERMOND ROUVRE,FR
86388817,31400,TOULOUSE,FR
15904675,92000,NANTERRE,FR
99213899,0,OTHER,FR
24811684,94210,La Varenne Saint Hilaire,FR
46508100,95000,CERGY,FR
95320977,69260,CHARBONNIERES LES BAINS,FR
93091556,31170,TOURNEFEUILLE,FR
90031694,75016,PARIS,FR
58453969,95000,CERGY,FR
37196674,78260,ACHERES,FR
55869940,95000,Cerrgy,FR
33551815,64121,SERRES CASTET,FR
88894867,95000,CERGY,FR
7763401,78260,ACHERES,FR
82862499,75016,PARIS,FR
2644615,78000,VERSAILLES,FR
65453797,95000,CERGY,FR
290615,92310,SEVRES,FR
13375462,95000,CERGY PONTOISE,FR
2480359,78800,HOUILLES,FR
94329127,95600,EAUBONNE,FR
52863555,0,OTHER,FR
47438717,0,OTHER,FR
73356891,95250,BEAUCHAMP,FR
85733888,93120,LA COURNEUVE,FR
17301343,0,Esfahan,IR
10438000,78410,AUBERGENVILLE,FR
82886475,95220,HERBLAY,FR
17073513,95000,NEUVILLE SUR OISE,FR
22171571,95800,CERGY,FR
21906094,93320,LES PAVILLONS SOUS BOIS,FR
17880930,93240,STAINS,FR
90989651,95100,ARGENTEUIL,FR
67014770,95300,Pontoise,FR
13951186,95000,CERGY,FR
28490081,95300,PONTOISE,FR
51203028,95520,OSNY,FR
68740177,95480,PIERRELAYE,FR
29876862,0,WOUSTVILLER,FR
6527473,95800,CERGY LE HAUT,FR
42329523,92100,BOULOGNE BILLANCOURT,FR
7096738,95000,CERGY,FR
72719162,95014,CERGY PONTOISE,FR
57670407,95640,SANTEUIL,FR
85218369,95110,SANNOIS,FR
33753734,78430,LOUVECIENNES,FR
87044624,95000,CERGY,FR
63695456,75005,PARIS,FR
45011686,95150,TAVERNY,FR
33558963,95290,L'ISLE ADAM,FR
21998668,95000,Cergy,FR
28927695,95330,DOMONT,FR
67241506,92350,LE PLESSIS ROBINSON,FR
75860592,0,Choix,FR
16633994,95800,CERGY,FR
72122705,0,Jaspur,IN
33206018,0,OTHER,FR
9651899,95000,CERGY,FR
7698159,65190,BORDES,FR
63581612,0,OTHER,FR
17492548,95000,CERGY,FR
14997651,92700,COLOMBES,FR
7912624,59552,LAMBRES LEZ DOUAI,FR
49443619,59278,ESCAUTPONT,FR
4211443,59100,ROUBAIX,FR
69821125,59450,SIN LE NOBLE,FR
62041895,92400,COURBEVOIE,FR
40097895,0,OTHER,FR
76503577,0,OTHER,FR
12739361,95000,CERGY,FR
9172086,95000,CERGY,FR
7783320,95800,CERGY LE HAUT,FR
7387352,92100,BOULOGNE BILLANCOURT,FR
86094623,95000,Cergy,FR
60150765,95000,CERGY,FR
79547496,95270,LUZARCHES,FR
86617288,78100,SAINT GERMAIN EN LAYE,FR
34483342,0,OTHER,FR
37052347,95000,CERGY,FR
30745574,75007,PARIS,FR
50860305,75007,PARIS,FR
32436668,95100,ARGENTEUIL,FR
11814170,34170,CASTELMAN LE LEZ,FR
84315018,93130,NOISY LE SEC,FR
98032161,64000,PAU,FR
38540087,38100,GRENOBLE,FR
90003634,94140,ALFORTVILLE,FR
24195668,93270,SEVRAN,FR
76666668,75015,PARIS,FR
21649343,95180,MENUCOURT,FR
92071692,64000,PAU,FR
68695574,0,OTHER,FR
83737826,0,OTHER,FR
37789485,0,OTHER,FR
55971091,0,OTHER,FR
46540965,64000,PAU,FR
76917862,0,OTHER,FR
34761057,95000,CERGY,FR
97768300,64000,Pau,FR
61721946,93330,NEUILLY SUR MARNE,FR
46493095,64000,PAU,FR
96216710,64000,Pau,FR
71478775,92390,VILLENEUVE LA GARENNE,FR
52399037,95600,EAUBONNE,FR
19653586,95100,ARGENTEUIL,FR
82149432,97490,SAINTE CLOTILDE,FR
8475191,92700,COLOMBES,FR
53858794,78870,BAILLY,FR
10343933,2840,ATHIES SOUS LAON,FR
53686340,95800,CERGY ST CHRISTOPHE,FR
2868279,93600,AULNAY SOUS BOIS,FR
84066322,0,OTHER,FR
42088566,92000,Nanterre,FR
19512327,47110,Sainte Livrade sur Lot,FR
47896630,31240,SAINT JEAN,FR
15524709,75014,PARIS 14EME ARRONDISSEMENT,FR
53537737,30000,Nmes,FR
97916257,95000,CERGY,FR
73639287,0,OTHER,FR
80878110,64000,PAU,FR
91470467,95750,CHARS,FR
54113587,91000,EVRY,FR
8793469,64000,PAU,FR
60241404,64230,LESCAR,FR
50528846,47310,BRAX,FR
65143176,0,OTHER,FR
54324284,95360,MONTMAGNY,FR
84305212,40280,ST PIERRE DU MONT,FR
20855680,64400,OLORON STE MARIE,FR
57919065,95120,ERMONT,FR
41269442,92110,CLICHY,FR
33110382,92220,LA GARENNE COLOMBES,FR
30700051,78130,LES MUREAUX,FR
8531122,93220,GAGNY,FR
83144610,75014,PARIS 14EME ARRONDISSEMENT,FR
70513891,95000,CERGY,FR
14586100,20167,Alata,FR
20289360,0,OTHER,FR
38173812,64000,PAU,FR
8376095,94000,CRETEIL,FR
92226426,38000,GRENOBLE,FR
92871912,0,OTHER,FR
8261990,95011,CERGY,FR
18755234,31000,TOULOUSE,FR
41161670,92310,SEVRES,FR
39968322,95540,MERY SUR OISE,FR
84220282,75004,PARIS 04EME ARRONDISSEMENT,FR
37275563,75019,PARIS,FR
35705742,78180,Montigny le breutonneux,FR
29610378,95014,CERGY PONTOISE,FR
27419075,95220,HERBLAY,FR
68388329,64000,PAU,FR
88874644,95000,CERGY,FR
6561770,0,OTHER,FR
21963349,0,OTHER,FR
97021940,95150,TAVERNY,FR
61359886,0,NUEVA ANDALUCIA (marbella),ES
25803059,91270,VIGNEUX SUR SEINE,FR
36704249,64000,Pau,FR
40509266,91120,PALAISEAU,FR
40068497,0,OTHER,FR
49744632,40000,mont de marsan,FR
86969175,91140,VILLEBON SUR YVETTE,FR
41043984,95300,PONTOISE,FR
62217462,64000,PAU,FR
86012889,94300,VINCENNES,FR
54580212,92390,VILLENEUVE LA GARENNE,FR
56674665,95440,ECOUEN,FR
39801686,60000,BEAUVAIS,FR
86070441,35890,LAILLE,FR
23900803,0,OTHER,FR
45764163,0,OTHER,FR
90788169,95600,EAUBONNE,FR
81901276,67170,BRUMATH,FR
99633343,0,OUED ZEM,MA
32632137,95000,CERGY,FR
94081909,95000,CERGY,FR
93013750,57535,BRONVAUX,FR
97516966,95640,BREANCON,FR
86234587,95000,CERGY,FR
94753553,95000,CERGY,FR
81743358,75008,PARIS,FR
52693542,0,OTHER,FR
9730324,77090,COLLGIEN,FR
64480834,92200,Neuilly sur Seine,FR
63232790,95000,CERGY,FR
30132322,75011,PARIS 11EME ARRONDISSEMENT,FR
92059936,0,TUNIS,TN
34334180,95000,CERGY,FR
19848860,95870,BEZONS,FR
11023156,95640,SANTEUIL,FR
54654596,38000,GRENOBLE,FR
70033990,92600,ASNIERES,FR
25142987,95000,CERGY,FR
49420077,95800,CERGY,FR
54443888,78580,MAULE,FR
78884801,0,OTHER,FR
62842202,75019,PARIS 19EME ARRONDISSEMENT,FR
75429897,75011,PARIS,FR
80963355,78800,HOUILLES,FR
26038763,0,Choix,FR
8121085,95800,CERGY ST CHRISTOPHE,FR
83039726,64140,BILLERE,FR
26493912,64500,Saint Jean De Luz,FR
11511654,92300,LEVALLOIS PERRET,FR
27052418,0,OTHER,FR
1020466,0,OTHER,FR
82956552,75012,paris,FR
99575519,40090,Campagne,FR
19480315,64230,LESCAR,FR
83256527,77360,VAIRES SUR MARNE,FR
56113439,0,OTHER,FR
7546416,0,OTHER,FR
89397790,95300,PONTOISE,FR
50239588,95000,CERGY,FR
4549331,75011,PARIS,FR
12977422,76380,CANTELEU,FR
17101497,75013,PARIS,FR
33103920,92100,BOULOGNE BILLANCOURT,FR
96551640,0,OTHER,CM
5861748,95000,Cergy,FR
65603367,95000,CERGY,FR
11329261,95800,CERGY LE HAUT,FR
9835677,93350,LE BOURGET,FR
11213428,0,OTHER,FR
73320879,78500,Sartrouville,FR
208051,0,BRUXELLES,BR
69672970,33500,LIBOURNE,FR
44743477,78700,CONFLANS ST HONORINE,FR
75063240,95000,NEUVILLE SUR OISE,FR
13595492,95150,TAVERNY,FR
20120672,92600,ASNIERES SUR SEINE,FR
1134835,0,OTHER,FR
80556692,0,OTHER,FR
12728499,80000,AMIENS,FR
6265207,19200,SAINT EXUPERY LES ROCHES,FR
8795775,0,OTHER,FR
53714007,0,OTHER,FR
92686875,95600,EAUBONNE,FR
64056352,0,OTHER,FR
82713105,95000,CERGY,FR
13388849,95130,FRANCONVILLE,FR
48173375,70400,CHAMPEY,FR
41880595,95300,PONTOISE,FR
9246650,95000,Cergy Prefecture,FR
61262743,31180,Saint Gnis Bellevue,FR
59203925,95610,ERAGNY,FR
83011411,78250,GAILLON SUR MONTCIENT,FR
42244483,91220,BRETIGNY SUR ORGE,FR
82523996,0,OTHER,FR
50995529,64140,LONS,FR
84746548,92000,NANTERRE,FR
28445569,77600,BUSSY SAINT GEORGES,FR
86759157,95000,CERGY,FR
90799031,95150,TAVERNY,FR
37252191,92360,Meudon,FR
81441962,95000,CERGY,FR
83247776,95150,TAVERNY,FR
96166881,95800,CERGY,FR
56255130,78500,SARTROUVILLE,FR
14615958,75017,PARIS,FR
3077224,78700,CONFLANS SAINTE HONORINE,FR
710354,0,OTHER,FR
37007,0,OTHER,FR
95985025,95180,MENUCOURT,FR
62378645,95100,ARGENTEUIL,FR
16342190,34820,TEYRAN,FR
43111797,0,OTHER,FR
42926463,64000,PAU,FR
68605682,31150,BRUGUIERES,FR
95690526,77000,VAUX LE PENIL,FR
30490345,0,OTHER,FR
81277294,0,OTHER,FR
38432236,13600,La Ciotat,FR
15108397,0,OTHER,FR
26866111,95420,SAINT GERVAIS,FR
70533185,95000,Cergy,FR
92847087,64000,PAU,FR
53457911,75016,PARIS,FR
55844875,33510,ANDERNOS LES BAINS,FR
51203579,95300,ENNERY,FR
54419519,95000,CERGY,FR
73189045,75017,PARIS 17EME ARRONDISSEMENT,FR
61822397,0,OTHER,FR
4394523,95360,MONTMAGNY,FR
57372862,95170,DEUIL LA BARRE,FR
82576796,78112,FOURQUEUX,FR
63804468,76500,ORIVAL,FR
8895381,64000,PAU,FR
62520336,93250,VILLEMOMBLE,FR
10911432,93800,EPINAY SUR SEINE,FR
68329964,95370,MONTIGNY LES CORMEILLES,FR
95764098,75015,PARIS,FR
82750111,95220,HERBLAY,FR
9373874,95280,JOUY LE MOUTIER,FR
10552020,91160,LONGUMEAU,FR
58222785,0,OTHER,FR
52358446,75015,PARIS,FR
4189207,0,OTHER,FR
27809608,93310,LE PRE ST GERVAIS,FR
78701937,92200,NEUILLY SUR SEINE,FR
72734827,75019,PARIS 19EME ARRONDISSEMENT,FR
63801290,78500,SARTROUVILLE,FR
89427763,93410,VAUJOURS,FR
99854944,93700,DRANCY,FR
55311679,95420,MAGNY EN VEXIN,FR
57292342,75013,PARIS 13EME ARRONDISSEMENT,FR
83646118,0,Sant'Alfio,IT
90710101,0,OTHER,FR
37286837,95000,CERGY,FR
34451355,95014,CERGY Cedex,FR
50586400,95000,CERGY,FR
29444175,95000,BOISEMONT,FR
63938054,78400,CHATOU,FR
19010480,6000,NICE,FR
60450085,0,Cotonou,BJ
83287149,0,OTHER,FR
63841474,0,OTHER,FR
4880406,94240,L HAY LES ROSES,FR
24898981,78300,POISSY,FR
27253622,78500,SARTROUVILLE,FR
11441761,0,OTHER,FR
38690562,95000,CERGY,FR
33372387,31240,SAINT JEAN,FR
78440636,31280,DREMIL LAFAGE,FR
39864218,62700,BRUAY LA BUISSIERE,FR
91829313,0,OTHER,FR
96655019,75018,PARIS,FR
67466841,42160,BONSON,FR
31055317,0,OTHER,FR
98342792,75005,PARIS,FR
71549024,92130,ISSY LES MOULINEAUX,FR
26192738,95000,CERGY,FR
19646165,13011,MARSEILLE,FR
40631342,95000,CERGY,FR
54274462,94400,VITRY SUR SEINE,FR
28500724,78260,ACHERES,FR
19114739,0,OTHER,FR
88040640,0,OTHER,FR
48082962,0,OTHER,FR
19863633,95300,PONTOISE,FR
98255822,93140,BONDY,FR
59481780,95120,ERMONT,FR
91964510,95800,CERGY ST CHRISTOPHE,FR
74849485,95800,CERGY,FR
87340443,75019,PARIS 19EME ARRONDISSEMENT,FR
56214183,78740,VAUX SUR SEINE,FR
48053855,95800,CERGY ST CHRISTOPHE,FR
46591584,92120,MONTROUGE,FR
14254279,95801,CERGY,FR
35451000,64000,Pau,FR
85476405,78370,PLAISIR,FR
63800206,95380,LOUVRES,FR
42879767,95000,CERGY,FR
61181994,75009,PARIS,FR
57142573,87170,ISLE,FR
12599045,75015,PARIS,FR
55630603,11620,VILLEMOUSTAUSSOU,FR
86082782,75016,PARIS,FR
67321785,92700,COLOMBES,FR
86366995,92400,COURBEVOIE,FR
55635134,92600,ASNIERES SUR SEINE,FR
55195141,95000,Cergy,FR
16902839,0,SFAX,TN
56933001,95170,DEUIL LA BARRE,FR
75082696,95280,JOUY LE MOUTIER,FR
4860862,77340,PONTAULT COMBAULT,FR
57944899,95014,CERGY,FR
83052792,94100,SAINT MAUR DES FOSSES,FR
7051120,95800,CERGY,FR
8533047,95000,CERGY,FR
3150783,0,OTHER,FR
62097295,95000,CERGY,FR
64362185,0,OTHER,FR
16863491,0,OTHER,FR
2103106,64150,LAGOR,FR
98782203,31000,TOULOUSE,FR
94904744,0,OTHER,FR
81426241,0,OTHER,FR
25032221,95460,EZANVILLE,FR
54118496,95490,VAUREAL,FR
27280313,93100,MONTREUIL,FR
82131424,75012,PARIS,FR
31267047,92210,SAINT CLOUD,FR
73935083,75011,PARIS,FR
59524785,64000,PAU,FR
28691597,95430,AUVERS SUR OISE,FR
38791782,95000,Cergy,FR
75276767,0,OTHER,FR
26714124,0,CERGY,TR
21596248,95000,CERGY,FR
14867719,94270,LE KREMLIN BICTRE,FR
74749872,95000,CERGY,FR
43235781,78570,ANDRESY,FR
64985800,0,CERGY LE HAUT,BR
76796633,92110,CLICHY,FR
73338518,78100,ST GERMAIN EN LAYE,FR
64342641,76240,BONSECOURS,FR
49909409,64000,PAU,FR
57902277,95000,CERGY,FR
94391562,95000,CERGY,FR
64747229,0,OTHER,FR
51204636,75001,PARIS,FR
8688880,92500,RUEIL MALMAISON,FR
78616463,92270,BOIS COLOMBES,FR
52314490,64260,BIELLE,FR
87579510,31400,Toulouse,FR
62582409,95170,DEUIL LA BARRE,FR
37784511,95000,CERGY,FR
42608235,13008,MARSEILLE,FR
82174792,0,OTHER,FR
66717540,0,OTHER,FR
82910916,95600,EAUBONNE,FR
68214207,75015,PARIS,FR
98588832,64000,PAU,FR
60302078,78690,LES ESSARTS LE ROI,FR
15159919,78340,Les Clayes Sous Bois,FR
83886737,95100,ARGENTEUIL,FR
55694620,38200,VIENNE,FR
32209767,31770,COLOMIERS,FR
1796820,78200,MANTES LA JOLIE,FR
26457109,0,OTHER,FR
72812617,95000,CERGY,FR
57802664,0,OTHER,FR
50286900,0,OTHER,FR
73518846,64000,PAU,FR
79947415,80000,AMIENS,FR
35435813,60340,VILLERS SOUS ST LEU,FR
28704826,94130,NOGENT SUR MARNE,FR
66772899,0,OTHER,FR
60005382,95280,JOUY LE MOUTIER,FR
93173765,95800,CERGY ST CHRISTOPHE,FR
59651973,95000,CERGY,FR
32630877,0,OTHER,FR
33721099,59560,COMINES,FR
32734959,0,OTHER,FR
79594802,95800,CERGY,FR
69710935,78770,VILLIERS LE MAHIEU,FR
93849455,78440,GARGENVILLE,FR
11719594,64320,OUSSE,FR
2133020,78340,LES CLAYES SOUS BOIS,FR
10866389,95000,CERGY,FR
5509323,95290,L'ISLE ADAM,FR
58187682,0,OTHER,FR
94928330,95350,SAINT BRICE SOUS FORET,FR
20185080,0,MONTPELLIER,FR
75169797,30340,SALINDRES,FR
89909790,56000,VANNES,FR
27122518,13010,MARSEILLE,FR
20680420,75018,PARIS,FR
9006400,95000,CERGY,FR
75135337,95014,CERGY PONTOISE,FR
90799749,78520,LIMAY,FR
22722026,44700,ORVAULT,FR
15704940,0,OTHER,FR
44678461,95100,ARGENTEUIL,FR
38266075,95170,DEUIL LA BARRE,FR
31152051,95310,Saint ouen l'aumne,FR
44124692,95000,CERGY,FR
7321288,94550,CHEVILLY LARUE,FR
19087389,95000,CERGY,FR
47584892,75015,PARIS 15EME ARRONDISSEMENT,FR
55756173,95000,CERGY,FR
97436483,95800,CERGY LE HAUT,FR
75239111,0,OTHER,FR
15895892,95000,CERGY PONTOISE,FR
99452498,46100,FIGEAC,FR
62505718,0,OTHER,FR
37925142,95000,CERGY,FR
92438287,91300,MASSY,FR
72021672,95000,Cergy,FR
17292938,64000,PAU,FR
94753125,75015,PARIS,FR
61203942,0,OTHER,FR
90397449,95000,CERGY,FR
96725150,0,OTHER,FR
46642188,92410,VILLE D'AVRAY,FR
47982414,95000,Cergy le Haut,FR
47712453,78112,FOURQUEUX,FR
77409417,95000,NEUVILLE SUR OISE,FR
94199265,95270,VIARMES,FR
88953814,92160,ANTONY,FR
10571150,0,OTHER,FR
19504575,95110,SANNOIS,FR
89494924,64000,PAU,FR
75710321,63460,ARTONNE,FR
37852226,95640,MARINES,FR
97918047,75007,PARIS,FR
63782928,95014,CERGY CEDEX,FR
77845790,64000,PAU,FR
40056246,54150,BRIEY,FR
98682190,75013,PARIS,FR
17295827,91600,SAVIGNY SUR ORGE,FR
49605628,94600,CHOISY LE ROI,FR
9156077,92270,Bois Colombes,FR
77372130,78780,MAURECOURT,FR
26762280,95210,SAINT GRATIEN,FR
4961820,0,OTHER,FR
20693400,78130,LES MUREAUX,FR
32853472,93140,BONDY,FR
12623366,77100,MEAUX,FR
47191468,60110,MERU,FR
7202728,95520,OSNY,FR
21875643,95000,CERGY,FR
81884361,95220,HERBLAY,FR
99403848,95800,CERGY,FR
71860486,92600,ASNIRES SUR SEINE,FR
37441937,95300,PONTOISE,FR
70704439,95620,PARMAIN,FR
63417393,64320,idron,FR
22087878,95490,VAUREAL,FR
32465340,0,OTHER,FR
20105865,0,OTHER,FR
54695840,94600,CHOISY LE ROI,FR
26825862,93150,LE BLANC MESNIL,FR
8582313,93100,MONTREUIL,FR
23295214,34000,MONTPELLIER,FR
93608398,13015,MARSEILLE,FR
95354529,0,OTHER,FR
39022039,75015,PARIS,FR
93741681,95000,CERGY,FR
39508744,95320,SAINT LEU LA FORET,FR
61187908,0,OTHER,FR
55220968,95490,VAUREAL,FR
42043915,95600,Eaubonne,FR
81177748,0,OTHER,FR
94665068,77230,DAMMARTIN EN GOELE,FR
21515405,28700,Saint Lger Des Aubes,FR
66165761,73170,JONGIEUX,FR
11090849,95230,SOISY SOUS  MONTMORENCY,FR
29578621,95000,CERGY CEDEX,FR
59265553,0,OTHER,FR
95173881,75019,PARIS,FR
54915181,95000,CERGY,FR
99285059,75017,PARIS,FR
76083625,0,OTHER,FR
88357662,95530,LA FRETTE SUR SEINE,FR
82431635,0,OTHER,FR
56946511,0,OTHER,FR
60199363,75014,PARIS,FR
39127714,64000,Pau,FR
59940103,34140,BOUZIGUES,FR
30383387,0,OTHER,FR
83888792,78200,MANTES LA JOLIE,FR
32541630,75011,PARIS,FR
66882107,95000,Cergy,FR
7264503,0,OTHER,FR
40591040,64320,Le,FR
43214026,0,OTHER,FR
4510606,95800,CERGY,FR
16394169,0,OTHER,FR
20503960,0,OTHER,FR
44470563,75011,PARIS 11EME ARRONDISSEMENT,FR
81881307,78780,MAURECOURT,FR
88074439,78000,VERSAILLES,FR
54667280,78240,CHAMBOURCY,FR
28369216,75018,PARIS,FR
1867796,92700,COLOMBES,FR
43391047,0,OTHER,FR
48050122,95160,MONTMORENCY,FR
10494698,65500,VIC EN BIGORRE,FR
1439108,0,75018,FR
96707489,94800,VILLEJUIF,FR
65878320,13008,MARSEILLE,FR
18332573,64000,PAU,FR
21372937,95150,Taverny,FR
8548965,95120,ERMONT,FR
8463528,64000,PAU,FR
37127476,95000,CERGY,FR
83772372,31700,BLAGNAC,FR
68781674,78630,ORGEVAL,FR
62422926,64000,Pau,FR
53548501,29400,LANDIVISIAU,FR
25737916,0,OTHER,FR
22910831,6160,Juan les pins,FR
26283311,0,OTHER,FR
6390850,0,OTHER,FR
68452410,78700,CONFLANS STE HONORIN,FR
95812007,0,GREVENKNAPP,LU
85257940,95620,PARMAIN,FR
85688353,78800,HOUILLES,FR
11059237,0,nalgonda,IN
42019364,0,Cergy Cedex,CN
10636324,95000,Cergy,FR
92972156,64000,Pau,FR
17653060,95300,PONTOISE,FR
13932833,95300,PONTOISE,FR
23543097,0,OTHER,FR
56782975,93500,PANTIN,FR
42676107,94160,ST MANDE,FR
24133747,6000,NICE,FR
98852359,95800,CERGY LE HAUT,FR
83870742,95130,FRANCONVILLE,FR
53654000,0,CHOIX,FR
26077682,91350,GRIGNY,FR
57460286,95014,CERGY CEDEX,FR
81313039,78400,ISSOU,FR
38932351,95280,JOUY LE MOUTIER,FR
92352319,95280,JOUY LE MOUTIER,FR
69669105,27000,EVREUX,FR
50654479,95520,OSNY,FR
76046176,0,OTHER,FR
3013966,95870,BEZONS,FR
96762526,0,OTHER,FR
30248521,65100,LOURDES,FR
39304999,75116,PARIS,FR
46787270,75018,PARIS,FR
50861413,95200,SARCELLES,FR
50333717,95100,ARGENTEUIL,FR
83886445,0,OTHER,FR
39925220,95000,CERGY,FR
14057569,75017,PARIS,FR
12927031,75006,PARIS,FR
85410411,95800,CERGY,FR
58686445,95000,NEUVILLE SUR OISE,FR
3466853,92110,CLICHY,FR
19092167,0,OTHER,FR
10640322,95014,CERGY,FR
89421416,95014,CERGY CEDEX,FR
75115548,69800,ST PRIEST,FR
64049043,0,TIANJIN,CN
32682711,95310,ST OUEN L'AUMONE,FR
7315887,75020,PARIS,FR
20998218,95310,ST OUEN L AUMONE,FR
37426372,95280,JOUY LE MOUTIER,FR
94859356,0,GUANGZHOU,CN
19883212,0,OTHER,FR
34861540,0,Choix,FR
64670266,95000,CERGY,FR
15263150,13012,MARSEILLE,FR
95952415,0,SHANGHAI,FR
57045329,78780,MAURECOURT,FR
44498585,64000,PAU,FR
98825972,92250,LA GARENNE COLOMBES,FR
82020466,69004,LYON,FR
15936874,95000,NEUVILLE SUR OISE,FR
50364235,95000,CERGY,FR
88806634,0,OTHER,FR
61497736,93800,EPINAY SUR SEINE,FR
43305872,75017,PARIS,FR
1539506,78500,SARTROUVILLE,FR
53858052,95800,CERGY LE HAUT,FR
37600665,93700,DRANCY,FR
69710006,75014,PARIS 14EME ARRONDISSEMENT,FR
28086518,0,OTHER,FR
82820191,33970,Lge Cap Ferret,FR
2319212,91330,YERRES,FR
2962909,95000,CERGY,FR
64294321,75016,PARIS 16EME ARRONDISSEMENT,FR
15499098,95120,ERMONT,FR
32575834,93800,EPINAY SUR SEINE,FR
45362082,31100,TOULOUSE,FR
71615061,0,Abidjan,CI
99668205,95280,Juoy Le Moutier,FR
90667322,94370,SUCY EN BRIE,FR
88080850,78260,ACHERES,FR
70905532,94120,FONTENAY SOUS BOIS,FR
22897178,95000,CERGY,FR
31624067,95120,ERMONT,FR
94918786,0,OTHER,FR
54568147,0,OTHER,FR
42739685,75015,PARIS,FR
7906741,0,OTHER,FR
94832301,92400,COURBEVOIE,FR
82712417,95740,FREPILLON,FR
21945686,92200,NEUILLY SUR SEINE,FR
29994442,75016,PARIS 16EME ARRONDISSEME,FR
63291265,92000,Nanterre,FR
74217045,95310,ST OUEN L'AUMONE,FR
20184180,28000,CHARTRES,FR
46772725,95000,CERGY,FR
20631672,75013,PARIS,FR
64498373,75019,PARIS,FR
27022081,13009,MARSEILLE,FR
44825553,95000,Cergy,FR
92135560,78420,Carriere sur Seine,FR
15502902,95000,CERGY,FR
9635098,0,WUHAN,CN
23961126,95000,cergy pontoise,FR
1720693,95000,Cergy,FR
10358454,0,OTHER,FR
52459045,81370,ST SULPICE,FR
80223621,95014,CERGY CEDEX,FR
36285327,94220,CHARENTON LE PONT,FR
14931354,69500,BRON,FR
86619736,95000,CERGY PONTOISE,FR
45126179,75019,PARIS,FR
15404117,95300,PONTOISE,FR
21723149,75018,PARIS,FR
13644533,75017,PARIS,FR
10855660,0,OTHER,FR
4932382,0,OTHER,FR
31546318,95800,CERGY LE HAUT,FR
69404476,75116,Paris,FR
38138174,94350,VILLIERS SUR MARNE,FR
84251922,93320,LES PAVILLONS SOUS BOIS,FR
75803737,95300,PONTOISE,FR
67595106,95800,COURDIMANCHE,FR
33001271,0,OTHER,FR
2303562,0,OTHER,FR
3004371,64000,Pau,FR
49091936,95640,MARINES,FR
23594580,92600,ASNIERES,FR
28792693,75015,PARIS,FR
42521178,0,Bizerte,TN
77401386,0,OTHER,FR
37497642,0,Choix,FR
87117963,93380,Pierrefitte sur seine,FR
9303303,94140,ALFORTVILLE,FR
14628448,95000,CERGY,FR
89801543,95000,CERGY,FR
81263985,95000,CERGY VILLAGE,FR
75356222,57950,Montigny les Montigny,FR
11847688,75020,PARIS,FR
31204113,95270,Viarmes,FR
69499501,75014,PARIS 14EME ARRONDISSEMENT,FR
29359421,95340,PERSAN,FR
53032919,0,75018,FR
10236418,95300,PONTOISE,FR
4435567,93430,VILLETANEUSE,FR
35590218,93200,SAINT DENIS,FR
40850100,95000,Cergy St Christophe,FR
68223646,95100,ARGENTEUIL,FR
5763363,78710,ROSNY SUR SEINE,FR
89588655,95000,CERGY,FR
84910897,77360,VAIRES SUR MARNES,FR
4883594,95100,ARGENTEUIL,FR
40302110,0,OTHER,FR
94617186,0,OTHER,FR
77826823,64000,PAU,FR
94439121,64000,PAU,FR
58727033,83200,Le Revest Les Eaux,FR
47555706,93190,LIVRY GARGAN,FR
30513386,0,OTHER,FR
52879631,65100,LOURDES,FR
29860431,0,RIVIERE SALEE,MQ
17721263,75019,PARIS,FR
23403290,75002,PARIS,FR
24234656,95000,CERGY,FR
1248185,0,OTHER,FR
34927722,95800,CERGY LE HAUT,FR
96668101,75015,PARIS,FR
97079370,31860,PINS JUSTARET,FR
25492220,78500,SARTROUVILLE,FR
42059772,95014,CERGY,FR
74431882,64000,PAU,FR
60905738,72000,LE MANS,FR
22437395,5200,EMBRUN,FR
48374591,95000,CERGY,FR
88687487,0,OTHER,FR
11393956,95460,EZANVILLE,FR
8445206,64000,PAU,FR
1224917,92120,MONTROUGE,FR
8066924,59280,ARMENTIERES,FR
92593026,0,OTHER,FR
34002833,95000,CERGY,FR
28478173,95000,Cergy,FR
69094802,95000,CERGY,FR
37138364,64000,Pau,FR
55228209,0,OTHER,FR
31936763,91620,NOZAY,FR
5625235,64320,BIZANOS,FR
68030335,95000,CERGY,FR
62184153,95340,PERSAN,FR
20314928,92600,ASNIERES,FR
34143616,75017,PARIS,FR
5216653,95800,CERGY LE HAUT,FR
29568950,95000,CERGY,FR
54607402,0,OTHER,FR
93734156,0,OTHER,FR
30607605,75017,paris,FR
87960640,95000,Cergy,FR
6904519,78260,Achres,FR
1514937,60540,FOSSEUSE,FR
61082437,91280,SAINT PIERRE DU PERRAY,FR
82909871,64000,PAU,FR
42655528,95000,CERGY,FR
66669100,94250,GENTILLY,FR
12026051,0,OTHER,FR
33285488,93220,GAGNY,FR
93571080,92230,GENNEVILLIERS,FR
51696064,0,OTHER,FR
3062392,92200,NEUILLY SUR SEINE,FR
79051738,95420,MAGNY EN VEXIN,FR
2506045,81000,ALBI,FR
11100298,95000,CERGY,FR
92729865,0,95630,FR
76033878,95000,CERGY,FR
99608187,78610,LE PERRAY,FR
90017994,64160,BUROS,FR
85088639,0,95390,FR
49658025,45450,FAY AUX LOGES,FR
29028524,92170,VANVES,FR
92264990,13530,TRETS,FR
63432336,0,OTHER,FR
55242649,95650,MONTGEROULT,FR
30811717,64000,PAU,FR
2296023,0,OTHER,FR
55061169,8200,ILLY,FR
96667173,0,92300,FR
68166038,95000,NEUVILLE SUR OISE,FR
91513342,95170,DEUIL LA BARRE,FR
10398035,92270,BOIS COLOMBES,FR
55279109,95810,VALLANGOUJARD,FR
90202423,95300,PONTOISE,FR
72476392,0,OTHER,FR
91355076,78410,FLINS SUR SEINE,FR
43880443,75018,PARIS,FR
74736023,95031,NEUVILLE/OISE,FR
4619076,0,OTHER,FR
67288320,95880,ENGHIEN LES BAINS,FR
22049253,0,OTHER,FR
20790866,94490,ORMESSON SUR MARNE,FR
40200754,75010,Paris 10eme,FR
34279947,64000,Pau,FR
34442807,37540,SAINT CYR SUR LOIRE,FR
16725532,27830,NEAUFLES ST MARTIN,FR
60760200,95014,CERGY,FR
38218030,84600,Valras,FR
19923115,75013,PARIS,FR
24161610,64000,PAU,FR
90305290,78540,VERNOUILLET,FR
79226974,95000,CERGY,FR
83635925,0,OTHER,FR
85999146,0,OTHER,FR
94039940,64000,PAU,FR
43203289,0,OTHER,FR
37716235,95000,CERGY,FR
3810959,95300,PONTOISE,FR
16143607,95250,Beauchamp,FR
79577044,95000,CERGY,FR
10821566,92300,LEVALLOIS,FR
58182442,0,OTHER,FR
22424085,78540,VERNOUILLET,FR
88564597,95000,CERGY VILLAGE,FR
83773503,0,OTHER,FR
24172456,95000,CERGY,FR
94417467,3120,ANDELAROCHE,FR
22932182,64110,JURANCON,FR
77242067,0,OTHER,FR
15719373,95500,BONNEUIL EN FRANCE,FR
60018185,0,OTHER,FR
98083129,32000,AUCH,FR
20399053,0,OTHER,FR
30218748,0,OTHER,FR
19368586,95000,CERGY,FR
84100831,76230,BOIS GUILLAUME,FR
45754055,92800,PUTEAUX,FR
53025190,95014,CERGY,FR
1650367,33520,BRUGES,FR
75165764,75018,PARIS,FR
54973326,64000,PAU,FR
92601312,95000,CERGY,FR
34288143,64000,PAU,FR
80303097,92130,ISSY LES MOULINEAUX,FR
54165184,64160,BUROS,FR
85553282,64230,LESCAR,FR
53601324,0,Choix,FR
92995343,64510,DORDES,FR
94013381,31830,PLAISANCE DU TOUCH,FR
88619998,78120,RAMBOUILLET,FR
70932120,64000,Pau,FR
54702008,75015,PARIS   15,FR
32918465,95560,BAILLET EN FRANCE,FR
27043160,95000,Cergy,FR
55852917,64230,ARTIGUELOUVE,FR
5822756,64000,PAU,FR
44963321,64320,IDRON,FR
34618221,0,OTHER,FR
57212128,95800,CERGY,FR
11684874,60150,THOUROTTE,FR
32444904,0,OTHER,FR
20778385,0,OTHER,FR
36301160,75019,PARIS,FR
40322167,34980,MONTFERRIER SUR LEZ,FR
54380358,95300,PONTOISE,FR
9673876,64110,GELOS,FR
63327805,0,OTHER,FR
29389979,64000,PAU,FR
39024336,95000,CERGY,FR
95690306,0,OTHER,FR
18369053,45100,Orlans,FR
92689560,92200,NEUILLY SUR SEINE,FR
96412269,92150,SURESNES,FR
50431749,64000,Pau,FR
59880141,92400,COURBEVOIE,FR
64986749,38000,GRENOBLE,FR
43735724,78500,SARTROUVILLE,FR
76025408,95800,CERGY SAINT CHRISTOPHE,FR
81559940,78700,CONFLANS,FR
77786884,95000,CERGY,FR
12792454,92200,NEUILLY SUR SEINE,FR
65349587,75017,PARIS,FR
77634189,0,OTHER,FR
10160533,95000,NEUVILLE SUR OISE,FR
42762532,95000,CERGY,FR
15871102,78500,SARTROUVILLE,FR
3905885,92100,BOULOGNE BILLANCOURT,FR
65362373,95800,CERGY,FR
64836969,17100,BUSSAC SUR CHARENTE,FR
76580713,95000,CERGY,FR
95785704,95000,NEUVILLE SUR OISE,FR
78198958,64000,PAU,FR
73803573,77500,CHELLES,FR
37951525,95800,CERGY ST CHRISTOPHE,FR
15487931,0,OTHER,FR
9353684,0,OTHER,FR
2275188,60200,COMPIEGNE,FR
97615947,93200,SAINT DENIS,FR
9693076,0,OTHER,FR
93189519,91450,SOISY SUR SEINE,FR
81243588,75017,PARIS 17EME ARRONDISSEMENT,FR
71970376,95000,CERGY,FR
85684903,64000,Pau,FR
90425650,95320,SAINT LEU LA FORET,FR
39051747,78700,CONFLANS STE HONORINE,FR
30812261,95480,PIERRELAYE,FR
19688757,75014,PARIS,FR
76654188,92100,BOULOGNE BILLANCOURT,FR
3068568,31120,GOYRANS,FR
37412857,85660,ST PHILBERT DE BOUAINE,FR
83609639,95520,OSNY,FR
57755774,64140,LONS,FR
99967807,92600,ASNIERES SUR SEINE,FR
34846317,78440,GARGENVILLE,FR
21845406,0,OTHER,FR
75207436,95000,CERGY le Port,FR
36649486,95000,CERGY,FR
40207044,77700,MAGNY LE HONGRE,FR
5684541,95300,PONTOISE,FR
19217326,64000,Pau,FR
86254588,64320,BIZANOS,FR
59113509,95000,CERGY,FR
7588937,95810,VALLANGOUJARD,FR
12827909,95490,VAUREAL,FR
33641831,95000,CERGY,FR
33856983,64000,PAU,FR
2043244,0,OTHER,FR
98687456,95000,Cergy,FR
48047696,94490,ORMESSON SUR MARNE,FR
69573216,25550,BAVANS,FR
58176267,64000,PAU,FR
24979312,0,OTHER,FR
47995784,0,OTHER,FR
67244843,33700,MERIGNAC,FR
68212534,74440,MIEUSSY,FR
51844199,95000,CERGY,FR
96161846,77330,OZOIR LA FERRIERE,FR
97322945,92300,LEVALLOIS,FR
86814720,0,94120,FR
45831099,34070,MONTPELLIER,FR
53283958,57280,MAIZIERES LES METZ,FR
87515523,95300,PONTOISE,FR
23118147,64000,PAU,FR
64804775,95240,CORMEILLES EN PARISIS,FR
11427030,54500,VANDOEUVRE,FR
17631109,95014,CERGY,FR
53406394,95014,CERGY,FR
10453060,95320,SAINT LEU LA FORET,FR
78158569,92400,COURBEVOIE,FR
21172471,95480,PIERRELAYE,FR
28571009,64000,PAU,FR
88529774,95360,MONTMAGNY,FR
56729456,92310,SEVRES,FR
17282012,0,Choix,FR
6017428,0,OTHER,FR
14885419,0,OTHER,FR
5827359,78600,LE MESNIL LE ROI,FR
87728146,85400,LUON,FR
89113106,78200,MANTES LA JOLIE,FR
87099442,31170,TOURNEFEUILLE,FR
385476,95000,CERGY,FR
77865023,0,OTHER,FR
1633500,92410,VILLE D AVRAY,FR
51064350,40240,SAINT JUSTIN,FR
4657700,95430,BUTRY SUR OISE,FR
51822173,75015,PARIS,FR
9599973,0,OTHER,FR
96129653,0,OTHER,FR
32169262,0,OTHER,FR
8660126,0,OTHER,FR
21038535,95014,CERGY,FR
89933444,0,OTHER,FR
27722568,95370,MONTIGNY LS CORMEILLES,FR
28802687,33000,BORDEAUX,FR
84022101,78290,CROISSY SUR SEINE,FR
97681616,95000,CERGY,FR
76744617,64000,Pau,FR
60995330,75017,PARIS 17EME ARRONDISSEMENT,FR
23280968,0,OTHER,FR
11800400,0,OTHER,FR
55029453,0,OTHER,FR
30614252,93160,NOISY LE GRAND,FR
87217230,0,KPEME,TG
4777152,95150,TAVERNY,FR
86855227,0,OTHER,FR
64193694,77700,SERRIS,FR
39864729,0,OTHER,FR
53823142,95490,VAUREAL,FR
54972989,95230,Soisy Sous Montmorency,FR
57325640,13590,MEYREUIL,FR
38943641,95310,ST OUEN L'AUMONE,FR
96547322,95000,Cergy,FR
75187968,94360,BRY SUR MARNE,FR
88448219,0,OTHER,FR
96895449,95450,VIGNY,FR
57941657,77090,COLLEGIEN,FR
39337696,0,OTHER,FR
32718119,91390,MORSANG S/ORGE,FR
60934428,0,OTHER,FR
43596291,0,OTHER,FR
26291234,92190,MEUDON,FR
74444928,0,OTHER,FR
386504,0,OTHER,FR
5881136,75002,Paris,FR
49975157,0,OTHER,FR
12593110,0,Choix,FR
86211391,59780,WILLEMS,FR
33474073,90000,Belfort,FR
78277341,95490,VAUREAL,FR
29298395,95260,BEAUMONT SUR OISE,FR
26685817,0,OTHER,FR
60856811,0,NABEUL,TN
18342398,95014,CERGY CEDEX,FR
76330336,95800,CERGY ST CHRISTOPHE,FR
91876594,75010,PARIS,FR
87240703,77230,DAMMARTIN EN GOELE,FR
42058717,75004,PARIS,FR
41498228,95610,ERAGNY,FR
4887492,92150,Suresnes,FR
59630688,75014,PARIS,FR
9147813,0,OTHER,FR
48543614,92800,PUTEAUX,FR
92676974,0,OTHER,FR
7357230,27400,HEUDREVILLE / EURE,FR
97108344,0,OTHER,FR
17933983,92000,NANTERRE,FR
47875101,0,Saint Laurent du Maroni,GF
67060263,47300,VILLENEUVE SUR LOT,FR
61520805,92400,Courbevoie,FR
44956529,95650,PUISEUX PONTOISE,FR
41277907,92600,ASNIERES SUR SEINE,FR
3035851,93130,NOISY LE SEC,FR
35440257,95000,CERGY,FR
23667471,95000,CERGY,FR
17681535,95480,PIERRELAYE,FR
5004610,0,OTHER,FR
43207360,78820,JUZIERES,FR
73428621,13821,LA PENNE SUR HUVEAUNE,FR
38251224,95800,CERGY LE HAUT,FR
65132568,95011,CERGY,FR
93492088,0,OTHER,FR
66550545,93380,PIERREFITTE,FR
14679953,94270,LE KREMLIN BICTRE,FR
73315385,77120,COULOMMIERS,FR
33655976,95300,PONTOISE,FR
30820235,0,OTHER,FR
83788024,97490,SAINTE CLOTILDE,FR
17246685,95520,OSNY,FR
29946447,95800,CERGY LE HAUT,FR
1782940,57000,METZ,FR
17572345,0,OTHER,FR
48485508,78430,LOUVECIENNES,FR
81261732,91740,PUSSAY,FR
53611403,57540,PETITE ROSSELLE,FR
50953520,95800,CERGY,FR
23399578,75011,PARIS,FR
92378910,0,OTHER,FR
48261603,0,OTHER,FR
72941398,0,OTHER,FR
11495962,92700,COLOMBES,FR
57549638,95000,CERGY,FR
27489298,0,OTHER,FR
36509923,0,OTHER,FR
13717598,95620,PARMAIN,FR
52965864,64320,OUSSE,FR
44367351,45000,ORLEANS,FR
65861420,64000,PAU,FR
61549757,93160,NOISY LE GRAND,FR
49758957,95450,COMMENY,FR
30127818,29860,KERSAINT PLABENNEC,FR
52373271,0,OTHER,FR
35550805,67140,ANDLAU,FR
8048773,95220,HERBLAY,FR
19567444,0,OTHER,FR
32946073,33110,LE BOUSCAT,FR
42803788,0,OTHER,FR
79363848,91440,BURES SUR YVETTE,FR
76464999,0,OTHER,FR
24603915,94700,MAISONS ALFORT,FR
27054791,95660,CHAMPAGNE SUR OISE,FR
19716923,28350,SAINT LUBIN DES JONCHERETS,FR
65447445,97200,FORT DE FRANCE,FR
15545771,95000,CERGY,FR
42782537,45130,HUISSEAU SUR MAUVES,FR
98567931,0,OTHER,FR
92231426,93110,ROSNY SOUS BOIS,FR
26435428,92150,SURESNES,FR
27819167,0,OTHER,FR
71929073,0,OTHER,FR
90622932,64000,PAU,FR
16500571,92400,COURBEVOIE,FR
756998,0,OTHER,FR
917919,0,OTHER,FR
74761147,40800,AIRE SUR ADOUR,FR
78850165,95014,Cergy Pontoise,FR
46457952,0,OTHER,FR
10917896,0,OTHER,FR
80541372,33470,GUJAN MESTRAS,FR
34865142,64110,JURANCON,FR
83414932,95250,BEAUCHAMP,FR
60948052,0,OTHER,FR
36161295,0,OTHER,FR
52797489,0,OTHER,FR
37995219,92250,LA GARENNE COLOMBES,FR
21350383,38000,GRENOBLE,FR
50518417,92400,Courbevoie,FR
91289295,65000,TARBES,FR
60625579,93380,Pierrefitte sur Seine,FR
30076401,95000,Cergy,FR
75557434,0,Choix,FR
50454368,0,OTHER,FR
12095833,95000,CERGY,FR
13709048,72200,la flche,FR
88487168,95270,LUZARCHES,FR
54278499,64140,LONS,FR
56117569,64000,Pau,FR
19720724,0,OTHER,FR
62945350,0,OTHER,FR
41536764,64000,Pau,FR
24894937,0,OTHER,FR
34990282,95180,MENUCOURT,FR
82361990,41100,Villerable,FR
62306754,75008,Paris,FR
50676875,95000,CERGY,FR
4888965,75008,PARIS,FR
31223436,95000,Cergy,FR
82008756,0,india,IN
18966668,0,OTHER,FR
108815,31320,Aureville,FR
67811215,38240,MEYLAN,FR
26218720,78600,Le Mesnil Le Roi,FR
40311900,0,OTHER,FR
12626294,31700,BLAGNAC,FR
77401403,95560,BAILLET EN FRANCE,FR
65050009,92500,RUEIL MALMAISON,FR
41067305,0,OTHER,FR
15965862,0,OTHER,FR
6835065,78590,NOISY LE ROI,FR
3408117,78430,LOUVECIENNES,FR
28644332,91000,EVRY,FR
67788860,78700,CONFLANS STE HONORINE,FR
76889795,92290,CHTENAY MALABRY,FR
39914999,0,OTHER,FR
85638120,0,95000,FR
471093,64230,LESCAR,FR
70779069,0,OTHER,FR
56874566,78570,ANDRESY,FR
20638642,0,OTHER,FR
37706497,64000,PAU,FR
20386930,0,OTHER,FR
71352888,75016,PARIS,FR
45908177,92130,ISSY LES MOULINEAUX,FR
62903362,17000,LA ROCHELLE,FR
97171896,59171,HELESMES,FR
34091807,95300,ENNERY,FR
65837016,95014,CERGY,FR
67384730,64110,GELOS,FR
34806245,95800,COURDIMANCHE,FR
56961887,95520,OSNY,FR
21459197,29810,PLOUARZEL,FR
18329632,92800,PUTEAUX,FR
17508015,75018,PARIS,FR
937479,78170,LA CELLE ST CLOUD,FR
42702694,91000,EVRY,FR
52958837,95800,CERGY,FR
15504377,95000,Libreville,FR
53163137,95000,CERGY,FR
29674909,93430,VILLETANEUSE,FR
95322232,95220,HERBLAY,FR
57686615,0,OTHER,FR
84761900,95000,CERGY,FR
87509584,75002,PARIS,FR
39835146,91230,MONTGERON,FR
81451762,78210,ST CYR L'ECOLE,FR
10533057,95290,L'ISLE ADAM,FR
14100381,0,OTHER,FR
53141059,0,OTHER,FR
19181321,95800,CERGY,FR
71315517,0,SAN MARTIN DE PORRES   LIMA,PE
42595460,49300,CHOLET,FR
51610365,0,OTHER,FR
53361644,78370,PLAISIR,FR
64874845,75006,PARIS,FR
63012176,95430,AUVERS SUR OISE,FR
64983110,0,Abidjan,CI
60310527,45770,SARAN,FR
6148915,64000,PAU,FR
80011023,78500,SARTROUVILLE,FR
12207648,94100,SAINT MAUR,FR
22011896,31100,TOULOUSE,FR
62526501,33130,Bgles,FR
34295493,93320,ST LEU LA FORET,FR
24343079,64140,LONS,FR
4345595,95000,CERGY PONTOISE,FR
71347025,0,OTHER,FR
20747697,0,OTHER,FR
92394172,94140,ALFORTVILLE,FR
93078135,95490,VAUREAL,FR
15313030,78100,ST GERMAIN EN LAYE,FR
74432331,0,OTHER,FR
28465684,75014,PARIS,FR
41636467,77000,MELUN,FR
8148226,95000,Cergy,FR
77541641,0,OTHER,FR
1838692,0,OTHER,FR
81885944,92500,Rueil Malmaison,FR
60008558,92300,LEVALLOIS,FR
16044421,0,OTHER,FR
16353216,95300,PONTOISE,FR
5407324,78920,ECQUEVILLY,FR
8432476,95660,CHAMPAGNE SUR OISE,FR
18995095,92140,CLAMART,FR
88167888,95580,ANDILLY,FR
21836732,75020,PARIS,FR
84471372,0,OTHER,FR
83312741,95100,ARGENTEUIL,FR
77818541,0,Tehran,IR
7086393,0,OTHER,FR
22713717,0,OTHER,FR
65166483,0,OTHER,FR
37516273,95000,CERGY,FR
15689638,71220,SUIN,FR
63970401,0,OTHER,FR
19665311,95000,Cergy,FR
62032209,0,OTHER,FR
56108926,95800,CERGY,FR
8257280,0,OTHER,FR
32229317,64000,Pau,FR
74529897,33160,SAINT MEDARD EN JALLES,FR
25846086,94160,ST MANDE,FR
88532711,94320,THIAIS,FR
81606742,0,OTHER,FR
60817786,95420,MAGNY EN VEXIN,FR
79463742,75018,PARIS,FR
20137102,75010,PARIS,FR
53449056,0,OTHER,FR
35247588,64000,PAU,FR
24883403,95014,CERGY CEDEX,FR
79056596,13800,ISTRES,FR
81336326,0,OTHER,FR
65717849,0,BUJUMBURA,BI
14581390,75020,PARIS 20EME ARRONDISSEMENT,FR
99006117,95200,SARCELLES,FR
375535,0,OTHER,FR
43848627,75018,PARIS,FR
46997874,95000,CERGY,FR
17608234,95540,MRY SUR OISE,FR
2161620,95100,Argenteuil,FR
11431987,6000,NICE,FR
94060741,59600,MAUBEUGE,FR
85914179,64160,SERRES MORLAAS,FR
29910444,33170,MASSY,FR
8767773,94000,CRETEIL,FR
79283430,78550,HOUDAN,FR
94097641,95000,CERGY,FR
90497891,64000,PAU,FR
97745391,0,SIDI BOU SAID,TN
16405505,95800,CERGY ST CHRISTOPHE,FR
9770959,64230,CAUBIOS LOOS,FR
76368589,78150,LE CHESNAY,FR
7732031,95240,CORMEILLES EN PARISIS,FR
48541269,64000,Pau,FR
97651161,82100,CASTELSARRASIN,FR
77171001,108,75017,FR
84871064,95130,FRANCONVILLE,FR
28569577,75014,PARIS,FR
72444151,75010,PARIS 10EME ARRONDISSEMENT,FR
23415476,97423,LE GUILLAUME SAINT PAUL,FR
46720134,75002,PARIS,FR
63527968,95130,FRANCONVILLE,FR
64649067,92120,MONTROUGE,FR
43536390,64360,TARSACQ,FR
21667782,65350,MARSEILLAN,FR
21719834,0,OTHER,FR
65542018,77140,NEMOURS,FR
81364899,78170,LA CELLE ST CLOUD,FR
62687511,0,OTHER,FR
81578635,95000,CERGY,FR
21826930,95300,PONTOISE,FR
73464195,95300,Pontoise,FR
50169667,64000,PAU,FR
94171458,31770,COLOMIERS,FR
62139761,64000,PAU,FR
83297670,75017,PARIS,FR
5129516,95320,Saint Leu La Foret,FR
82630353,75017,PARIS 17EME ARRONDISSEMENT,FR
72104633,77220,GRETZ ARMAINVILLIERS,FR
58563177,0,OTHER,FR
95869246,60730,ULLY SAINT GEORGES,FR
29908059,95520,OSNY,FR
29817645,0,OTHER,FR
42979618,93130,NOISY LE SEC,FR
73424671,95800,Cergy le haut,FR
76707757,59380,STEENE,FR
58507327,0,OTHER,FR
50588914,0,OTHER,FR
43150966,0,OTHER,FR
71450268,0,OTHER,FR
23791010,31000,TOULOUSE,FR
90568760,0,OTHER,FR
10525842,0,OTHER,FR
82257300,95000,CERGY,FR
45698009,0,OTHER,FR
33099768,94440,Villecresnes,FR
15780575,93600,AULNAY SOUS BOIS,FR
51456197,92400,COURBEVOIE,FR
11275343,78690,SAINT REMY L'HONORE,FR
71455284,95300,Pontoise,FR
60862065,64000,PAU,FR
15924572,64000,PAU,FR
63962086,0,OTHER,FR
47915059,0,OTHER,FR
10576963,0,OTHER,FR
71910718,0,OTHER,FR
59666258,95000,CERGY,FR
12861546,78420,CARRIERES SUR SEINE,FR
31171622,64110,JURANCON,FR
69755794,60730,CAUVIGNY,FR
35734179,78000,VERSAILLES,FR
80740310,94120,FONTENAY SOUS BOIS,FR
58477635,0,OTHER,FR
2261796,93290,TREMBLAY EN FRANCE,FR
66395092,75012,PARIS,FR
20144805,0,OTHER,FR
40235725,92400,Courbevoie,FR
23156394,75020,PARIS,FR
94125303,0,OTHER,FR
64818747,0,OTHER,FR
93170101,78960,VOISINS LE BRETONNEUX,FR
89333027,67200,STRASBOURG,FR
71933658,0,OTHER,FR
73213352,0,OTHER,FR
63835935,95390,St Prix,FR
67524939,0,OTHER,FR
6563963,0,OTHER,FR
65950242,0,OTHER,FR
45627655,92500,RUEIL MALMAISON,FR
73415103,95520,OSNY,FR
54752953,95000,CERGY,FR
65991580,77600,BUSSY SAINT GEORGES,FR
98554924,78200,MANTES LA JOLIE,FR
36066719,0,OTHER,FR
6478236,0,OTHER,FR
6446209,95300,PONTOISE,FR
1818777,0,OTHER,FR
89483902,95100,ARGENTEUIL,FR
4596293,33120,ARCACHON,FR
46463551,95000,NEUVILLE SUR OISE,FR
94241505,0,OTHER,FR
31329224,95120,ERMONT,FR
1628600,95300,PONTOISE,FR
73712062,0,OTHER,FR
90186101,95000,Cergy,FR
10713564,95470,SAINT WITZ,FR
50761567,0,OTHER,FR
5413694,95230,SOISY SOUS MONTMORENCY,FR
39823312,65200,BAGNERES DE BIGORRE,FR
97918514,95000,CERGY,FR
8950676,92230,GENNEVILLIERS,FR
40789223,0,OTHER,FR
83209001,95320,ST LEU LA FORET,FR
44668636,95000,CERGY,FR
24698000,95610,ERAGNY,FR
83449509,95000,CERGY,FR
70526048,95800,CERGY,FR
13865300,75005,PARIS,FR
56204617,95490,VAUREAL,FR
45325821,78250,Meulan,FR
14419212,64110,MAZERES LEZONS,FR
78853125,0,OTHER,FR
29726546,78700,CONFLANS STE HONORINE,FR
5822513,64140,LONS,FR
42212414,92800,PUTEAUX,FR
87186519,74240,GAILLARD,FR
60296411,95870,BEZONS,FR
91745697,77100,NANTEUIL LES MEAUX,FR
22236255,0,OTHER,FR
24741097,64000,PAU,FR
86699276,0,OTHER,FR
17397898,95014,CERGY PONTOISE,FR
25454527,78000,VERSAILLES,FR
66447346,92700,COLOMBES,FR
66882163,64230,MAZEROLLES,FR
79519128,95000,CERGY,FR
82647222,83000,TOULON,FR
23974919,0,OTHER,FR
69249629,94800,VILLEJUIF,FR
7348251,78540,VERNOUILLET,FR
4482477,95450,VIGNY,FR
74900917,2200,SOISSONS,FR
86416877,0,BAMAKO,ML
56624104,0,OTHER,FR
99421588,68390,SAUSHEIM,FR
90689580,0,OTHER,FR
82004433,92500,RUEIL MALMAISON,FR
6592767,95000,CERGY,FR
20343535,0,OTHER,FR
62650825,0,OTHER,FR
47144598,90000,BELFORT,FR
3903114,0,OTHER,FR
34694287,0,Astrakhan,RU
34322838,95130,FRANCONVILLE,FR
52286063,94140,ALFORTVILLE,FR
36453918,78800,HOUILLES,FR
18515743,0,OTHER,FR
61925010,95800,COURDIMANCHE,FR
65457759,0,OTHER,FR
12422356,0,OTHER,FR
35454660,64000,PAU,FR
37460842,95430,BUTRY SUR OISE,FR
22811592,95230,SOISY SOUS MONTMORENCY,FR
65277838,75015,PARIS 15EME ARRONDISSEMENT,FR
64365860,95000,CERGY,FR
75832838,93500,PANTIN,FR
20308351,75014,PARIS 14EME ARRONDISSEMENT,FR
65856222,0,OTHER,FR
68643554,0,OTHER,FR
93947628,0,OTHER,FR
90797759,76620,LE HAVRE,FR
75008524,64140,BILLERE,FR
88766216,0,OTHER,FR
42621494,95014,CERGY,FR
1949925,0,OTHER,FR
13840800,64110,GELOS,FR
11730979,95600,EAUBONNE,FR
12415279,64000,PAU,FR
62555948,0,OTHER,FR
49837344,0,OTHER,FR
7441009,78620,L'ETANG LA VILLE,FR
95648810,64000,PAU,FR
56930541,92200,NEUILLY SUR SEINE,FR
59063934,0,OTHER,FR
38985339,0,OTHER,FR
53851816,0,OTHER,FR
43970269,92000,NANTERRE,FR
28372356,0,OTHER,FR
32339923,60200,Compigne,FR
91941482,35500,VITRE,FR
18101882,0,OTHER,FR
61435760,64320,IDRON,FR
92061219,0,OTHER,FR
72626088,78580,JUMEAUVILLE,FR
68848336,0,OTHER,FR
50733755,0,Choix,FR
6725228,78600,MESNIL LE ROI,FR
22480326,64110,LAROIN,FR
68065142,0,OTHER,FR
84637208,78711,MANTES LA VILLE,FR
72802192,64000,PAU,FR
81601290,95000,CERGY,FR
9109751,95100,Argenteuil,FR
5272320,95000,CERGY,FR
49094521,0,OTHER,FR
17743913,95590,NOINTEL,FR
4236992,64000,PAU,FR
46053817,92600,ASNIERES SUR SEINE,FR
64701341,34070,MONTPELLIER,FR
99009865,64000,PAU,FR
68353086,95300,PONTOISE,FR
69366018,56170,QUIBERON,FR
61106569,95110,SANNOIS,FR
69352896,28410,B,FR
94518593,95800,COURDIMANCHE,FR
76446181,0,OTHER,FR
76663406,95130,FRANCONVILLE,FR
9248107,92150,SURESNES,FR
92738215,78230,Le Pecq,FR
8172761,44240,LA CHAPELLE SUR ERDRE,FR
12249833,0,OTHER,FR
83958103,0,OTHER,FR
30079314,0,OTHER,FR
86008847,0,OTHER,FR
63423847,78320,LE MESNIL SAINT DENIS,FR
43856860,93460,GOURNAY SUR MARNE,FR
39499971,95300,PONTOISE,FR
49346721,95800,CERGY,FR
24430249,78240,CHAMBOURCY,FR
81905941,21800,CHEVIGNY SAINT SAUVEUR,FR
54179912,95300,PONTOISE,FR
84533171,95000,CERGY,FR
94016567,0,OTHER,FR
71665698,27290,APPEVILLE ANNEBAULT,FR
55109663,75017,PARIS 17EME ARRONDISSEMENT,FR
56535529,95240,CORMEILLES EN PARISIS,FR
13392723,91540,MENNECY,FR
61167532,95800,CERGY,FR
5117751,0,OTHER,FR
3686681,31770,COLOMIERS,FR
52861680,0,OTHER,FR
12323355,95250,BEAUCHAMP,FR
97738373,95300,PONTOISE,FR
93446491,57100,THIONVILLE,FR
61294378,64000,Pau,FR
12620475,78500,SARTROUVILLE,FR
37881941,93360,NEUILLY PLAISANCE,FR
68724626,6800,CAGNES SUR MER,FR
81874194,91490,MILLY LA FORET,FR
61586552,64000,PAU,FR
58906515,95000,Cergy,FR
18975060,75020,PARIS,FR
6438429,64000,PAU,FR
98144455,95000,CERGY,FR
70646055,0,OTHER,FR
36226039,64110,UZOS,FR
25458150,0,OTHER,FR
48609722,78420,CARRIERES SUR SEINE,FR
54619040,95014,CERGY PONTOISE CEDEX,FR
73524770,95000,CERGY,FR
99649853,27310,BOURG ACHARD,FR
58416903,95280,JOUY LE MOUTIER,FR
30586987,95000,NEUVILLE SUR OISE,FR
58717909,78100,SAINT GERMAIN EN LAYE,FR
70675563,29470,PLOUGASTEL DAOULAS,FR
23462748,95000,CERGY,FR
25901547,95800,Cergy,FR
74499291,64000,PAU,FR
30520428,92500,RUEIL MALMAISON,FR
99636343,0,OTHER,FR
80132860,95140,GARGES LES GONESSE,FR
29525087,78420,CARRIERES SUR SEINE,FR
21571461,64230,MOMAS,FR
90476589,78600,MAISONS LAFFITTE,FR
1619252,0,OTHER,FR
73544210,95000,CERGY,FR
96578577,95000,CERGY,FR
67961254,93190,LIVRY GARGAN,FR
54733473,75009,PARIS,FR
45298041,92800,PUTEAUX,FR
5443412,95100,ARGENTEUIL,FR
98406486,95810,VALLANGOUJARD,FR
68321780,78160,MARLY LE ROI,FR
30868677,0,OTHER,FR
80050396,0,OTHER,FR
24825967,95000,Neuville sur oise,FR
20759210,0,OTHER,FR
19474717,91380,CHILLY MAZARIN,FR
20275419,0,OTHER,FR
9728702,94230,CACHAN,FR
30060298,0,MONTREAL,CA
13042575,95011,CERGY CEDEX,FR
19584435,95014,CERGY CEDEX,FR
35704737,78280,GUYANCOURT,FR
62404588,95014,CERGY,FR
23537243,64000,PAU,FR
35786102,95000,CERGY,FR
23639920,0,OTHER,FR
67945782,59100,ROUBAIX,FR
91814805,0,OTHER,FR
12256819,67100,STRASBOURG,FR
18014801,94120,Fontenay ss Bois,FR
98249712,95300,PONTOISE,FR
3445655,0,Zhangjiakou,CN
52063140,95000,Cergy,FR
60525766,0,OTHER,FR
92519269,91590,LA FERTE ALAIS,FR
3017006,63700,BUXIRES SOUS MONTAIGUT,FR
66105709,95610,ERAGNY SUR OISE,FR
25379528,95230,SOISY SOUS MONMORENCY,FR
81524080,92800,PUTEAUX,FR
30901561,0,OTHER,FR
47016207,0,OTHER,FR
22940820,0,OTHER,FR
4393447,38000,GRENOBLE,FR
79700248,95520,OSNY,FR
83242870,75012,PARIS,FR
51346197,95250,BEAUCHAMP,FR
78192625,33000,BORDEAUX,FR
90950981,0,OTHER,FR
33191450,92500,RUEIL MALMAISON,FR
55961844,75015,PARIS,FR
87541865,78780,MAURECOURT,FR
50104862,6200,NICE,FR
35341081,59710,Mrignies,FR
42537448,95300,PONTOISE,FR
53062329,95110,SANNOIS,FR
57357562,95610,ERAGNY SUR OISE,FR
14116509,92110,CLICHY,FR
69565032,92380,GARCHES,FR
65359015,93600,AULNAY SOUS BOIS,FR
8835396,92120,Montrouge,FR
85976054,78400,CHATOU,FR
52983185,17780,MOZE,FR
48743696,0,OTHER,FR
57506551,95000,CERGY,FR
58932252,78700,CONFLANS SAINTE HONORINE,FR
60841049,94100,SAINT MAUR,FR
33885682,95330,DOMONT,FR
46156105,60175,VILLENEUVE LES SABLONS,FR
50205495,75013,PARIS,FR
2283290,92250,La Garenne Colombes,FR
50376277,0,WENSHANG,CN
67291626,92110,CLICHY,FR
32669521,92300,LEVALLOIS PERRET,FR
34453744,95800,COURDIMANCHE,FR
92742823,0,OTHER,FR
2827305,95640,MARINES,FR
87050933,0,OTHER,FR
40597213,78480,VERNEUIL SUR SEINE,FR
14488224,0,OTHER,FR
68977551,0,OTHER,FR
79601763,75015,PARIS,FR
55487647,95300,FRANCONVILLE,FR
41919667,0,OTHER,FR
47597898,31600,MURET,FR
60552249,0,OTHER,FR
51312041,93300,AUBERVILLIERS,FR
60803217,64000,Pau,FR
66179648,0,CHOIX,FR
30090799,95540,MERY SUR OISE,FR
57878284,64160,MORLAAS,FR
11852400,75005,PARIS,FR
52081763,95000,CERGY,FR
78362713,33000,BORDEAUX,FR
30267776,75014,PARIS,FR
88408111,95000,CERGY,FR
5948459,95640,MARINES,FR
83781868,0,OTHER,FR
38279127,78100,ST GERMAIN EN LAYE,FR
25856353,84110,SABLET,FR
33448364,2,31200,FR
53629486,0,OTHER,FR
28568902,0,OTHER,FR
58242606,94210,LA VIENNE,FR
65860970,97440,SAINT ANDRE,FR
90415587,64000,PAU,FR
80284688,95000,CERGY,FR
52932166,95014,CERGY,FR
22392014,95800,CERGY,FR
83134661,95450,AVERNES,FR
67550552,18000,BOURGES,FR
26335113,95700,ROISSY EN FRANCE,FR
93718271,0,OTHER,FR
25052679,95014,CERGY,FR
7278681,0,OTHER,FR
56433293,64230,LESCAR,FR
46528303,93250,VILLEMOMBLE,FR
4295226,95520,OSNY,FR
9546913,0,OTHER,FR
23686199,30320,SAINT GERVASY,FR
89023049,95220,HERBLAY,FR
18719333,95000,CERGY,FR
45738081,92200,NEUILLY,FR
98237867,95800,CERGY ST CHRISTOPHE,FR
28568207,78670,VILLENNES SUR SEINE,FR
32551064,75015,PARIS 15EME ARRONDISSEMENT,FR
38784387,92310,SEVRES,FR
73240084,95000,CERGY,FR
16451389,0,OTHER,FR
72732870,93380,PIERREFITTE,FR
18599176,0,OTHER,FR
36275668,95800,CERGY,FR
40680419,0,OTHER,FR
69166114,95000,CERGY,FR
72730829,0,SIMANCAS,ES
34838521,75013,PARIS,FR
70017350,92400,COURBEVOIE,FR
35772334,64000,PAU,FR
94851832,64140,BILLERE,FR
69989912,78955,CARRIERES SOUS POISSY,FR
43686909,95000,CERGY,FR
18862592,64110,UZOS,FR
87138329,95800,COURDIMANCHE,FR
59897919,31000,TOULOUSE,FR
55143477,64000,Pau,FR
65156964,64160,MAUCOR,FR
68285693,0,OTHER,FR
98610065,0,OTHER,FR
82657937,60260,LAMORLAYE,FR
39814687,95300,PONTOISE,FR
12094309,0,OTHER,FR
94971508,75017,PARIS,FR
2501201,0,OTHER,FR
84017207,92380,GARCHES,FR
24094220,60230,Chambly,FR
62016570,0,OTHER,FR
86180549,95000,Cergy,FR
67353288,0,OTHER,FR
31482690,0,OTHER,FR
82312358,0,OTHER,FR
63148457,95000,CERGY,FR
98883863,93300,Aubervilliers,FR
89207833,78955,CARRIERES SOUS POISSY,FR
63072432,64320,BIZANOS,FR
52300774,95001,PORT CERGY,FR
40281381,77400,THORIGNY SUR MARNE,FR
61173633,95000,CERGY,FR
63735621,64110,MAZRES LEZONS,FR
60825012,78580,Maule,FR
2130513,78800,HOUILLES,FR
26423205,95000,CERGY,FR
90215211,22700,LOUANNEC,FR
23157817,75006,CERGY,FR
96685241,0,OTHER,FR
83584116,95000,CERGY,FR
44166526,95800,CERGY ST CHRISTOPHE,FR
83876296,95000,NEUVILLE,FR
14023774,92400,COURBEVOIE,FR
96847933,75019,PARIS,FR
11226144,78100,SAINT GERMAIN EN LAYE,FR
72365751,75015,PARIS,FR
50878696,78700,CONFLANS SAINTE HONORINE,FR
68211591,78370,PLAISIR,FR
18952589,0,OTHER,FR
56750077,95801,CERGY,FR
42693395,0,OTHER,FR
98292237,0,OTHER,FR
26860968,95310,Saint Ouen l'Aumne,FR
36519402,0,Chennai,IN
4213519,0,OTHER,FR
17150879,78540,VERNOUILLET,FR
33165807,13090,AIX EN PROVENCE,FR
34656197,95000,CERGY,FR
84059665,85180,Le Chteau d'Olonne,FR
33062343,0,OTHER,FR
95987683,78420,Carrires Sur Seine,FR
59143972,0,OTHER,FR
48311963,88000,EPINAL,FR
23633539,0,OTHER,FR
15968489,95000,CERGY,FR
67287476,34970,LATTES,FR
94708896,93500,PANTIN,FR
88825277,95000,CERGY,FR
5815754,75014,PARIS,FR
36499928,64000,Pau,FR
95678425,0,OTHER,FR
39138034,0,OTHER,FR
86377496,75008,PARIS,FR
98040980,75011,PARIS,FR
20942153,95801,CERGY,FR
73242714,78700,CONFLANS STE HONORINE,FR
58546300,78570,ANDRESY,FR
18231984,95800,CERGY LE HAUT,FR
99694280,28160,GOHORY,FR
1264947,77140,NEMOURS,FR
19898534,95510,VILLERS EN ARTHIES,FR
41577258,95000,CERGY,FR
87500071,0,OTHER,FR
89933399,95320,SAINT LEU LA FORET,FR
88820175,95000,NEUVILLE SUR OISE,FR
44494899,0,OTHER,FR
78324511,67400,Illkirch Graffenstaden,FR
96901426,78560,Le Port Marly,FR
95481208,78600,MAISONS LAFFITTE,FR
86190177,13115,SAINT PAUL LEZ DURANCE,FR
59485547,59600,Vieux Reng,FR
86202894,0,OTHER,FR
82301788,75015,PARIS,FR
44997203,95870,BEZONS,FR
7217655,95000,NEUVILLE SUR OISE,FR
60135014,95000,NEUVILLE,FR
51163772,0,LIU PANSHUI,CN
8732670,64000,Pau,FR
85673209,40800,AIRE SUR L'ADOUR,FR
17041898,95220,HERBLAY,FR
46557120,59770,MARLY,FR
7349625,95430,AUVERS SUR OISE,FR
5330084,93500,PANTIN,FR
54791057,90000,BELFORT,FR
63635547,75016,PARIS,FR
71534951,95000,CERGY,FR
85407267,0,OTHER,FR
54751385,0,92110,FR
3907800,31700,CORNEBARRIEU,FR
18415825,78600,Conflans,FR
53064340,0,OTHER,FR
76233454,8140,Pouru saint rmy,FR
71559736,95000,CERGY,FR
22995742,64000,PAU,FR
84807858,35170,BRUZ,FR
3638872,78130,LES MUREAUX,FR
26636474,95130,PLESSIS BOUCHARD,FR
20534965,0,OTHER,FR
11449697,95280,JOUY LE MOUTIER,FR
53477653,95360,MONTMAGNY,FR
54194444,0,OTHER,FR
75028171,75012,PARIS,FR
88117542,17690,ANGOULINS,FR
81497130,92340,BOURG LA REINE,FR
2896080,64110,GELOS,FR
99273046,10450,BREVIANDES,FR
37541267,0,OTHER,FR
6773650,64000,PAU,FR
6615362,0,OTHER,FR
90284611,95800,CERGY,FR
67411977,64000,PAU,FR
64789103,95520,OSNY,FR
7043905,95000,CERGY,FR
6595030,78580,MAULE,FR
74689591,64000,PAU,FR
5212805,47510,FOULAYRONNES,FR
59035022,92290,Chatenay Malabry,FR
75340666,92800,PUTEAUX,FR
43571560,64110,Saint Faust,FR
48402698,92600,asnires sur seine,FR
96740335,95801,CERGY ST CHRISTOPHE,FR
49965766,64000,Pau,FR
71714662,0,OTHER,FR
57749914,95130,LE PLESSIS BOUCHARD,FR
82481289,64110,JURANCON,FR
71010752,0,OTHER,FR
85940659,95000,NEUVILLE SUR OISE,FR
71633676,0,OTHER,FR
27752620,95560,CHAUVRY,FR
71584709,64000,PAU,FR
4641425,38121,CHONAS L AMBALLAN,FR
62927113,92100,BOULOGNE,FR
60701380,95800,CERGY ST CHRISTOPHE,FR
5159440,95800,COURDIMANCHE,FR
90362808,78130,Les Mureaux,FR
49453200,95000,CERGY,FR
6622671,95000,CERGY,FR
42871351,0,OTHER,FR
61564707,93600,AULNAY SOUS BOIS,FR
70250909,0,OTHER,FR
61819562,64140,LONS,FR
52819244,0,Frankfurt am Main,DE
19540488,85150,SAINT MATHURIN,FR
10951704,95490,VAURAL,FR
25010854,0,OTHER,FR
27753931,95000,CERGY,FR
81446258,75016,PARIS 16EME ARRONDISSEMENT,FR
30594758,0,OTHER,FR
98336407,95000,CERGY,FR
28379417,94400,VITRY SUR SEINE,FR
52041568,95272,VIARMES,FR
23376809,78800,HOUILLES,FR
70500730,95000,CERGY,FR
83164357,0,OTHER,FR
11227567,64000,PAU,FR
36675732,95800,CERGY,FR
46038923,64450,GARLEDE MONDEBAT,FR
74058201,95000,Cergy st Christophe,FR
53130807,0,OTHER,FR
30648699,93210,LA PLAINE ST DENIS,FR
70857756,0,OTHER,FR
42182691,78126,AULNAY SUR MAULDRE,FR
69700762,77410,CLAYE SOUILLY,FR
67316742,64160,OUILLON,FR
95444049,64000,PAU,FR
57774785,0,OTHER,FR
14242303,0,OTHER,FR
13666575,0,OTHER,FR
49466380,84110,VAISON LA ROMAINE,FR
36254297,0,OTHER,FR
75463713,78150,LE CHESNAY,FR
20854584,77700,SERRIS,FR
28159910,94160,ST MANDE,FR
63112046,0,OTHER,FR
59354400,6440,PEILLE,FR
21751189,95000,CERGY,FR
77719696,0,OTHER,FR
53160919,92140,CLAMART,FR
88344671,92160,ANTONY,FR
80817696,0,OTHER,FR
99390168,93700,DRANCY,FR
37982227,78260,ACHERES,FR
95010484,0,tunis,TN
98253349,0,OTHER,FR
54749067,92700,COLOMBES,FR
15868991,0,OTHER,FR
99602844,78440,GARGENVILLE,FR
6740303,94700,MAISONS ALFORT,FR
79217640,0,OTHER,FR
43493615,0,OTHER,FR
80101898,93300,AUBERVILLIERS,FR
77480426,78130,LES MUREAUX,FR
85054041,95100,ARGENTEUIL,FR
31265469,0,OTHER,FR
37567651,77186,NOISIEL,FR
57263611,0,OTHER,FR
10594030,95000,CERGY,FR
33782790,95000,CERGY,FR
24618278,95160,MONTMORENCY,FR
74477233,95000,CERGY,FR
64008227,75017,Paris,FR
56909971,0,OTHER,FR
51449341,78920,Ecquevilly,FR
26496317,51100,CERNAY LES REIMS,FR
91491463,38330,SAINT ISMIER,FR
11395969,0,OTHER,FR
45127997,95520,OSNY,FR
48220426,95800,CERGY,FR
36325276,95320,ST LEU LA FORET,FR
99572236,0,OTHER,FR
17493428,0,OTHER,FR
45429091,64000,PAU,FR
12040428,95000,NEUVILLE SUR OISE,FR
48141291,95290,L'ISLE ADAM,FR
28902048,78740,VAUX SUR SEINE,FR
25606823,0,OTHER,FR
58051681,87400,SAINT LEONARD DE NOBLAT,FR
69303606,75014,Paris,FR
74057044,78700,Conflans Sainte Honorine,FR
74661689,0,OTHER,FR
1268400,78160,MARLY LE ROI,FR
94344199,0,OTHER,FR
91147000,29000,QUIMPER,FR
34520421,78360,MONTESSON,FR
67519765,95300,PONTOISE,FR
13031364,95370,MONTIGNY LES CORMEILLES,FR
78118194,93130,NOISY LE SEC,FR
38753939,95000,CERGY,FR
96894835,95000,CERGY,FR
83972677,0,OTHER,FR
96228421,0,OTHER,FR
41727922,92160,antony,FR
10070890,0,OTHER,FR
39794011,95000,CERGY PONTOISE,FR
7314013,95150,TAVERNY,FR
90881631,0,OTHER,FR
49378195,77127,LIEUSAINT,FR
40138481,95000,CERGY,FR
46473775,93200,ST DENIS,FR
91074342,0,OTHER,FR
15441227,95000,CERGY,FR
17096272,95130,FRANCONVILLE,FR
52169394,0,OTHER,FR
91258067,95800,Cergy,FR
91634904,94300,Vincennes,FR
9003946,0,Tehran,IR
3087248,77124,CREGY LES MEAUX,FR
43105721,64000,Pau,FR
569075,75116,PARIS,FR
11624695,0,OTHER,FR
31925300,76000,ROUEN,FR
11862429,95014,CERGY,FR
28126989,95800,CERGY LE HAUT,FR
15765277,95000,CERGY PONTOISE,FR
8997654,13008,MARSEILLE,FR
31527992,95290,L'ISLE ADAM,FR
69941333,95150,TAVERNY,FR
29567534,95300,PONTOISE,FR
65250255,0,OTHER,FR
95368644,0,OTHER,FR
41356418,64000,Pau,FR
89948348,13100,AIX EN PROVENCE,FR
46396165,95000,CERGY VILLAGE,FR
39366248,78000,VERSAILLES,FR
24807440,78870,BAILLY,FR
36310723,94210,La Varenne Saint Hilaire,FR
61418622,95000,CERGY,FR
88279770,78420,CARRIERES SUR SEINE,FR
75375822,75116,PARIS,FR
16681165,0,OTHER,FR
73492907,64000,PAU,FR
86399877,78500,SARTROUVILLE,FR
65919756,92350,LE PLESSIS ROBINSON,FR
92903303,92250,LA GARENNE COLOMBES,FR
3348145,95000,CERGY,FR
94234247,75014,PARIS,FR
77626141,75005,PARIS,FR
68088838,75020,PARIS,FR
24656058,95480,PIERRELAYE,FR
10043494,75116,PARIS,FR
50616366,0,OTHER,FR
25021824,0,OTHER,FR
99737953,0,OTHER,FR
5226075,6100,NICE,FR
73255913,64000,PAU,FR
80012222,95014,CERGY CEDEX,FR
69361545,0,OTHER,FR
72564267,95300,PONTOISE,FR
79267929,95300,PONTOISE,FR
44746839,50120,EQUEURDREVILLE HAINNEVILLE,FR
81494898,95000,CERGY PONTOISE,FR
36422123,95000,CERGY,FR
37470508,0,Prague 10,CZ
54807474,95000,NEUVILLE SUR OISE,FR
41903711,95000,CERGY,FR
88480116,95800,COURDIMANCHE,FR
52676689,64000,PAU,FR
79914674,92800,PUTEAUX,FR
84379767,64000,Pau,FR
19768412,94120,FONTENAY SOUS BOIS,FR
16598628,95620,PARMAIN,FR
86968950,78000,VERSAILLES,FR
37851132,0,OTHER,FR
97845055,64000,PAU,FR
4765732,78600,Maisons Laffitte,FR
31475133,0,OTHER,FR
9999525,0,OTHER,FR
86623794,0,OTHER,FR
99616829,0,OTHER,FR
94597390,0,OTHER,FR
39611027,95000,cergy,FR
15866621,95800,CERGY ST CHRISTOPHE,FR
13408122,0,OTHER,FR
95106598,34980,SAINT CLEMENT DE RIVIERE,FR
46582492,59229,TETEGHEM,FR
63204261,82000,Montauban,FR
26408388,0,OTHER,FR
8727793,0,OTHER,FR
97371706,95000,CERGY,FR
15578652,95000,NEUVILLE,FR
6165461,95000,CERGY,FR
69774668,95000,NEUVILLE,FR
11797945,95000,CERGY,FR
54151671,95600,EAUBONNE,FR
28300381,95000,NEUVILLE,FR
28303588,93140,BONDY,FR
14706554,59182,LOFFRE,FR
18596445,64000,PAU,FR
72817978,92110,CLICHY,FR
87727911,31620,Fronton,FR
14002659,64000,PAU,FR
94224768,95590,PRESLES,FR
55057789,92350,LE PLESSIS ROBINSON,FR
62507189,30900,NMES,FR
7888549,0,OTHER,FR
55382098,0,OTHER,FR
56496956,69230,SAINT GENIS LAVAL,FR
9737478,92120,MONTROUGE,FR
91849867,64450,NAVAILLES ANGOS,FR
72872742,75005,PARIS,FR
74609612,64000,PAU,FR
8972572,95000,CERGY,FR
